{
"type": "FeatureCollection",
"name": "BWI SLS",
"crs": { "type": "name", "properties": { "name": "urn:ogc:def:crs:OGC:1.3:CRS84" } },
"features": [
{ "type": "Feature", "properties": { "id": "10 - 28" }, "geometry": { "type": "Polygon", "coordinates": [ [ [ -76.689620035185314, 39.174955644797308 ], [ -76.689653564847362, 39.174548963237541 ], [ -76.652696891920769, 39.172431581828548 ], [ -76.652656376912461, 39.172846398655793 ], [ -76.689620035185314, 39.174955644797308 ] ] ] } },
{ "type": "Feature", "properties": { "id": "15R - 33L" }, "geometry": { "type": "Polygon", "coordinates": [ [ [ -76.681792954700256, 39.185496053500081 ], [ -76.68222604616841, 39.18525403060945 ], [ -76.662612590937783, 39.164081112825173 ], [ -76.662178102400361, 39.164329166207452 ], [ -76.681792954700256, 39.185496053500081 ] ] ] } },
{ "type": "Feature", "properties": { "id": "15L - 33R" }, "geometry": { "type": "Polygon", "coordinates": [ [ [ -76.663369802472403, 39.187424085287823 ], [ -76.663656201669099, 39.18726165836523 ], [ -76.653385996329348, 39.176159700843769 ], [ -76.653093310321069, 39.176321882666286 ], [ -76.663369802472403, 39.187424085287823 ] ] ] } },
{ "type": "Feature", "properties": { "runwayId": "15R - 33L", "crossRunwayId": "10 - 28" }, "geometry": { "type": "LineString", "coordinates": [ [ -76.671741390698486, 39.173934875040175 ], [ -76.671336939149981, 39.173499080360997 ] ] } },
{ "type": "Feature", "properties": { "runwayId": "10 - 28", "crossRunwayId": "15R - 33L" }, "geometry": { "type": "LineString", "coordinates": [ [ -76.671337113783636, 39.173499621890706 ], [ -76.670638666474403, 39.173459345607732 ] ] } },
{ "type": "Feature", "properties": { "runwayId": "15R - 33L", "crossRunwayId": "10 - 28" }, "geometry": { "type": "LineString", "coordinates": [ [ -76.670638579157568, 39.173459548681485 ], [ -76.671042856072319, 39.173895614368924 ] ] } },
{ "type": "Feature", "properties": { "runwayId": "10 - 28", "crossRunwayId": "15R - 33L" }, "geometry": { "type": "LineString", "coordinates": [ [ -76.671043030705988, 39.173895749750592 ], [ -76.671741172406314, 39.173935484257278 ] ] } },
{ "type": "Feature", "properties": { "runwayId": "10 - 28" }, "geometry": { "type": "LineString", "coordinates": [ [ -76.689640816588721, 39.174548658631565 ], [ -76.688888494796515, 39.174504795366552 ] ] } },
{ "type": "Feature", "properties": { "runwayId": "10 - 28" }, "geometry": { "type": "LineString", "coordinates": [ [ -76.68961287520365, 39.174956423230014 ], [ -76.688773935117823, 39.174906603512134 ] ] } },
{ "type": "Feature", "properties": { "runwayId": "10 - 28" }, "geometry": { "type": "LineString", "coordinates": [ [ -76.682167194625094, 39.174119772199553 ], [ -76.68086163340908, 39.174044500194789 ] ] } },
{ "type": "Feature", "properties": { "runwayId": "10 - 28" }, "geometry": { "type": "LineString", "coordinates": [ [ -76.682516461938093, 39.174550824718011 ], [ -76.680195231375905, 39.174417068754472 ] ] } },
{ "type": "Feature", "properties": { "runwayId": "10 - 28" }, "geometry": { "type": "LineString", "coordinates": [ [ -76.677290724400962, 39.174252445680835 ], [ -76.675672918207113, 39.174160928081761 ] ] } },
{ "type": "Feature", "properties": { "runwayId": "10 - 28" }, "geometry": { "type": "LineString", "coordinates": [ [ -76.677240429907826, 39.173837095620904 ], [ -76.67589086101043, 39.173760740258189 ] ] } },
{ "type": "Feature", "properties": { "runwayId": "10 - 28" }, "geometry": { "type": "LineString", "coordinates": [ [ -76.666633880146577, 39.173643228651436 ], [ -76.665758616260177, 39.173595032590022 ] ] } },
{ "type": "Feature", "properties": { "runwayId": "10 - 28" }, "geometry": { "type": "LineString", "coordinates": [ [ -76.666666711274033, 39.173232207247182 ], [ -76.665855712573219, 39.173185093968328 ] ] } },
{ "type": "Feature", "properties": { "runwayId": "10 - 28" }, "geometry": { "type": "LineString", "coordinates": [ [ -76.659743534595677, 39.173249536261345 ], [ -76.658378597936434, 39.173173721792828 ] ] } },
{ "type": "Feature", "properties": { "runwayId": "10 - 28" }, "geometry": { "type": "LineString", "coordinates": [ [ -76.656011962623523, 39.173037255543491 ], [ -76.654697320457402, 39.172965773116722 ] ] } },
{ "type": "Feature", "properties": { "runwayId": "10 - 28" }, "geometry": { "type": "LineString", "coordinates": [ [ -76.654952984130517, 39.172561246196082 ], [ -76.654260037781512, 39.172521713989312 ] ] } },
{ "type": "Feature", "properties": { "runwayId": "10 - 28" }, "geometry": { "type": "LineString", "coordinates": [ [ -76.653435068388191, 39.172474058696835 ], [ -76.652696018753872, 39.17243344336525 ] ] } },
{ "type": "Feature", "properties": { "runwayId": "15R - 33L" }, "geometry": { "type": "LineString", "coordinates": [ [ -76.662180023371107, 39.164332111159887 ], [ -76.662694144855863, 39.164887249270286 ] ] } },
{ "type": "Feature", "properties": { "runwayId": "15R - 33L" }, "geometry": { "type": "LineString", "coordinates": [ [ -76.66445515064801, 39.166787142446744 ], [ -76.664969272132737, 39.167341178026888 ] ] } },
{ "type": "Feature", "properties": { "runwayId": "15R - 33L" }, "geometry": { "type": "LineString", "coordinates": [ [ -76.666717005766998, 39.169229632105555 ], [ -76.667566423872216, 39.170144866914619 ] ] } },
{ "type": "Feature", "properties": { "runwayId": "15R - 33L" }, "geometry": { "type": "LineString", "coordinates": [ [ -76.668685476343086, 39.170633348310439 ], [ -76.668270546775204, 39.170187108233627 ] ] } },
{ "type": "Feature", "properties": { "runwayId": "15R - 33L" }, "geometry": { "type": "LineString", "coordinates": [ [ -76.66909621470316, 39.171082834845635 ], [ -76.669937250392863, 39.171989380876234 ] ] } },
{ "type": "Feature", "properties": { "runwayId": "15R - 33L" }, "geometry": { "type": "LineString", "coordinates": [ [ -76.672474328154507, 39.175439997570564 ], [ -76.673446688353906, 39.176487279310471 ] ] } },
{ "type": "Feature", "properties": { "runwayId": "15R - 33L" }, "geometry": { "type": "LineString", "coordinates": [ [ -76.673463453184922, 39.175790898257311 ], [ -76.673217568996577, 39.175534221075104 ] ] } },
{ "type": "Feature", "properties": { "runwayId": "15R - 33L" }, "geometry": { "type": "LineString", "coordinates": [ [ -76.675533909816409, 39.178027307473378 ], [ -76.675138539218111, 39.177601691248711 ] ] } },
{ "type": "Feature", "properties": { "runwayId": "15R - 33L" }, "geometry": { "type": "LineString", "coordinates": [ [ -76.675093833002009, 39.178266647780866 ], [ -76.674498681500665, 39.177626600157268 ] ] } },
{ "type": "Feature", "properties": { "runwayId": "15R - 33L" }, "geometry": { "type": "LineString", "coordinates": [ [ -76.676978479422999, 39.180301548975102 ], [ -76.678012310669487, 39.181416983391927 ] ] } },
{ "type": "Feature", "properties": { "runwayId": "15R - 33L" }, "geometry": { "type": "LineString", "coordinates": [ [ -76.681228364087588, 39.184890960869851 ], [ -76.681788588857657, 39.185491958879311 ] ] } },
{ "type": "Feature", "properties": { "runwayId": "15L - 33R" }, "geometry": { "type": "LineString", "coordinates": [ [ -76.66336823076989, 39.187423239314008 ], [ -76.663139111412562, 39.187176350240371 ] ] } },
{ "type": "Feature", "properties": { "runwayId": "15L - 33R" }, "geometry": { "type": "LineString", "coordinates": [ [ -76.663656027035799, 39.187260270965773 ], [ -76.663414334055219, 39.18699984567801 ] ] } },
{ "type": "Feature", "properties": { "runwayId": "15L - 33R" }, "geometry": { "type": "LineString", "coordinates": [ [ -76.660495157853148, 39.184321361616973 ], [ -76.660064161988913, 39.183853008963411 ] ] } },
{ "type": "Feature", "properties": { "runwayId": "15L - 33R" }, "geometry": { "type": "LineString", "coordinates": [ [ -76.660791336534572, 39.184163259104807 ], [ -76.660317730058125, 39.183652672193396 ] ] } },
{ "type": "Feature", "properties": { "runwayId": "15L - 33R" }, "geometry": { "type": "LineString", "coordinates": [ [ -76.659309744592818, 39.183039204965382 ], [ -76.658851505878133, 39.182541063471689 ] ] } },
{ "type": "Feature", "properties": { "runwayId": "15L - 33R" }, "geometry": { "type": "LineString", "coordinates": [ [ -76.656725865011197, 39.180245776789654 ], [ -76.656169831448921, 39.179648524301932 ] ] } },
{ "type": "Feature", "properties": { "runwayId": "15L - 33R" }, "geometry": { "type": "LineString", "coordinates": [ [ -76.656443657022308, 39.179464420064143 ], [ -76.655872255698256, 39.178848208843192 ] ] } },
{ "type": "Feature", "properties": { "runwayId": "15L - 33R" }, "geometry": { "type": "LineString", "coordinates": [ [ -76.653365913460178, 39.176615616279122 ], [ -76.653092087886762, 39.176323202591668 ] ] } },
{ "type": "Feature", "properties": { "runwayId": "15L - 33R" }, "geometry": { "type": "LineString", "coordinates": [ [ -76.653650217052927, 39.176447207803925 ], [ -76.653386170964296, 39.176161833035998 ] ] } }
]
}
