{
"type": "FeatureCollection",
"name": "CLE_SL_runways",
"crs": { "type": "name", "properties": { "name": "urn:ogc:def:crs:OGC:1.3:CRS84" } },
"features": [
{ "type": "Feature", "properties": { "id": "6L - 24R" }, "geometry": { "type": "Polygon", "coordinates": [ [ [ -81.873681467808296, 41.400037053096987 ], [ -81.873325143404458, 41.399721035720574 ], [ -81.848201928690187, 41.41561294593626 ], [ -81.848556913528682, 41.415930392889734 ], [ -81.873681467808296, 41.400037053096987 ] ] ] } },
{ "type": "Feature", "properties": { "id": "6R - 24L" }, "geometry": { "type": "Polygon", "coordinates": [ [ [ -81.870025082110701, 41.397907956808062 ], [ -81.869676167178099, 41.397593342163404 ], [ -81.841879514760535, 41.415161950098636 ], [ -81.842228136663252, 41.415479148110379 ], [ -81.870025082110701, 41.397907956808062 ] ] ] } },
{ "type": "Feature", "properties": { "id": "10 - 28" }, "geometry": { "type": "Polygon", "coordinates": [ [ [ -81.85423633605285, 41.417226848725463 ], [ -81.854266141383633, 41.416816234974362 ], [ -81.832372284025439, 41.415863651303503 ], [ -81.832345157825515, 41.416279293932469 ], [ -81.85423633605285, 41.417226848725463 ] ] ] } },
{ "type": "Feature", "properties": { "runwayId": "6R - 24L", "crossRunwayId": null }, "geometry": { "type": "LineString", "coordinates": [ [ -81.860668929238969, 41.403822422396658 ], [ -81.860437854202615, 41.403967108216179 ] ] } },
{ "type": "Feature", "properties": { "runwayId": "6R - 24L", "crossRunwayId": null }, "geometry": { "type": "LineString", "coordinates": [ [ -81.864865117942756, 41.401168787140769 ], [ -81.864056020424115, 41.401680230763759 ] ] } },
{ "type": "Feature", "properties": { "runwayId": "6R - 24L", "crossRunwayId": null }, "geometry": { "type": "LineString", "coordinates": [ [ -81.86880611943252, 41.398678833184604 ], [ -81.868074716708705, 41.399139049778746 ] ] } },
{ "type": "Feature", "properties": { "runwayId": "6L - 24R", "crossRunwayId": null }, "geometry": { "type": "LineString", "coordinates": [ [ -81.873325813187179, 41.39972185214279 ], [ -81.872716310917355, 41.400106699804326 ] ] } },
{ "type": "Feature", "properties": { "runwayId": "6L - 24R", "crossRunwayId": null }, "geometry": { "type": "LineString", "coordinates": [ [ -81.871556247256606, 41.400844234384834 ], [ -81.869337926907534, 41.402238895426073 ] ] } },
{ "type": "Feature", "properties": { "runwayId": "6L - 24R", "crossRunwayId": null }, "geometry": { "type": "LineString", "coordinates": [ [ -81.866899917828235, 41.403782231834121 ], [ -81.865391567156081, 41.40473675098017 ] ] } },
{ "type": "Feature", "properties": { "runwayId": "6L - 24R", "crossRunwayId": null }, "geometry": { "type": "LineString", "coordinates": [ [ -81.863628699052597, 41.405854022947665 ], [ -81.861434490881223, 41.407240538782858 ] ] } },
{ "type": "Feature", "properties": { "runwayId": "6L - 24R", "crossRunwayId": null }, "geometry": { "type": "LineString", "coordinates": [ [ -81.860701748592064, 41.407706722967824 ], [ -81.858507540420703, 41.409094203949387 ] ] } },
{ "type": "Feature", "properties": { "runwayId": "6L - 24R", "crossRunwayId": null }, "geometry": { "type": "LineString", "coordinates": [ [ -81.857302601318082, 41.409848715926415 ], [ -81.855740668028858, 41.410847350794455 ] ] } },
{ "type": "Feature", "properties": { "runwayId": "6L - 24R", "crossRunwayId": null }, "geometry": { "type": "LineString", "coordinates": [ [ -81.85393225470078, 41.411986619714668 ], [ -81.85173804652942, 41.413377023141273 ] ] } },
{ "type": "Feature", "properties": { "runwayId": "6L - 24R", "crossRunwayId": null }, "geometry": { "type": "LineString", "coordinates": [ [ -81.85011717236128, 41.414401723380891 ], [ -81.849097763070418, 41.415047678068198 ] ] } },
{ "type": "Feature", "properties": { "runwayId": "6L - 24R", "crossRunwayId": null }, "geometry": { "type": "LineString", "coordinates": [ [ -81.848831189550225, 41.41521644899651 ], [ -81.848200254233518, 41.415613259868181 ] ] } },
{ "type": "Feature", "properties": { "runwayId": "6L - 24R", "crossRunwayId": null }, "geometry": { "type": "LineString", "coordinates": [ [ -81.849971159729577, 41.41503562298513 ], [ -81.848770909105937, 41.415795088850089 ] ] } },
{ "type": "Feature", "properties": { "runwayId": "6L - 24R", "crossRunwayId": null }, "geometry": { "type": "LineString", "coordinates": [ [ -81.854163999519827, 41.412383450317002 ], [ -81.852114464414711, 41.413677402631329 ] ] } },
{ "type": "Feature", "properties": { "runwayId": "6L - 24R", "crossRunwayId": null }, "geometry": { "type": "LineString", "coordinates": [ [ -81.857439236991695, 41.410311867406811 ], [ -81.856070870906791, 41.411175369864154 ] ] } },
{ "type": "Feature", "properties": { "runwayId": "10 - 28", "crossRunwayId": null }, "geometry": { "type": "LineString", "coordinates": [ [ -81.85426580649235, 41.416816737255992 ], [ -81.853680416400238, 41.416790618617867 ] ] } },
{ "type": "Feature", "properties": { "runwayId": "10 - 28", "crossRunwayId": null }, "geometry": { "type": "LineString", "coordinates": [ [ -81.851910850469565, 41.416713769487039 ], [ -81.850689166799043, 41.416660527552246 ] ] } },
{ "type": "Feature", "properties": { "runwayId": "10 - 28", "crossRunwayId": null }, "geometry": { "type": "LineString", "coordinates": [ [ -81.835655223998543, 41.41600856145277 ], [ -81.834531328604314, 41.415959337244274 ] ] } },
{ "type": "Feature", "properties": { "runwayId": "10 - 28", "crossRunwayId": null }, "geometry": { "type": "LineString", "coordinates": [ [ -81.832889021389363, 41.415886003150199 ], [ -81.832371279351378, 41.415865409314371 ] ] } },
{ "type": "Feature", "properties": { "runwayId": "6R - 24L", "crossRunwayId": null }, "geometry": { "type": "LineString", "coordinates": [ [ -81.869677841634896, 41.397595854313572 ], [ -81.869019445226954, 41.398008348045551 ] ] } },
{ "type": "Feature", "properties": { "runwayId": "6R - 24L", "crossRunwayId": null }, "geometry": { "type": "LineString", "coordinates": [ [ -81.868464195356907, 41.39835853859887 ], [ -81.867689926539441, 41.398849907528309 ] ] } },
{ "type": "Feature", "properties": { "runwayId": "6R - 24L", "crossRunwayId": null }, "geometry": { "type": "LineString", "coordinates": [ [ -81.864566059960907, 41.40082740381839 ], [ -81.863807865928578, 41.401303682043093 ] ] } },
{ "type": "Feature", "properties": { "runwayId": "6R - 24L", "crossRunwayId": null }, "geometry": { "type": "LineString", "coordinates": [ [ -81.860504497582667, 41.403390623738645 ], [ -81.85988561835488, 41.403782483025118 ] ] } },
{ "type": "Feature", "properties": { "runwayId": "6R - 24L", "crossRunwayId": null }, "geometry": { "type": "LineString", "coordinates": [ [ -81.856073215146253, 41.406193872772754 ], [ -81.855047108028259, 41.406846942095704 ] ] } },
{ "type": "Feature", "properties": { "runwayId": "6R - 24L", "crossRunwayId": null }, "geometry": { "type": "LineString", "coordinates": [ [ -81.853986172209119, 41.407514070749428 ], [ -81.852266170199357, 41.408602158961557 ] ] } },
{ "type": "Feature", "properties": { "runwayId": "6R - 24L", "crossRunwayId": null }, "geometry": { "type": "LineString", "coordinates": [ [ -81.848085386498013, 41.411246448816222 ], [ -81.84734728594708, 41.411710594973691 ] ] } },
{ "type": "Feature", "properties": { "runwayId": "6R - 24L", "crossRunwayId": null }, "geometry": { "type": "LineString", "coordinates": [ [ -81.845808125270082, 41.412680067050999 ], [ -81.845021800363767, 41.413178360022997 ] ] } },
{ "type": "Feature", "properties": { "runwayId": "6R - 24L", "crossRunwayId": null }, "geometry": { "type": "LineString", "coordinates": [ [ -81.843648745799896, 41.414047349709712 ], [ -81.842835629584968, 41.414559696562932 ] ] } },
{ "type": "Feature", "properties": { "runwayId": "6R - 24L", "crossRunwayId": null }, "geometry": { "type": "LineString", "coordinates": [ [ -81.84247260735394, 41.414788744437203 ], [ -81.841873821607507, 41.415165466158001 ] ] } },
{ "type": "Feature", "properties": { "runwayId": "6R - 24L", "crossRunwayId": null }, "geometry": { "type": "LineString", "coordinates": [ [ -81.846120244014827, 41.413015862684517 ], [ -81.845311146496215, 41.413528217673488 ] ] } },
{ "type": "Feature", "properties": { "runwayId": "6R - 24L", "crossRunwayId": null }, "geometry": { "type": "LineString", "coordinates": [ [ -81.848376072195919, 41.41159229829718 ], [ -81.847612519901858, 41.412073520800611 ] ] } },
{ "type": "Feature", "properties": { "runwayId": "6R - 24L", "crossRunwayId": null }, "geometry": { "type": "LineString", "coordinates": [ [ -81.860668929238969, 41.403822422396658 ], [ -81.860437854202615, 41.403967108216179 ] ] } },
{ "type": "Feature", "properties": { "runwayId": "6R - 24L", "crossRunwayId": null }, "geometry": { "type": "LineString", "coordinates": [ [ -81.864865117942756, 41.401168787140769 ], [ -81.864056020424115, 41.401680230763759 ] ] } },
{ "type": "Feature", "properties": { "runwayId": "6R - 24L", "crossRunwayId": null }, "geometry": { "type": "LineString", "coordinates": [ [ -81.86880611943252, 41.398678833184604 ], [ -81.868074716708705, 41.399139049778746 ] ] } },
{ "type": "Feature", "properties": { "runwayId": "6L - 24R", "crossRunwayId": null }, "geometry": { "type": "LineString", "coordinates": [ [ -81.873325813187179, 41.39972185214279 ], [ -81.872716310917355, 41.400106699804326 ] ] } },
{ "type": "Feature", "properties": { "runwayId": "6L - 24R", "crossRunwayId": null }, "geometry": { "type": "LineString", "coordinates": [ [ -81.871556247256606, 41.400844234384834 ], [ -81.869337926907534, 41.402238895426073 ] ] } },
{ "type": "Feature", "properties": { "runwayId": "6L - 24R", "crossRunwayId": null }, "geometry": { "type": "LineString", "coordinates": [ [ -81.866899917828235, 41.403782231834121 ], [ -81.865391567156081, 41.40473675098017 ] ] } },
{ "type": "Feature", "properties": { "runwayId": "6L - 24R", "crossRunwayId": null }, "geometry": { "type": "LineString", "coordinates": [ [ -81.863628699052597, 41.405854022947665 ], [ -81.861434490881223, 41.407240538782858 ] ] } },
{ "type": "Feature", "properties": { "runwayId": "6L - 24R", "crossRunwayId": null }, "geometry": { "type": "LineString", "coordinates": [ [ -81.860701748592064, 41.407706722967824 ], [ -81.858507540420703, 41.409094203949387 ] ] } },
{ "type": "Feature", "properties": { "runwayId": "6L - 24R", "crossRunwayId": null }, "geometry": { "type": "LineString", "coordinates": [ [ -81.857302601318082, 41.409848715926415 ], [ -81.855740668028858, 41.410847350794455 ] ] } },
{ "type": "Feature", "properties": { "runwayId": "6L - 24R", "crossRunwayId": null }, "geometry": { "type": "LineString", "coordinates": [ [ -81.85393225470078, 41.411986619714668 ], [ -81.85173804652942, 41.413377023141273 ] ] } },
{ "type": "Feature", "properties": { "runwayId": "6L - 24R", "crossRunwayId": null }, "geometry": { "type": "LineString", "coordinates": [ [ -81.85011717236128, 41.414401723380891 ], [ -81.849097763070418, 41.415047678068198 ] ] } },
{ "type": "Feature", "properties": { "runwayId": "6L - 24R", "crossRunwayId": null }, "geometry": { "type": "LineString", "coordinates": [ [ -81.848831189550225, 41.41521644899651 ], [ -81.848200254233518, 41.415613259868181 ] ] } },
{ "type": "Feature", "properties": { "runwayId": "6L - 24R", "crossRunwayId": null }, "geometry": { "type": "LineString", "coordinates": [ [ -81.849971159729577, 41.41503562298513 ], [ -81.848770909105937, 41.415795088850089 ] ] } },
{ "type": "Feature", "properties": { "runwayId": "6L - 24R", "crossRunwayId": null }, "geometry": { "type": "LineString", "coordinates": [ [ -81.854163999519827, 41.412383450317002 ], [ -81.852114464414711, 41.413677402631329 ] ] } },
{ "type": "Feature", "properties": { "runwayId": "6L - 24R", "crossRunwayId": null }, "geometry": { "type": "LineString", "coordinates": [ [ -81.857439236991695, 41.410311867406811 ], [ -81.856070870906791, 41.411175369864154 ] ] } },
{ "type": "Feature", "properties": { "runwayId": "10 - 28", "crossRunwayId": null }, "geometry": { "type": "LineString", "coordinates": [ [ -81.85426580649235, 41.416816737255992 ], [ -81.853680416400238, 41.416790618617867 ] ] } },
{ "type": "Feature", "properties": { "runwayId": "10 - 28", "crossRunwayId": null }, "geometry": { "type": "LineString", "coordinates": [ [ -81.851910850469565, 41.416713769487039 ], [ -81.850689166799043, 41.416660527552246 ] ] } },
{ "type": "Feature", "properties": { "runwayId": "10 - 28", "crossRunwayId": null }, "geometry": { "type": "LineString", "coordinates": [ [ -81.835655223998543, 41.41600856145277 ], [ -81.834531328604314, 41.415959337244274 ] ] } },
{ "type": "Feature", "properties": { "runwayId": "10 - 28", "crossRunwayId": null }, "geometry": { "type": "LineString", "coordinates": [ [ -81.832889021389363, 41.415886003150199 ], [ -81.832371279351378, 41.415865409314371 ] ] } },
{ "type": "Feature", "properties": { "id": "G" }, "geometry": { "type": "Polygon", "coordinates": [ [ [ -81.872512696972592, 41.399110411941855 ], [ -81.872169768222975, 41.398792882797331 ], [ -81.847292698656105, 41.41479904152682 ], [ -81.847589412398463, 41.415065760688698 ], [ -81.872512696972592, 41.399110411941855 ] ] ] } }
]
}
