{
"type": "FeatureCollection",
"name": "CLT ASDE-X Safety Logic",
"crs": { "type": "name", "properties": { "name": "urn:ogc:def:crs:OGC:1.3:CRS84" } },
"features": [
{ "type": "Feature", "properties": { "id": "18L - 36R", "runwayId": null }, "geometry": { "type": "Polygon", "coordinates": [ [ [ -80.935951110271148, 35.225219721752829 ], [ -80.936446950526616, 35.225196653595575 ], [ -80.93437195686019, 35.200950531142823 ], [ -80.933868371151974, 35.20097734485006 ], [ -80.935951110271148, 35.225219721752829 ] ] ] } },
{ "type": "Feature", "properties": { "id": "18C - 36C", "runwayId": null }, "geometry": { "type": "Polygon", "coordinates": [ [ [ -80.952926397479942, 35.227420570762995 ], [ -80.953422500112836, 35.227393893045843 ], [ -80.951072491035347, 35.199985376377192 ], [ -80.950568810745764, 35.200016061209098 ], [ -80.952926397479942, 35.227420570762995 ] ] ] } },
{ "type": "Feature", "properties": { "id": "18R - 36L", "runwayId": null }, "geometry": { "type": "Polygon", "coordinates": [ [ [ -80.967170339128415, 35.225307223215701 ], [ -80.96766657322047, 35.22527702907783 ], [ -80.965545566313523, 35.200614686998399 ], [ -80.96504913530319, 35.200641631984475 ], [ -80.967170339128415, 35.225307223215701 ] ] ] } },
{ "type": "Feature", "properties": { "id": null, "runwayId": "18C - 36C" }, "geometry": { "type": "LineString", "coordinates": [ [ -80.952923027190309, 35.227382305285161 ], [ -80.952870638455408, 35.226773114731245 ] ] } },
{ "type": "Feature", "properties": { "id": null, "runwayId": "18C - 36C" }, "geometry": { "type": "LineString", "coordinates": [ [ -80.952858624907748, 35.226632846232313 ], [ -80.952802117478754, 35.225975965459178 ] ] } },
{ "type": "Feature", "properties": { "id": null, "runwayId": "18C - 36C" }, "geometry": { "type": "LineString", "coordinates": [ [ -80.952633316796081, 35.224013829398622 ], [ -80.952513804988854, 35.222624670303837 ] ] } },
{ "type": "Feature", "properties": { "id": null, "runwayId": "18C - 36C" }, "geometry": { "type": "LineString", "coordinates": [ [ -80.952915171321621, 35.221478339243632 ], [ -80.952846317552485, 35.220671552687683 ] ] } },
{ "type": "Feature", "properties": { "id": null, "runwayId": "18C - 36C" }, "geometry": { "type": "LineString", "coordinates": [ [ -80.952342886733078, 35.220628643817058 ], [ -80.952421719309342, 35.221557670760276 ] ] } },
{ "type": "Feature", "properties": { "id": null, "runwayId": "18C - 36C" }, "geometry": { "type": "LineString", "coordinates": [ [ -80.952244595482924, 35.219495550268149 ], [ -80.952179733236633, 35.218734416754785 ] ] } },
{ "type": "Feature", "properties": { "id": null, "runwayId": "18C - 36C" }, "geometry": { "type": "LineString", "coordinates": [ [ -80.952179140744931, 35.218734206264308 ], [ -80.95215399103266, 35.218454035662447 ] ] } },
{ "type": "Feature", "properties": { "id": null, "runwayId": "18C - 36C" }, "geometry": { "type": "LineString", "coordinates": [ [ -80.952154864178269, 35.21845347435454 ], [ -80.952102475440853, 35.217841524007696 ] ] } },
{ "type": "Feature", "properties": { "id": null, "runwayId": "18C - 36C" }, "geometry": { "type": "LineString", "coordinates": [ [ -80.952630479072823, 35.218160721100553 ], [ -80.952692831025431, 35.218883779227994 ] ] } },
{ "type": "Feature", "properties": { "id": null, "runwayId": "18C - 36C" }, "geometry": { "type": "LineString", "coordinates": [ [ -80.951840126364871, 35.21479335704479 ], [ -80.951762416404392, 35.213890649205368 ] ] } },
{ "type": "Feature", "properties": { "id": null, "runwayId": "18C - 36C" }, "geometry": { "type": "LineString", "coordinates": [ [ -80.951762354036845, 35.213890087897461 ], [ -80.951734538112007, 35.213567772427375 ] ] } },
{ "type": "Feature", "properties": { "id": null, "runwayId": "18C - 36C" }, "geometry": { "type": "LineString", "coordinates": [ [ -80.951734725214664, 35.213567429405892 ], [ -80.951654239898517, 35.21263241517839 ] ] } },
{ "type": "Feature", "properties": { "id": null, "runwayId": "18C - 36C" }, "geometry": { "type": "LineString", "coordinates": [ [ -80.95159405521801, 35.211932994350342 ], [ -80.951525326183983, 35.21113437794272 ] ] } },
{ "type": "Feature", "properties": { "id": null, "runwayId": "18C - 36C" }, "geometry": { "type": "LineString", "coordinates": [ [ -80.952027260182334, 35.211122902314521 ], [ -80.952091623488258, 35.211873183875149 ] ] } },
{ "type": "Feature", "properties": { "id": null, "runwayId": "18C - 36C" }, "geometry": { "type": "LineString", "coordinates": [ [ -80.952214487550989, 35.213309383690451 ], [ -80.952279349797266, 35.214074259256485 ] ] } },
{ "type": "Feature", "properties": { "id": null, "runwayId": "18C - 36C" }, "geometry": { "type": "LineString", "coordinates": [ [ -80.951265502993479, 35.208110924119353 ], [ -80.951135778500927, 35.20659115179442 ] ] } },
{ "type": "Feature", "properties": { "id": null, "runwayId": "18C - 36C" }, "geometry": { "type": "LineString", "coordinates": [ [ -80.950974121825524, 35.204753055522239 ], [ -80.950862359185749, 35.203451819073308 ] ] } },
{ "type": "Feature", "properties": { "id": null, "runwayId": "18C - 36C" }, "geometry": { "type": "LineString", "coordinates": [ [ -80.950698706748909, 35.201505951684183 ], [ -80.9506328466219, 35.200789473332698 ] ] } },
{ "type": "Feature", "properties": { "id": null, "runwayId": "18C - 36C" }, "geometry": { "type": "LineString", "coordinates": [ [ -80.950619874172645, 35.200622827253738 ], [ -80.950571476958118, 35.200047549023068 ] ] } },
{ "type": "Feature", "properties": { "id": null, "runwayId": "18L - 36R" }, "geometry": { "type": "LineString", "coordinates": [ [ -80.933868715716414, 35.200981448430753 ], [ -80.93391343324582, 35.201500533503804 ] ] } },
{ "type": "Feature", "properties": { "id": null, "runwayId": "18L - 36R" }, "geometry": { "type": "LineString", "coordinates": [ [ -80.934371928249405, 35.20095032702605 ], [ -80.934422508328083, 35.201540854121376 ] ] } },
{ "type": "Feature", "properties": { "id": null, "runwayId": "18L - 36R" }, "geometry": { "type": "LineString", "coordinates": [ [ -80.934450355436738, 35.201868595567845 ], [ -80.934512224040958, 35.202584574978964 ] ] } },
{ "type": "Feature", "properties": { "id": null, "runwayId": "18L - 36R" }, "geometry": { "type": "LineString", "coordinates": [ [ -80.934007857708366, 35.202602162626519 ], [ -80.93396289070877, 35.202077526842025 ] ] } },
{ "type": "Feature", "properties": { "id": null, "runwayId": "18L - 36R" }, "geometry": { "type": "LineString", "coordinates": [ [ -80.934592553438279, 35.20352857013291 ], [ -80.934644207408027, 35.204131892319772 ] ] } },
{ "type": "Feature", "properties": { "id": null, "runwayId": "18L - 36R" }, "geometry": { "type": "LineString", "coordinates": [ [ -80.934745921077166, 35.205320777535178 ], [ -80.934883114083192, 35.206921931709793 ] ] } },
{ "type": "Feature", "properties": { "id": null, "runwayId": "18L - 36R" }, "geometry": { "type": "LineString", "coordinates": [ [ -80.934921657225729, 35.207374065223796 ], [ -80.934988639968509, 35.208154376757086 ] ] } },
{ "type": "Feature", "properties": { "id": null, "runwayId": "18L - 36R" }, "geometry": { "type": "LineString", "coordinates": [ [ -80.934431307998764, 35.207529828166237 ], [ -80.934481685382863, 35.208116441698138 ] ] } },
{ "type": "Feature", "properties": { "id": null, "runwayId": "18L - 36R" }, "geometry": { "type": "LineString", "coordinates": [ [ -80.935057096144504, 35.208959128571905 ], [ -80.935241789831665, 35.211114200093185 ] ] } },
{ "type": "Feature", "properties": { "id": null, "runwayId": "18L - 36R" }, "geometry": { "type": "LineString", "coordinates": [ [ -80.934615346826604, 35.209671919442307 ], [ -80.934684598188866, 35.210478589059107 ] ] } },
{ "type": "Feature", "properties": { "id": null, "runwayId": "18L - 36R" }, "geometry": { "type": "LineString", "coordinates": [ [ -80.93479241608145, 35.211733860627731 ], [ -80.934838998790283, 35.212275049148381 ] ] } },
{ "type": "Feature", "properties": { "id": null, "runwayId": "18L - 36R" }, "geometry": { "type": "LineString", "coordinates": [ [ -80.935304849266146, 35.211852951454034 ], [ -80.935360512299653, 35.212498315212848 ] ] } },
{ "type": "Feature", "properties": { "id": null, "runwayId": "18L - 36R" }, "geometry": { "type": "LineString", "coordinates": [ [ -80.935030217681785, 35.21450079284255 ], [ -80.934985605397586, 35.213992703947177 ] ] } },
{ "type": "Feature", "properties": { "id": null, "runwayId": "18L - 36R" }, "geometry": { "type": "LineString", "coordinates": [ [ -80.935030207449614, 35.214500987253885 ], [ -80.935086156983999, 35.215147783517274 ] ] } },
{ "type": "Feature", "properties": { "id": null, "runwayId": "18L - 36R" }, "geometry": { "type": "LineString", "coordinates": [ [ -80.935126430825875, 35.215620755587103 ], [ -80.935153888868214, 35.21594043688112 ] ] } },
{ "type": "Feature", "properties": { "id": null, "runwayId": "18L - 36R" }, "geometry": { "type": "LineString", "coordinates": [ [ -80.935661819166697, 35.216023248433942 ], [ -80.935613052619161, 35.215451024261988 ] ] } },
{ "type": "Feature", "properties": { "id": null, "runwayId": "18L - 36R" }, "geometry": { "type": "LineString", "coordinates": [ [ -80.935592997555631, 35.215214865655859 ], [ -80.93552423733756, 35.214405132230638 ] ] } },
{ "type": "Feature", "properties": { "id": null, "runwayId": "18L - 36R" }, "geometry": { "type": "LineString", "coordinates": [ [ -80.935733792287905, 35.216875916066783 ], [ -80.935814339971969, 35.217826116794647 ] ] } },
{ "type": "Feature", "properties": { "id": null, "runwayId": "18L - 36R" }, "geometry": { "type": "LineString", "coordinates": [ [ -80.935357903095849, 35.218314641772572 ], [ -80.935304859499041, 35.217691215795362 ] ] } },
{ "type": "Feature", "properties": { "id": null, "runwayId": "18L - 36R" }, "geometry": { "type": "LineString", "coordinates": [ [ -80.935480892750164, 35.219746613792395 ], [ -80.935436747388053, 35.219232903258387 ] ] } },
{ "type": "Feature", "properties": { "id": null, "runwayId": "18L - 36R" }, "geometry": { "type": "LineString", "coordinates": [ [ -80.935907300046523, 35.218890880807315 ], [ -80.935951340001097, 35.21940518624789 ] ] } },
{ "type": "Feature", "properties": { "id": null, "runwayId": "18L - 36R" }, "geometry": { "type": "LineString", "coordinates": [ [ -80.936068178185195, 35.220785337297329 ], [ -80.936047173567829, 35.220518841214542 ] ] } },
{ "type": "Feature", "properties": { "id": null, "runwayId": "18L - 36R" }, "geometry": { "type": "LineString", "coordinates": [ [ -80.936046599222806, 35.22051810277096 ], [ -80.935990969806525, 35.219855965028309 ] ] } },
{ "type": "Feature", "properties": { "id": null, "runwayId": "18L - 36R" }, "geometry": { "type": "LineString", "coordinates": [ [ -80.935551842024779, 35.220571434807233 ], [ -80.935595164048081, 35.221103114184238 ] ] } },
{ "type": "Feature", "properties": { "id": null, "runwayId": "18L - 36R" }, "geometry": { "type": "LineString", "coordinates": [ [ -80.935814399741787, 35.223632857787877 ], [ -80.935862316525132, 35.224189480147977 ] ] } },
{ "type": "Feature", "properties": { "id": null, "runwayId": "18L - 36R" }, "geometry": { "type": "LineString", "coordinates": [ [ -80.935908920519921, 35.224705406061965 ], [ -80.935951586148931, 35.225220675581646 ] ] } },
{ "type": "Feature", "properties": { "id": null, "runwayId": "18L - 36R" }, "geometry": { "type": "LineString", "coordinates": [ [ -80.93644749203699, 35.225196388992835 ], [ -80.936406139196549, 35.224723128707879 ] ] } },
{ "type": "Feature", "properties": { "id": null, "runwayId": "18L - 36R" }, "geometry": { "type": "LineString", "coordinates": [ [ -80.936377257847681, 35.224392305984409 ], [ -80.936311618418429, 35.223606602016183 ] ] } },
{ "type": "Feature", "properties": { "id": null, "runwayId": "18R - 36L" }, "geometry": { "type": "LineString", "coordinates": [ [ -80.965049643600125, 35.200641695917227 ], [ -80.965099660845212, 35.201220898241047 ] ] } },
{ "type": "Feature", "properties": { "id": null, "runwayId": "18R - 36L" }, "geometry": { "type": "LineString", "coordinates": [ [ -80.965108456528725, 35.201323558308424 ], [ -80.965162083942374, 35.201948708232727 ] ] } },
{ "type": "Feature", "properties": { "id": null, "runwayId": "18R - 36L" }, "geometry": { "type": "LineString", "coordinates": [ [ -80.965381516554331, 35.204501622554361 ], [ -80.965525463822686, 35.206167091792587 ] ] } },
{ "type": "Feature", "properties": { "id": null, "runwayId": "18R - 36L" }, "geometry": { "type": "LineString", "coordinates": [ [ -80.965685624030101, 35.208045429699844 ], [ -80.965832656351637, 35.209756780899113 ] ] } },
{ "type": "Feature", "properties": { "id": null, "runwayId": "18R - 36L" }, "geometry": { "type": "LineString", "coordinates": [ [ -80.966415534483374, 35.216519742573063 ], [ -80.966556265419641, 35.218170705497428 ] ] } },
{ "type": "Feature", "properties": { "id": null, "runwayId": "18R - 36L" }, "geometry": { "type": "LineString", "coordinates": [ [ -80.966691745201643, 35.219821668421787 ], [ -80.966838777523122, 35.221452676959665 ] ] } },
{ "type": "Feature", "properties": { "id": null, "runwayId": "18R - 36L" }, "geometry": { "type": "LineString", "coordinates": [ [ -80.967056175312806, 35.224006313315016 ], [ -80.967114988241434, 35.224651155067917 ] ] } },
{ "type": "Feature", "properties": { "id": null, "runwayId": "18R - 36L" }, "geometry": { "type": "LineString", "coordinates": [ [ -80.967118664049451, 35.224703797890172 ], [ -80.967170519198561, 35.225307221163227 ] ] } }
]
}
