{
"type": "FeatureCollection",
"name": "CVG ASDEX Safety Logic",
"features": [
{ "type": "Feature", "properties": { "id": "9 - 27" }, "geometry": { "type": "Polygon", "coordinates": [ [ [ -84.695129501953971, 39.04664215266758 ], [ -84.695149973596102, 39.04610988997235 ], [ -84.652780498279895, 39.045973412358201 ], [ -84.652766850518475, 39.046532970576266 ], [ -84.695129501953971, 39.04664215266758 ] ] ] } },
{ "type": "Feature", "properties": { "id": "18L - 36R" }, "geometry": { "type": "Polygon", "coordinates": [ [ [ -84.646352402652909, 39.055888511026971 ], [ -84.646980199678055, 39.055874863265551 ], [ -84.647116677292217, 39.028333680727926 ], [ -84.646461584744259, 39.028354152370049 ], [ -84.646352402652909, 39.055888511026971 ] ] ] } },
{ "type": "Feature", "properties": { "id": "18C - 36C" }, "geometry": { "type": "Polygon", "coordinates": [ [ [ -84.668277531367877, 39.064814146993093 ], [ -84.668966743319388, 39.064814146993093 ], [ -84.66908957317213, 39.034495645007297 ], [ -84.668393537339909, 39.034502468888007 ], [ -84.668277531367877, 39.064814146993093 ] ] ] } },
{ "type": "Feature", "properties": { "id": "18R - 36L" }, "geometry": { "type": "Polygon", "coordinates": [ [ [ -84.683423134599366, 39.070918108286413 ], [ -84.684071403266628, 39.070931756047834 ], [ -84.684166937596544, 39.048870149718759 ], [ -84.683477725645034, 39.048890621360883 ], [ -84.683423134599366, 39.070918108286413 ] ] ] } },
{ "type": "Feature", "properties": { "id": "K" }, "geometry": { "type": "Polygon", "coordinates": [ [ [ -84.695310334792737, 39.047955749703853 ], [ -84.695310334792737, 39.047341600440127 ], [ -84.652606489321897, 39.047054997450395 ], [ -84.652606489321897, 39.047546316861371 ], [ -84.695310334792737, 39.047955749703853 ] ] ] } },
{ "type": "Feature", "properties": { "id": "B" }, "geometry": { "type": "Polygon", "coordinates": [ [ [ -84.681758107706614, 39.071184239634007 ], [ -84.682440495777428, 39.071184239634007 ], [ -84.682331313686106, 39.048501660160511 ], [ -84.681758107706628, 39.048528955683345 ], [ -84.681758107706614, 39.071184239634007 ] ] ] } },
{ "type": "Feature", "properties": { "id": "D" }, "geometry": { "type": "Polygon", "coordinates": [ [ [ -84.666800161194629, 39.064988155951113 ], [ -84.667591731356765, 39.064988155951113 ], [ -84.667578083595359, 39.034294340526387 ], [ -84.667073116422955, 39.034267045003553 ], [ -84.666800161194629, 39.064988155951113 ] ] ] } },
{ "type": "Feature", "properties": { "id": "T" }, "geometry": { "type": "Polygon", "coordinates": [ [ [ -84.649017128069517, 39.056158054314935 ], [ -84.64838933104437, 39.056158054314935 ], [ -84.648553104181374, 39.027879892660835 ], [ -84.649208196729347, 39.027989074752163 ], [ -84.649017128069517, 39.056158054314935 ] ] ] } },
{ "type": "Feature", "properties": { "runwayId": "9 - 27" }, "geometry": { "type": "LineString", "coordinates": [ [ -84.694500744352922, 39.046644527509834 ], [ -84.695480194931179, 39.046641161700286 ] ] } },
{ "type": "Feature", "properties": { "runwayId": "9 - 27" }, "geometry": { "type": "LineString", "coordinates": [ [ -84.693945385777567, 39.046651259128943 ], [ -84.692999593294743, 39.046641161700322 ] ] } },
{ "type": "Feature", "properties": { "runwayId": "9 - 27" }, "geometry": { "type": "LineString", "coordinates": [ [ -84.688539895644752, 39.046627698462082 ], [ -84.687587371542804, 39.046627698462117 ] ] } },
{ "type": "Feature", "properties": { "runwayId": "9 - 27" }, "geometry": { "type": "LineString", "coordinates": [ [ -84.686830064394755, 39.046624332652534 ], [ -84.685941490674281, 39.046620966842987 ] ] } },
{ "type": "Feature", "properties": { "runwayId": "9 - 27" }, "geometry": { "type": "LineString", "coordinates": [ [ -84.6806639013042, 39.04660750360479 ], [ -84.679670987487768, 39.04660750360479 ] ] } },
{ "type": "Feature", "properties": { "runwayId": "9 - 27" }, "geometry": { "type": "LineString", "coordinates": [ [ -84.680589853494155, 39.046058876648587 ], [ -84.679748401107346, 39.046058876648587 ] ] } },
{ "type": "Feature", "properties": { "runwayId": "9 - 27" }, "geometry": { "type": "LineString", "coordinates": [ [ -84.67479392945377, 39.046590674557052 ], [ -84.673609164493129, 39.046590674557052 ] ] } },
{ "type": "Feature", "properties": { "runwayId": "9 - 27" }, "geometry": { "type": "LineString", "coordinates": [ [ -84.675288703457255, 39.046042047600842 ], [ -84.672622982295835, 39.046038681791295 ] ] } },
{ "type": "Feature", "properties": { "runwayId": "9 - 27" }, "geometry": { "type": "LineString", "coordinates": [ [ -84.671424754096975, 39.046583942937957 ], [ -84.670526082947859, 39.04658057712841 ] ] } },
{ "type": "Feature", "properties": { "runwayId": "9 - 27" }, "geometry": { "type": "LineString", "coordinates": [ [ -84.671428119906523, 39.046031950172207 ], [ -84.6704217428519, 39.046028584362659 ] ] } },
{ "type": "Feature", "properties": { "runwayId": "9 - 27" }, "geometry": { "type": "LineString", "coordinates": [ [ -84.669205002700423, 39.046095900553638 ], [ -84.668257527312875, 39.046090851839317 ] ] } },
{ "type": "Feature", "properties": { "runwayId": "9 - 27" }, "geometry": { "type": "LineString", "coordinates": [ [ -84.667851947262434, 39.046092534744091 ], [ -84.666133701488533, 39.046079071505901 ] ] } },
{ "type": "Feature", "properties": { "runwayId": "9 - 27" }, "geometry": { "type": "LineString", "coordinates": [ [ -84.65947276439455, 39.046513260937502 ], [ -84.658234146481163, 39.046499797699312 ] ] } },
{ "type": "Feature", "properties": { "runwayId": "9 - 27" }, "geometry": { "type": "LineString", "coordinates": [ [ -84.659876661540224, 39.046055510839075 ], [ -84.658887113533339, 39.046055510839075 ] ] } },
{ "type": "Feature", "properties": { "runwayId": "9 - 27" }, "geometry": { "type": "LineString", "coordinates": [ [ -84.655268868270056, 39.046489700270676 ], [ -84.654366831311393, 39.046486334461129 ] ] } },
{ "type": "Feature", "properties": { "runwayId": "9 - 27" }, "geometry": { "type": "LineString", "coordinates": [ [ -84.653602792544177, 39.046482968651581 ], [ -84.652798364062377, 39.046472871222939 ] ] } },
{ "type": "Feature", "properties": { "runwayId": "9 - 27" }, "geometry": { "type": "LineString", "coordinates": [ [ -84.653552305400964, 39.04604541341044 ], [ -84.652774803395545, 39.046042047600892 ] ] } },
{ "type": "Feature", "properties": { "runwayId": "9 - 27" }, "geometry": { "type": "LineString", "coordinates": [ [ -84.66918144203359, 39.046543553223422 ], [ -84.668314746075183, 39.046535138699554 ] ] } },
{ "type": "Feature", "properties": { "runwayId": "9 - 27" }, "geometry": { "type": "LineString", "coordinates": [ [ -84.667782308153477, 39.046583635323387 ], [ -84.666182105126239, 39.046575073945682 ] ] } },
{ "type": "Feature", "properties": { "runwayId": "18C - 36C" }, "geometry": { "type": "LineString", "coordinates": [ [ -84.668984542175068, 39.064880483636813 ], [ -84.668977810555972, 39.064160200393701 ] ] } },
{ "type": "Feature", "properties": { "runwayId": "18C - 36C" }, "geometry": { "type": "LineString", "coordinates": [ [ -84.668998005413258, 39.063688987057091 ], [ -84.668984542175068, 39.062874461146656 ] ] } },
{ "type": "Feature", "properties": { "runwayId": "18C - 36C" }, "geometry": { "type": "LineString", "coordinates": [ [ -84.669045126746937, 39.052137528690942 ], [ -84.669038395127842, 39.050750815157478 ] ] } },
{ "type": "Feature", "properties": { "runwayId": "18C - 36C" }, "geometry": { "type": "LineString", "coordinates": [ [ -84.669058589985127, 39.050474818774603 ], [ -84.669045126746937, 39.049693950959643 ] ] } },
{ "type": "Feature", "properties": { "runwayId": "18C - 36C" }, "geometry": { "type": "LineString", "coordinates": [ [ -84.669045126746923, 39.049078007812469 ], [ -84.669045126746923, 39.047879779613652 ] ] } },
{ "type": "Feature", "properties": { "runwayId": "18C - 36C" }, "geometry": { "type": "LineString", "coordinates": [ [ -84.669051858366146, 39.047745147231758 ], [ -84.669045126747051, 39.047061887893662 ] ] } },
{ "type": "Feature", "properties": { "runwayId": "18C - 36C" }, "geometry": { "type": "LineString", "coordinates": [ [ -84.668392159694761, 39.064860288779528 ], [ -84.668398891313856, 39.062887924384846 ] ] } },
{ "type": "Feature", "properties": { "runwayId": "18C - 36C" }, "geometry": { "type": "LineString", "coordinates": [ [ -84.668432549409332, 39.058377739591535 ], [ -84.668432549409332, 39.057442044537396 ] ] } },
{ "type": "Feature", "properties": { "runwayId": "18C - 36C" }, "geometry": { "type": "LineString", "coordinates": [ [ -84.668446012647536, 39.055577386048228 ], [ -84.668459475885726, 39.054271451943897 ] ] } },
{ "type": "Feature", "properties": { "runwayId": "18C - 36C" }, "geometry": { "type": "LineString", "coordinates": [ [ -84.668466207504807, 39.052615473646654 ], [ -84.668486402362092, 39.051255686589563 ] ] } },
{ "type": "Feature", "properties": { "runwayId": "18C - 36C" }, "geometry": { "type": "LineString", "coordinates": [ [ -84.668479670742997, 39.050966226968505 ], [ -84.668486402362092, 39.049296785433071 ] ] } },
{ "type": "Feature", "properties": { "runwayId": "18C - 36C" }, "geometry": { "type": "LineString", "coordinates": [ [ -84.668513328838458, 39.048953472859225 ], [ -84.668530157886238, 39.047031595607748 ] ] } },
{ "type": "Feature", "properties": { "runwayId": "18C - 36C" }, "geometry": { "type": "LineString", "coordinates": [ [ -84.669055224175665, 39.045439567691886 ], [ -84.669051858366117, 39.044968354355277 ] ] } },
{ "type": "Feature", "properties": { "runwayId": "18C - 36C" }, "geometry": { "type": "LineString", "coordinates": [ [ -84.668540255314937, 39.045540541978305 ], [ -84.668553718553127, 39.044816892925645 ] ] } },
{ "type": "Feature", "properties": { "runwayId": "18C - 36C" }, "geometry": { "type": "LineString", "coordinates": [ [ -84.668533523695785, 39.044453385494556 ], [ -84.66854698693399, 39.043167646247504 ] ] } },
{ "type": "Feature", "properties": { "runwayId": "18C - 36C" }, "geometry": { "type": "LineString", "coordinates": [ [ -84.668558767267442, 39.041824688238144 ], [ -84.668543621124471, 39.040809896659653 ] ] } },
{ "type": "Feature", "properties": { "runwayId": "18C - 36C" }, "geometry": { "type": "LineString", "coordinates": [ [ -84.668584010839055, 39.036451173295973 ], [ -84.66857727921996, 39.035626549956895 ] ] } },
{ "type": "Feature", "properties": { "runwayId": "18C - 36C" }, "geometry": { "type": "LineString", "coordinates": [ [ -84.668573913410398, 39.034488906329933 ], [ -84.668597474077231, 39.035168799858475 ] ] } },
{ "type": "Feature", "properties": { "runwayId": "18C - 36C" }, "geometry": { "type": "LineString", "coordinates": [ [ -84.669055224175693, 39.045964633981264 ], [ -84.669045126747051, 39.04661086941433 ] ] } },
{ "type": "Feature", "properties": { "runwayId": "18C - 36C" }, "geometry": { "type": "LineString", "coordinates": [ [ -84.668516694648019, 39.046005023695862 ], [ -84.668508280124144, 39.046583942937993 ] ] } },
{ "type": "Feature", "properties": { "runwayId": "18R - 36L" }, "geometry": { "type": "LineString", "coordinates": [ [ -84.683595521419576, 39.070969233107782 ], [ -84.683595521419576, 39.070343192531993 ] ] } },
{ "type": "Feature", "properties": { "runwayId": "18R - 36L" }, "geometry": { "type": "LineString", "coordinates": [ [ -84.683588789800481, 39.069757541670775 ], [ -84.683602253038671, 39.06767747137058 ] ] } },
{ "type": "Feature", "properties": { "runwayId": "18R - 36L" }, "geometry": { "type": "LineString", "coordinates": [ [ -84.683608984657766, 39.064823264874519 ], [ -84.683615716276861, 39.062386418762308 ] ] } },
{ "type": "Feature", "properties": { "runwayId": "18R - 36L" }, "geometry": { "type": "LineString", "coordinates": [ [ -84.683642642753242, 39.056146207861715 ], [ -84.683642642753242, 39.054079600799703 ] ] } },
{ "type": "Feature", "properties": { "runwayId": "18R - 36L" }, "geometry": { "type": "LineString", "coordinates": [ [ -84.683649374372337, 39.053339122699313 ], [ -84.683662837610527, 39.051407148019194 ] ] } },
{ "type": "Feature", "properties": { "runwayId": "18R - 36L" }, "geometry": { "type": "LineString", "coordinates": [ [ -84.683662837610527, 39.049609805720955 ], [ -84.683656105991432, 39.048855864382375 ] ] } },
{ "type": "Feature", "properties": { "runwayId": "18L - 36R" }, "geometry": { "type": "LineString", "coordinates": [ [ -84.646988976783803, 39.055913967002958 ], [ -84.646995708402898, 39.055227341855321 ] ] } },
{ "type": "Feature", "properties": { "runwayId": "18L - 36R" }, "geometry": { "type": "LineString", "coordinates": [ [ -84.646999074212445, 39.054658520041833 ], [ -84.647002440021993, 39.053921407750991 ] ] } },
{ "type": "Feature", "properties": { "runwayId": "18L - 36R" }, "geometry": { "type": "LineString", "coordinates": [ [ -84.647022634879278, 39.050727254490646 ], [ -84.64703273230792, 39.048455333046256 ] ] } },
{ "type": "Feature", "properties": { "runwayId": "18L - 36R" }, "geometry": { "type": "LineString", "coordinates": [ [ -84.647052927165177, 39.044978451783948 ], [ -84.647066390403381, 39.042932039579213 ] ] } },
{ "type": "Feature", "properties": { "runwayId": "18L - 36R" }, "geometry": { "type": "LineString", "coordinates": [ [ -84.647110145927627, 39.041558789284011 ], [ -84.647096682689437, 39.039485450602903 ] ] } },
{ "type": "Feature", "properties": { "runwayId": "18L - 36R" }, "geometry": { "type": "LineString", "coordinates": [ [ -84.647123609165817, 39.03628119991393 ], [ -84.647123609165817, 39.034180934756449 ] ] } },
{ "type": "Feature", "properties": { "runwayId": "18L - 36R" }, "geometry": { "type": "LineString", "coordinates": [ [ -84.647150535642197, 39.030357375110782 ], [ -84.647137072404007, 39.028337889382435 ] ] } }
]
}
