{
"type": "FeatureCollection",
"name": "KDFW Logic",
"crs": { "type": "name", "properties": { "name": "urn:ogc:def:crs:OGC:1.3:CRS84" } },
"features": [
{ "type": "Feature", "properties": { "id": null, "runwayId": "18R - 36L" }, "geometry": { "type": "LineString", "coordinates": [ [ -97.054897988138066, 32.915804512644002 ], [ -97.054901883896676, 32.915372822424516 ] ] } },
{ "type": "Feature", "properties": { "id": null, "runwayId": "18R - 36L" }, "geometry": { "type": "LineString", "coordinates": [ [ -97.054397383159198, 32.915801242271456 ], [ -97.054399331038482, 32.915377728007009 ] ] } },
{ "type": "Feature", "properties": { "id": null, "runwayId": "18R - 36L" }, "geometry": { "type": "LineString", "coordinates": [ [ -97.054404200736712, 32.91518313969258 ], [ -97.054404200736698, 32.914668868516607 ] ] } },
{ "type": "Feature", "properties": { "id": null, "runwayId": "18R - 36L" }, "geometry": { "type": "LineString", "coordinates": [ [ -97.054441210443315, 32.910436851076874 ], [ -97.054448028020843, 32.909891481718354 ] ] } },
{ "type": "Feature", "properties": { "id": null, "runwayId": "18R - 36L" }, "geometry": { "type": "LineString", "coordinates": [ [ -97.054944737241144, 32.910434398148745 ], [ -97.054947659060105, 32.909907017023933 ] ] } },
{ "type": "Feature", "properties": { "id": null, "runwayId": "18R - 36L" }, "geometry": { "type": "LineString", "coordinates": [ [ -97.05445581953802, 32.909398438762111 ], [ -97.054457767417304, 32.908866963180273 ] ] } },
{ "type": "Feature", "properties": { "id": null, "runwayId": "18R - 36L" }, "geometry": { "type": "LineString", "coordinates": [ [ -97.054948632999739, 32.909397621109818 ], [ -97.054950580879037, 32.908874322094732 ] ] } },
{ "type": "Feature", "properties": { "id": null, "runwayId": "18R - 36L" }, "geometry": { "type": "LineString", "coordinates": [ [ -97.054502568641112, 32.9027277801287 ], [ -97.054502568641112, 32.901612411361313 ] ] } },
{ "type": "Feature", "properties": { "id": null, "runwayId": "18R - 36L" }, "geometry": { "type": "LineString", "coordinates": [ [ -97.054505490460045, 32.901475033591318 ], [ -97.054507438339357, 32.90093124449384 ] ] } },
{ "type": "Feature", "properties": { "id": null, "runwayId": "18R - 36L" }, "geometry": { "type": "LineString", "coordinates": [ [ -97.054996356042508, 32.901478304493097 ], [ -97.055002199680374, 32.900956594134975 ] ] } },
{ "type": "Feature", "properties": { "id": null, "runwayId": "18R - 36L" }, "geometry": { "type": "LineString", "coordinates": [ [ -97.054509386218626, 32.900851924602073 ], [ -97.054518151675424, 32.897751033573748 ] ] } },
{ "type": "Feature", "properties": { "id": null, "runwayId": "18R - 36L" }, "geometry": { "type": "LineString", "coordinates": [ [ -97.054520099554708, 32.897495892136376 ], [ -97.054524969252938, 32.896039445692978 ] ] } },
{ "type": "Feature", "properties": { "id": null, "runwayId": "18R - 36L" }, "geometry": { "type": "LineString", "coordinates": [ [ -97.054535682589062, 32.893968813568186 ], [ -97.054544448045917, 32.890874224157812 ] ] } },
{ "type": "Feature", "properties": { "id": null, "runwayId": "18R - 36L" }, "geometry": { "type": "LineString", "coordinates": [ [ -97.054543474106254, 32.890763000115911 ], [ -97.05454542198558, 32.890201970834951 ] ] } },
{ "type": "Feature", "properties": { "id": null, "runwayId": "18R - 36L" }, "geometry": { "type": "LineString", "coordinates": [ [ -97.055038235447313, 32.890748279276373 ], [ -97.055040183326611, 32.890209331300426 ] ] } },
{ "type": "Feature", "properties": { "id": null, "runwayId": "18R - 36L" }, "geometry": { "type": "LineString", "coordinates": [ [ -97.054550291683867, 32.889748892117105 ], [ -97.054548343804541, 32.88822116557273 ] ] } },
{ "type": "Feature", "properties": { "id": null, "runwayId": "18R - 36L" }, "geometry": { "type": "LineString", "coordinates": [ [ -97.054560031080356, 32.886930592324816 ], [ -97.054561978959654, 32.886215780041795 ] ] } },
{ "type": "Feature", "properties": { "id": null, "runwayId": "18R - 36L" }, "geometry": { "type": "LineString", "coordinates": [ [ -97.055053818481724, 32.887365692630425 ], [ -97.055057714240348, 32.886627983709758 ] ] } },
{ "type": "Feature", "properties": { "id": null, "runwayId": "18R - 36L" }, "geometry": { "type": "LineString", "coordinates": [ [ -97.05456879653714, 32.885949155219436 ], [ -97.054564900778558, 32.884984064799355 ] ] } },
{ "type": "Feature", "properties": { "id": null, "runwayId": "18R - 36L" }, "geometry": { "type": "LineString", "coordinates": [ [ -97.055058688179912, 32.886256673348505 ], [ -97.05506453181782, 32.885440439375763 ] ] } },
{ "type": "Feature", "properties": { "id": null, "runwayId": "18R - 36L" }, "geometry": { "type": "LineString", "coordinates": [ [ -97.054579509873264, 32.879374064158938 ], [ -97.054582431692197, 32.878974095748646 ] ] } },
{ "type": "Feature", "properties": { "id": null, "runwayId": "18R - 36L" }, "geometry": { "type": "LineString", "coordinates": [ [ -97.055074271214266, 32.879382243453186 ], [ -97.055078166972848, 32.878974913681802 ] ] } },
{ "type": "Feature", "properties": { "id": null, "runwayId": "13R - 31L" }, "geometry": { "type": "LineString", "coordinates": [ [ -97.082966928784714, 32.909728769669897 ], [ -97.082489698357321, 32.909264343685528 ] ] } },
{ "type": "Feature", "properties": { "id": null, "runwayId": "13R - 31L" }, "geometry": { "type": "LineString", "coordinates": [ [ -97.077483648568133, 32.904400806939996 ], [ -97.076274015525684, 32.90323149045129 ] ] } },
{ "type": "Feature", "properties": { "id": null, "runwayId": "13R - 31L" }, "geometry": { "type": "LineString", "coordinates": [ [ -97.075044903690312, 32.902027814274149 ], [ -97.074473201117115, 32.901470127238468 ] ] } },
{ "type": "Feature", "properties": { "id": null, "runwayId": "13R - 31L" }, "geometry": { "type": "LineString", "coordinates": [ [ -97.071156936616703, 32.898245776894854 ], [ -97.070601791017509, 32.897706874531416 ] ] } },
{ "type": "Feature", "properties": { "id": null, "runwayId": "13R - 31L" }, "geometry": { "type": "LineString", "coordinates": [ [ -97.069848448700029, 32.896974567202882 ], [ -97.068594014433799, 32.895754450423496 ] ] } },
{ "type": "Feature", "properties": { "id": null, "runwayId": "13R - 31L" }, "geometry": { "type": "LineString", "coordinates": [ [ -97.064049612037621, 32.891334248583306 ], [ -97.063522710688204, 32.890821474537709 ] ] } },
{ "type": "Feature", "properties": { "id": null, "runwayId": "13R - 31L" }, "geometry": { "type": "LineString", "coordinates": [ [ -97.063425316723468, 32.8907274247495 ], [ -97.063089307545013, 32.890401112101586 ] ] } },
{ "type": "Feature", "properties": { "id": null, "runwayId": "18L - 36R" }, "geometry": { "type": "LineString", "coordinates": [ [ -97.050406665452684, 32.91578775198348 ], [ -97.050408613331953, 32.915353608890435 ] ] } },
{ "type": "Feature", "properties": { "id": null, "runwayId": "18L - 36R" }, "geometry": { "type": "LineString", "coordinates": [ [ -97.050415430909482, 32.915248138777976 ], [ -97.050422248487038, 32.914621856296641 ] ] } },
{ "type": "Feature", "properties": { "id": null, "runwayId": "18L - 36R" }, "geometry": { "type": "LineString", "coordinates": [ [ -97.050421274547375, 32.91451147968202 ], [ -97.050431500913646, 32.913760097440509 ] ] } },
{ "type": "Feature", "properties": { "id": null, "runwayId": "18L - 36R" }, "geometry": { "type": "LineString", "coordinates": [ [ -97.05106310077521, 32.915791839949769 ], [ -97.05106699653382, 32.915334804150909 ] ] } },
{ "type": "Feature", "properties": { "id": null, "runwayId": "18L - 36R" }, "geometry": { "type": "LineString", "coordinates": [ [ -97.051067970473454, 32.915250591572722 ], [ -97.051078683809578, 32.914474687446571 ] ] } },
{ "type": "Feature", "properties": { "id": null, "runwayId": "18L - 36R" }, "geometry": { "type": "LineString", "coordinates": [ [ -97.051111797757585, 32.910608147056138 ], [ -97.051118615335099, 32.909803584543383 ] ] } },
{ "type": "Feature", "properties": { "id": null, "runwayId": "18L - 36R" }, "geometry": { "type": "LineString", "coordinates": [ [ -97.050452440616098, 32.910579529612512 ], [ -97.050457310314385, 32.908632704083885 ] ] } },
{ "type": "Feature", "properties": { "id": null, "runwayId": "18L - 36R" }, "geometry": { "type": "LineString", "coordinates": [ [ -97.051114719576574, 32.909527218903712 ], [ -97.05112056321444, 32.90871610529922 ] ] } },
{ "type": "Feature", "properties": { "id": null, "runwayId": "18L - 36R" }, "geometry": { "type": "LineString", "coordinates": [ [ -97.050495293960651, 32.905114245954351 ], [ -97.050498215779612, 32.904434741418733 ] ] } },
{ "type": "Feature", "properties": { "id": null, "runwayId": "18L - 36R" }, "geometry": { "type": "LineString", "coordinates": [ [ -97.051154651102109, 32.905176390513247 ], [ -97.051159520800383, 32.904401215789214 ] ] } },
{ "type": "Feature", "properties": { "id": null, "runwayId": "18L - 36R" }, "geometry": { "type": "LineString", "coordinates": [ [ -97.050508929115693, 32.902896637885675 ], [ -97.050514772753601, 32.901694592604017 ] ] } },
{ "type": "Feature", "properties": { "id": null, "runwayId": "18L - 36R" }, "geometry": { "type": "LineString", "coordinates": [ [ -97.050517694572534, 32.901578475801074 ], [ -97.050525486089725, 32.900842520692706 ] ] } },
{ "type": "Feature", "properties": { "id": null, "runwayId": "18L - 36R" }, "geometry": { "type": "LineString", "coordinates": [ [ -97.051178999593319, 32.901606278429732 ], [ -97.051178999593319, 32.90080408731346 ] ] } },
{ "type": "Feature", "properties": { "id": null, "runwayId": "18L - 36R" }, "geometry": { "type": "LineString", "coordinates": [ [ -97.051191660808826, 32.89804501774816 ], [ -97.05119263474846, 32.897278776007518 ] ] } },
{ "type": "Feature", "properties": { "id": null, "runwayId": "18L - 36R" }, "geometry": { "type": "LineString", "coordinates": [ [ -97.050527433969066, 32.899308443495435 ], [ -97.050528407908729, 32.898080999054365 ] ] } },
{ "type": "Feature", "properties": { "id": null, "runwayId": "18L - 36R" }, "geometry": { "type": "LineString", "coordinates": [ [ -97.050536199425906, 32.897968966302869 ], [ -97.050532303667296, 32.897297584582113 ] ] } },
{ "type": "Feature", "properties": { "id": null, "runwayId": "18L - 36R" }, "geometry": { "type": "LineString", "coordinates": [ [ -97.050532303667282, 32.897178190953866 ], [ -97.050531329727619, 32.895925365917591 ] ] } },
{ "type": "Feature", "properties": { "id": null, "runwayId": "18L - 36R" }, "geometry": { "type": "LineString", "coordinates": [ [ -97.051198478386297, 32.894450902265831 ], [ -97.051197504446677, 32.893626565801199 ] ] } },
{ "type": "Feature", "properties": { "id": null, "runwayId": "18L - 36R" }, "geometry": { "type": "LineString", "coordinates": [ [ -97.050538147305147, 32.894382207853425 ], [ -97.050536199425864, 32.893788489640734 ] ] } },
{ "type": "Feature", "properties": { "id": null, "runwayId": "18L - 36R" }, "geometry": { "type": "LineString", "coordinates": [ [ -97.05053912124481, 32.893585675895928 ], [ -97.050546912762002, 32.890899985588831 ] ] } },
{ "type": "Feature", "properties": { "id": null, "runwayId": "18L - 36R" }, "geometry": { "type": "LineString", "coordinates": [ [ -97.050548860641271, 32.890824745832937 ], [ -97.050548860641271, 32.890086247880987 ] ] } },
{ "type": "Feature", "properties": { "id": null, "runwayId": "18L - 36R" }, "geometry": { "type": "LineString", "coordinates": [ [ -97.051209516368957, 32.890843010562151 ], [ -97.051210814955155, 32.890090609644076 ] ] } },
{ "type": "Feature", "properties": { "id": null, "runwayId": "18L - 36R" }, "geometry": { "type": "LineString", "coordinates": [ [ -97.05055113316709, 32.889651160934704 ], [ -97.050549834580835, 32.887970767480134 ] ] } },
{ "type": "Feature", "properties": { "id": null, "runwayId": "18L - 36R" }, "geometry": { "type": "LineString", "coordinates": [ [ -97.050566716201445, 32.88643319590593 ], [ -97.050564119029048, 32.885758182652694 ] ] } },
{ "type": "Feature", "properties": { "id": null, "runwayId": "18L - 36R" }, "geometry": { "type": "LineString", "coordinates": [ [ -97.051222502230871, 32.886456096103821 ], [ -97.051225099403268, 32.885752730182226 ] ] } },
{ "type": "Feature", "properties": { "id": null, "runwayId": "18L - 36R" }, "geometry": { "type": "LineString", "coordinates": [ [ -97.051226397989495, 32.885405952370725 ], [ -97.051227696575694, 32.884723297745239 ] ] } },
{ "type": "Feature", "properties": { "id": null, "runwayId": "18L - 36R" }, "geometry": { "type": "LineString", "coordinates": [ [ -97.050565417615246, 32.885391775890447 ], [ -97.05056931337387, 32.884724388252032 ] ] } },
{ "type": "Feature", "properties": { "id": null, "runwayId": "18L - 36R" }, "geometry": { "type": "LineString", "coordinates": [ [ -97.050588792166806, 32.881032945909368 ], [ -97.050595285097756, 32.880258650460028 ] ] } },
{ "type": "Feature", "properties": { "id": null, "runwayId": "18L - 36R" }, "geometry": { "type": "LineString", "coordinates": [ [ -97.050593986511558, 32.880177948854943 ], [ -97.050599180856366, 32.879557416490805 ] ] } },
{ "type": "Feature", "properties": { "id": null, "runwayId": "18L - 36R" }, "geometry": { "type": "LineString", "coordinates": [ [ -97.050599180856381, 32.879422185662683 ], [ -97.050603076614948, 32.878967415960993 ] ] } },
{ "type": "Feature", "properties": { "id": null, "runwayId": "17R - 35L" }, "geometry": { "type": "LineString", "coordinates": [ [ -97.030237349288541, 32.915748234966493 ], [ -97.030236050702342, 32.915294741866475 ] ] } },
{ "type": "Feature", "properties": { "id": null, "runwayId": "17R - 35L" }, "geometry": { "type": "LineString", "coordinates": [ [ -97.030238647874739, 32.915177007700983 ], [ -97.030242543633364, 32.914581793689521 ] ] } },
{ "type": "Feature", "properties": { "id": null, "runwayId": "17R - 35L" }, "geometry": { "type": "LineString", "coordinates": [ [ -97.030242543633349, 32.914452067027582 ], [ -97.030246439391917, 32.913644268997722 ] ] } },
{ "type": "Feature", "properties": { "id": null, "runwayId": "17R - 35L" }, "geometry": { "type": "LineString", "coordinates": [ [ -97.029575070328136, 32.915738423842271 ], [ -97.029577667500519, 32.915280570169649 ] ] } },
{ "type": "Feature", "properties": { "id": null, "runwayId": "17R - 35L" }, "geometry": { "type": "LineString", "coordinates": [ [ -97.029577667500519, 32.915184638623856 ], [ -97.029584160431497, 32.914321250033105 ] ] } },
{ "type": "Feature", "properties": { "id": null, "runwayId": "17R - 35L" }, "geometry": { "type": "LineString", "coordinates": [ [ -97.030260723840073, 32.91062122931303 ], [ -97.030264619598654, 32.909668399880694 ] ] } },
{ "type": "Feature", "properties": { "id": null, "runwayId": "17R - 35L" }, "geometry": { "type": "LineString", "coordinates": [ [ -97.030268515357264, 32.909469983308377 ], [ -97.03027370970203, 32.908501878489815 ] ] } },
{ "type": "Feature", "properties": { "id": null, "runwayId": "17R - 35L" }, "geometry": { "type": "LineString", "coordinates": [ [ -97.029607534983029, 32.9106157783729 ], [ -97.02961013215544, 32.909653137083232 ] ] } },
{ "type": "Feature", "properties": { "id": null, "runwayId": "17R - 35L" }, "geometry": { "type": "LineString", "coordinates": [ [ -97.029611430741653, 32.909434006629503 ], [ -97.02961402791405, 32.908619621533191 ] ] } },
{ "type": "Feature", "properties": { "id": null, "runwayId": "17R - 35L" }, "geometry": { "type": "LineString", "coordinates": [ [ -97.030291889908753, 32.905093803655724 ], [ -97.030293188494952, 32.90426629544455 ] ] } },
{ "type": "Feature", "properties": { "id": null, "runwayId": "17R - 35L" }, "geometry": { "type": "LineString", "coordinates": [ [ -97.029633506706915, 32.905093803655724 ], [ -97.029634805293128, 32.904264114912053 ] ] } },
{ "type": "Feature", "properties": { "id": null, "runwayId": "17R - 35L" }, "geometry": { "type": "LineString", "coordinates": [ [ -97.030299681425987, 32.902828222594387 ], [ -97.030307472943107, 32.901431557843956 ] ] } },
{ "type": "Feature", "properties": { "id": null, "runwayId": "17R - 35L" }, "geometry": { "type": "LineString", "coordinates": [ [ -97.030307472943107, 32.901386855485825 ], [ -97.030311368701732, 32.900689059653224 ] ] } },
{ "type": "Feature", "properties": { "id": null, "runwayId": "17R - 35L" }, "geometry": { "type": "LineString", "coordinates": [ [ -97.029649089741341, 32.901505698290627 ], [ -97.029650388327511, 32.90069887244524 ] ] } },
{ "type": "Feature", "properties": { "id": null, "runwayId": "17R - 35L" }, "geometry": { "type": "LineString", "coordinates": [ [ -97.030321757391221, 32.899260196500109 ], [ -97.030328250322242, 32.897905998927783 ] ] } },
{ "type": "Feature", "properties": { "id": null, "runwayId": "17R - 35L" }, "geometry": { "type": "LineString", "coordinates": [ [ -97.030328250322199, 32.897852572028967 ], [ -97.030329548908412, 32.897260512605179 ] ] } },
{ "type": "Feature", "properties": { "id": null, "runwayId": "17R - 35L" }, "geometry": { "type": "LineString", "coordinates": [ [ -97.030328250322199, 32.897189639664916 ], [ -97.030338639011831, 32.895810331921162 ] ] } },
{ "type": "Feature", "properties": { "id": null, "runwayId": "17R - 35L" }, "geometry": { "type": "LineString", "coordinates": [ [ -97.029666620654893, 32.897944706150653 ], [ -97.029669217827291, 32.897123673261866 ] ] } },
{ "type": "Feature", "properties": { "id": null, "runwayId": "17R - 35L" }, "geometry": { "type": "LineString", "coordinates": [ [ -97.029691293792638, 32.894354130359972 ], [ -97.029687398034071, 32.893566866533121 ] ] } },
{ "type": "Feature", "properties": { "id": null, "runwayId": "17R - 35L" }, "geometry": { "type": "LineString", "coordinates": [ [ -97.030350975580646, 32.89436994098844 ], [ -97.030348378408249, 32.893688445821915 ] ] } },
{ "type": "Feature", "properties": { "id": null, "runwayId": "17R - 35L" }, "geometry": { "type": "LineString", "coordinates": [ [ -97.030347729115149, 32.893593036080226 ], [ -97.030369805080483, 32.890784127242448 ] ] } },
{ "type": "Feature", "properties": { "id": null, "runwayId": "17R - 35L" }, "geometry": { "type": "LineString", "coordinates": [ [ -97.030369805080483, 32.890716520419772 ], [ -97.030368506494298, 32.889992469922774 ] ] } },
{ "type": "Feature", "properties": { "id": null, "runwayId": "17R - 35L" }, "geometry": { "type": "LineString", "coordinates": [ [ -97.029703630361453, 32.890784127242441 ], [ -97.02970622753385, 32.889970661081058 ] ] } },
{ "type": "Feature", "properties": { "id": null, "runwayId": "17R - 35L" }, "geometry": { "type": "LineString", "coordinates": [ [ -97.030368506494241, 32.889591186375995 ], [ -97.03038408952861, 32.887902068042997 ] ] } },
{ "type": "Feature", "properties": { "id": null, "runwayId": "17R - 35L" }, "geometry": { "type": "LineString", "coordinates": [ [ -97.029730900671552, 32.886428833962725 ], [ -97.029733497843921, 32.885665490608893 ] ] } },
{ "type": "Feature", "properties": { "id": null, "runwayId": "17R - 35L" }, "geometry": { "type": "LineString", "coordinates": [ [ -97.030386686700979, 32.886434286391591 ], [ -97.030390582459546, 32.885653495160845 ] ] } },
{ "type": "Feature", "properties": { "id": null, "runwayId": "17R - 35L" }, "geometry": { "type": "LineString", "coordinates": [ [ -97.029736095016275, 32.885364513421905 ], [ -97.029738692188701, 32.884610975473898 ] ] } },
{ "type": "Feature", "properties": { "id": null, "runwayId": "17R - 35L" }, "geometry": { "type": "LineString", "coordinates": [ [ -97.030393179631943, 32.885401590376951 ], [ -97.03040097114912, 32.884593527341302 ] ] } },
{ "type": "Feature", "properties": { "id": null, "runwayId": "17R - 35L" }, "geometry": { "type": "LineString", "coordinates": [ [ -97.03041525559739, 32.881136548308447 ], [ -97.03041525559739, 32.880225933601892 ] ] } },
{ "type": "Feature", "properties": { "id": null, "runwayId": "17R - 35L" }, "geometry": { "type": "LineString", "coordinates": [ [ -97.03041525559739, 32.880092884921297 ], [ -97.030419151356, 32.879505069097874 ] ] } },
{ "type": "Feature", "properties": { "id": null, "runwayId": "17R - 35L" }, "geometry": { "type": "LineString", "coordinates": [ [ -97.030420449942213, 32.879315309539585 ], [ -97.030423047114624, 32.878903071857877 ] ] } },
{ "type": "Feature", "properties": { "id": null, "runwayId": "17R - 35L" }, "geometry": { "type": "LineString", "coordinates": [ [ -97.029754275223212, 32.880278280569009 ], [ -97.02975557380941, 32.879568322193684 ] ] } },
{ "type": "Feature", "properties": { "id": null, "runwayId": "17R - 35L" }, "geometry": { "type": "LineString", "coordinates": [ [ -97.029756872395566, 32.879440725385116 ], [ -97.029759469567978, 32.878899800122568 ] ] } },
{ "type": "Feature", "properties": { "id": null, "runwayId": "17C - 35C" }, "geometry": { "type": "LineString", "coordinates": [ [ -97.026234457336415, 32.915717711465305 ], [ -97.026238353094982, 32.915252771834624 ] ] } },
{ "type": "Feature", "properties": { "id": null, "runwayId": "17C - 35C" }, "geometry": { "type": "LineString", "coordinates": [ [ -97.026236405215684, 32.915067994445089 ], [ -97.026242248853606, 32.914413912090758 ] ] } },
{ "type": "Feature", "properties": { "id": null, "runwayId": "17C - 35C" }, "geometry": { "type": "LineString", "coordinates": [ [ -97.025740994581611, 32.915720436778322 ], [ -97.025743591754008, 32.91524350572103 ] ] } },
{ "type": "Feature", "properties": { "id": null, "runwayId": "17C - 35C" }, "geometry": { "type": "LineString", "coordinates": [ [ -97.02576696630554, 32.910480322402897 ], [ -97.025772160650334, 32.909655590032934 ] ] } },
{ "type": "Feature", "properties": { "id": null, "runwayId": "17C - 35C" }, "geometry": { "type": "LineString", "coordinates": [ [ -97.026264974112095, 32.910491769394262 ], [ -97.026268220577592, 32.909674123428999 ] ] } },
{ "type": "Feature", "properties": { "id": null, "runwayId": "17C - 35C" }, "geometry": { "type": "LineString", "coordinates": [ [ -97.025775407115816, 32.90942446735604 ], [ -97.025778004288213, 32.908704930631053 ] ] } },
{ "type": "Feature", "properties": { "id": null, "runwayId": "17C - 35C" }, "geometry": { "type": "LineString", "coordinates": [ [ -97.026268869870634, 32.90941029471945 ], [ -97.026274064215443, 32.908689667667502 ] ] } },
{ "type": "Feature", "properties": { "id": null, "runwayId": "17C - 35C" }, "geometry": { "type": "LineString", "coordinates": [ [ -97.026293543008336, 32.905139866961918 ], [ -97.026297438766946, 32.904204422813606 ] ] } },
{ "type": "Feature", "properties": { "id": null, "runwayId": "17C - 35C" }, "geometry": { "type": "LineString", "coordinates": [ [ -97.025798781667305, 32.905050465966895 ], [ -97.025800080253518, 32.904289463599063 ] ] } },
{ "type": "Feature", "properties": { "id": null, "runwayId": "17C - 35C" }, "geometry": { "type": "LineString", "coordinates": [ [ -97.026300035939357, 32.902634424410536 ], [ -97.026311723215144, 32.901378405647208 ] ] } },
{ "type": "Feature", "properties": { "id": null, "runwayId": "17C - 35C" }, "geometry": { "type": "LineString", "coordinates": [ [ -97.026313021801343, 32.901322800238098 ], [ -97.026313021801343, 32.900840885230011 ] ] } },
{ "type": "Feature", "properties": { "id": null, "runwayId": "17C - 35C" }, "geometry": { "type": "LineString", "coordinates": [ [ -97.026316917559924, 32.900753660513878 ], [ -97.026332500594322, 32.897628778393312 ] ] } },
{ "type": "Feature", "properties": { "id": null, "runwayId": "17C - 35C" }, "geometry": { "type": "LineString", "coordinates": [ [ -97.02633509776669, 32.897348558524968 ], [ -97.02632990342191, 32.895926728878621 ] ] } },
{ "type": "Feature", "properties": { "id": null, "runwayId": "17C - 35C" }, "geometry": { "type": "LineString", "coordinates": [ [ -97.02634418787008, 32.894333685577529 ], [ -97.026348083628648, 32.893663094100482 ] ] } },
{ "type": "Feature", "properties": { "id": null, "runwayId": "17C - 35C" }, "geometry": { "type": "LineString", "coordinates": [ [ -97.025846829356695, 32.894241820297211 ], [ -97.025850725115262, 32.893615934427523 ] ] } },
{ "type": "Feature", "properties": { "id": null, "runwayId": "17C - 35C" }, "geometry": { "type": "LineString", "coordinates": [ [ -97.026349382214903, 32.89358921968833 ], [ -97.026359121611321, 32.890237819021991 ] ] } },
{ "type": "Feature", "properties": { "id": null, "runwayId": "17C - 35C" }, "geometry": { "type": "LineString", "coordinates": [ [ -97.0258552701669, 32.89291698696686 ], [ -97.025858516632397, 32.891032200222334 ] ] } },
{ "type": "Feature", "properties": { "id": null, "runwayId": "17C - 35C" }, "geometry": { "type": "LineString", "coordinates": [ [ -97.026357823025108, 32.889655522719096 ], [ -97.026375353938789, 32.888023109872535 ] ] } },
{ "type": "Feature", "properties": { "id": null, "runwayId": "17C - 35C" }, "geometry": { "type": "LineString", "coordinates": [ [ -97.025896824925169, 32.886345957002483 ], [ -97.025900720683779, 32.88566821684681 ] ] } },
{ "type": "Feature", "properties": { "id": null, "runwayId": "17C - 35C" }, "geometry": { "type": "LineString", "coordinates": [ [ -97.026392235559328, 32.886348683219509 ], [ -97.026397429904137, 32.885687845757687 ] ] } },
{ "type": "Feature", "properties": { "id": null, "runwayId": "17C - 35C" }, "geometry": { "type": "LineString", "coordinates": [ [ -97.025905265735432, 32.885287633215619 ], [ -97.02590916149407, 32.884639328681978 ] ] } },
{ "type": "Feature", "properties": { "id": null, "runwayId": "17C - 35C" }, "geometry": { "type": "LineString", "coordinates": [ [ -97.026398079197179, 32.885303445462064 ], [ -97.026403273541973, 32.884650233759608 ] ] } },
{ "type": "Feature", "properties": { "id": null, "runwayId": "17C - 35C" }, "geometry": { "type": "LineString", "coordinates": [ [ -97.026427946679632, 32.880248835403783 ], [ -97.026431842438242, 32.879577592040128 ] ] } },
{ "type": "Feature", "properties": { "id": null, "runwayId": "17C - 35C" }, "geometry": { "type": "LineString", "coordinates": [ [ -97.026434439610654, 32.87934966259315 ], [ -97.026436387489937, 32.87889271136229 ] ] } },
{ "type": "Feature", "properties": { "id": null, "runwayId": "17C - 35C" }, "geometry": { "type": "LineString", "coordinates": [ [ -97.025940327562665, 32.879392740212978 ], [ -97.025940327562708, 32.878893256651551 ] ] } },
{ "type": "Feature", "properties": { "id": null, "runwayId": "17C - 35C" }, "geometry": { "type": "LineString", "coordinates": [ [ -97.025813715408432, 32.901709584198869 ], [ -97.025822480865273, 32.900420842917185 ] ] } },
{ "type": "Feature", "properties": { "id": null, "runwayId": "13L - 31R" }, "geometry": { "type": "LineString", "coordinates": [ [ -97.021254703917506, 32.912753883883568 ], [ -97.020815457136379, 32.912381865411916 ] ] } },
{ "type": "Feature", "properties": { "id": null, "runwayId": "13L - 31R" }, "geometry": { "type": "LineString", "coordinates": [ [ -97.02060508617248, 32.912198717282337 ], [ -97.019971051461809, 32.911660717460379 ] ] } },
{ "type": "Feature", "properties": { "id": null, "runwayId": "13L - 31R" }, "geometry": { "type": "LineString", "coordinates": [ [ -97.02172609070692, 32.912361424791214 ], [ -97.021167049349131, 32.911885565807964 ] ] } },
{ "type": "Feature", "properties": { "id": null, "runwayId": "13L - 31R" }, "geometry": { "type": "LineString", "coordinates": [ [ -97.021023880220937, 32.911764556586419 ], [ -97.020209666675427, 32.911071203262999 ] ] } },
{ "type": "Feature", "properties": { "id": null, "runwayId": "13L - 31R" }, "geometry": { "type": "LineString", "coordinates": [ [ -97.01674731122786, 32.908125208720563 ], [ -97.01535165571272, 32.906942858615913 ] ] } },
{ "type": "Feature", "properties": { "id": null, "runwayId": "13L - 31R" }, "geometry": { "type": "LineString", "coordinates": [ [ -97.012027112725264, 32.904114066889569 ], [ -97.010649962063411, 32.902935751783353 ] ] } },
{ "type": "Feature", "properties": { "id": null, "runwayId": "13L - 31R" }, "geometry": { "type": "LineString", "coordinates": [ [ -97.00565559955001, 32.898680276463374 ], [ -97.004965563309611, 32.898086995937241 ] ] } },
{ "type": "Feature", "properties": { "id": null, "runwayId": "13L - 31R" }, "geometry": { "type": "LineString", "coordinates": [ [ -97.001760814898873, 32.895362188576868 ], [ -97.001084900783397, 32.894790557188642 ] ] } },
{ "type": "Feature", "properties": { "id": null, "runwayId": "17L - 35R" }, "geometry": { "type": "LineString", "coordinates": [ [ -97.010174679515316, 32.876344265322295 ], [ -97.010173705575681, 32.875674355662639 ] ] } },
{ "type": "Feature", "properties": { "id": null, "runwayId": "17L - 35R" }, "geometry": { "type": "LineString", "coordinates": [ [ -97.010177601334263, 32.875503401104744 ], [ -97.01018052315321, 32.874984809663452 ] ] } },
{ "type": "Feature", "properties": { "id": null, "runwayId": "17L - 35R" }, "geometry": { "type": "LineString", "coordinates": [ [ -97.010169809817029, 32.877565467341043 ], [ -97.010162018299837, 32.879265961082133 ] ] } },
{ "type": "Feature", "properties": { "id": null, "runwayId": "17L - 35R" }, "geometry": { "type": "LineString", "coordinates": [ [ -97.010146922235293, 32.880269965037222 ], [ -97.010121599804449, 32.881883708866653 ] ] } },
{ "type": "Feature", "properties": { "id": null, "runwayId": "17L - 35R" }, "geometry": { "type": "LineString", "coordinates": [ [ -97.010106990709716, 32.88575477485859 ], [ -97.010093355554631, 32.887530354093514 ] ] } },
{ "type": "Feature", "properties": { "id": null, "runwayId": "17L - 35R" }, "geometry": { "type": "LineString", "coordinates": [ [ -97.010082642218492, 32.890442684999435 ], [ -97.010074850701315, 32.89213720697564 ] ] } },
{ "type": "Feature", "properties": { "id": null, "runwayId": "17L - 35R" }, "geometry": { "type": "LineString", "coordinates": [ [ -97.01007582464095, 32.893401534788552 ], [ -97.010069981003099, 32.894273305292778 ] ] } },
{ "type": "Feature", "properties": { "id": null, "runwayId": "17L - 35R" }, "geometry": { "type": "LineString", "coordinates": [ [ -97.010067059184138, 32.894431956788281 ], [ -97.010051476149727, 32.895744500787245 ] ] } },
{ "type": "Feature", "properties": { "id": null, "runwayId": "17L - 35R" }, "geometry": { "type": "LineString", "coordinates": [ [ -97.010026153718869, 32.896985879645726 ], [ -97.010025179779248, 32.89771614248037 ] ] } },
{ "type": "Feature", "properties": { "id": null, "runwayId": "17L - 35R" }, "geometry": { "type": "LineString", "coordinates": [ [ -97.01002323189995, 32.897820815719186 ], [ -97.01001933614134, 32.898304110084986 ] ] } },
{ "type": "Feature", "properties": { "id": "18R - 36L", "runwayId": null }, "geometry": { "type": "Polygon", "coordinates": [ [ [ -97.054399128134364, 32.91580554599021 ], [ -97.054915559632548, 32.915809839026231 ], [ -97.055096712407035, 32.878976151593797 ], [ -97.054582472273054, 32.878972164517549 ], [ -97.054399128134364, 32.91580554599021 ] ] ] } },
{ "type": "Feature", "properties": { "id": "18L - 36R", "runwayId": null }, "geometry": { "type": "Polygon", "coordinates": [ [ [ -97.050391488226595, 32.915792975495307 ], [ -97.05107665476875, 32.915793588690214 ], [ -97.051256711861157, 32.878970937617837 ], [ -97.05060295487263, 32.87896664346853 ], [ -97.050391488226595, 32.915792975495307 ] ] ] } },
{ "type": "Feature", "properties": { "id": "17R - 35L", "runwayId": null }, "geometry": { "type": "Polygon", "coordinates": [ [ [ -97.029579006668087, 32.915743306692924 ], [ -97.030235685475546, 32.915748825450123 ], [ -97.030421220978397, 32.878902231203746 ], [ -97.02976015944256, 32.878900390852635 ], [ -97.029579006668087, 32.915743306692924 ] ] ] } },
{ "type": "Feature", "properties": { "id": "17C - 35C", "runwayId": null }, "geometry": { "type": "Polygon", "coordinates": [ [ [ -97.025741319228871, 32.915720754730934 ], [ -97.026235431276788, 32.915725115231588 ], [ -97.02643433139589, 32.878892665921732 ], [ -97.025940652210053, 32.878893211210993 ], [ -97.025741319228871, 32.915720754730934 ] ] ] } },
{ "type": "Feature", "properties": { "id": "17L - 35R", "runwayId": null }, "geometry": { "type": "Polygon", "coordinates": [ [ [ -97.009523276215859, 32.898300657342524 ], [ -97.010019336143046, 32.898303564914961 ], [ -97.010179495107423, 32.874975584779783 ], [ -97.009686898076723, 32.874973403526276 ], [ -97.009523276215859, 32.898300657342524 ] ] ] } },
{ "type": "Feature", "properties": { "id": "13L - 31R", "runwayId": null }, "geometry": { "type": "Polygon", "coordinates": [ [ [ -97.021256435367022, 32.912755927936338 ], [ -97.021729120742677, 32.912364922408464 ], [ -97.001084413815391, 32.89478987569926 ], [ -97.000614325612077, 32.895174780027865 ], [ -97.021256435367022, 32.912755927936338 ] ] ] } },
{ "type": "Feature", "properties": { "id": "13R - 31L", "runwayId": null }, "geometry": { "type": "Polygon", "coordinates": [ [ [ -97.082967415754069, 32.909729587318665 ], [ -97.083339460699491, 32.909457582257396 ], [ -97.06346346269298, 32.890127820926537 ], [ -97.063088820575175, 32.890399749055391 ], [ -97.082967415754069, 32.909729587318665 ] ] ] } }
]
}
