{"type":"FeatureCollection","features":[{"geometry":{"type":"Polygon","coordinates":[[[-80.16654682319258,26.07715677071861],[-80.16654509139245,26.07674456039798],[-80.13912203632806,26.07659056447186],[-80.13912203632806,26.07699810880474],[-80.16654682319258,26.07715677071861]]]},"type":"Feature","properties":{"id":"10L - 28R"}},{"geometry":{"type":"Polygon","coordinates":[[[-80.15834674957532,26.06609503151743],[-80.15834848137544,26.06568278225686],[-80.13398984664175,26.06553966141956],[-80.1339863830415,26.0659472442135],[-80.15834674957532,26.06609503151743]]]},"type":"Feature","properties":{"id":"10R - 28L"}},{"geometry":{"type":"LineString","coordinates":[[-80.16654509139245,26.07674456039798],[-80.1652894124435,26.07673750905667]]},"type":"Feature","properties":{"runwayId":"10L - 28R","crossRunwayId":null,"taxiwayId":null}},{"geometry":{"type":"LineString","coordinates":[[-80.16654682319258,26.07715677071861],[-80.16581461360857,26.07715253463475]]},"type":"Feature","properties":{"runwayId":"10L - 28R","crossRunwayId":null,"taxiwayId":null}},{"geometry":{"type":"LineString","coordinates":[[-80.16336874777197,26.07713838445989],[-80.16230103101384,26.07713220735079]]},"type":"Feature","properties":{"runwayId":"10L - 28R","crossRunwayId":null,"taxiwayId":null}},{"geometry":{"type":"LineString","coordinates":[[-80.16338329952363,26.07672680516311],[-80.16276768115657,26.07672334812034]]},"type":"Feature","properties":{"runwayId":"10L - 28R","crossRunwayId":null,"taxiwayId":null}},{"geometry":{"type":"LineString","coordinates":[[-80.16146949242857,26.07671605806146],[-80.15993796063701,26.0767074576496]]},"type":"Feature","properties":{"runwayId":"10L - 28R","crossRunwayId":null,"taxiwayId":null}},{"geometry":{"type":"LineString","coordinates":[[-80.1594820867688,26.07670489766149],[-80.15892161083761,26.07670175027386]]},"type":"Feature","properties":{"runwayId":"10L - 28R","crossRunwayId":null,"taxiwayId":null}},{"geometry":{"type":"LineString","coordinates":[[-80.15783515742378,26.0766956492266],[-80.15724781014546,26.07669235094101]]},"type":"Feature","properties":{"runwayId":"10L - 28R","crossRunwayId":null,"taxiwayId":null}},{"geometry":{"type":"LineString","coordinates":[[-80.15159091706299,26.07666058429719],[-80.15091229440038,26.07665677344776]]},"type":"Feature","properties":{"runwayId":"10L - 28R","crossRunwayId":null,"taxiwayId":null}},{"geometry":{"type":"LineString","coordinates":[[-80.15077828980209,26.07665602093626],[-80.1495283957178,26.07664900207491]]},"type":"Feature","properties":{"runwayId":"10L - 28R","crossRunwayId":null,"taxiwayId":null}},{"geometry":{"type":"LineString","coordinates":[[-80.14884174351107,26.07664514613468],[-80.14590996888515,26.07662868256175]]},"type":"Feature","properties":{"runwayId":"10L - 28R","crossRunwayId":null,"taxiwayId":null}},{"geometry":{"type":"LineString","coordinates":[[-80.14543516937172,26.0766260162937],[-80.14419865227143,26.07661907254988]]},"type":"Feature","properties":{"runwayId":"10L - 28R","crossRunwayId":null,"taxiwayId":null}},{"geometry":{"type":"LineString","coordinates":[[-80.14279589501734,26.07661119527294],[-80.14193750430091,26.07660637492236]]},"type":"Feature","properties":{"runwayId":"10L - 28R","crossRunwayId":null,"taxiwayId":null}},{"geometry":{"type":"LineString","coordinates":[[-80.14049863925109,26.07659829487878],[-80.13912203632806,26.07659056447186]]},"type":"Feature","properties":{"runwayId":"10L - 28R","crossRunwayId":null,"taxiwayId":null}},{"geometry":{"type":"LineString","coordinates":[[-80.14049488534225,26.07700605121805],[-80.13912203632806,26.07699810880474]]},"type":"Feature","properties":{"runwayId":"10L - 28R","crossRunwayId":null,"taxiwayId":null}},{"geometry":{"type":"LineString","coordinates":[[-80.14268617647404,26.0770187286051],[-80.14190554782715,26.07701421239501]]},"type":"Feature","properties":{"runwayId":"10L - 28R","crossRunwayId":null,"taxiwayId":null}},{"geometry":{"type":"LineString","coordinates":[[-80.14913148193222,26.07705601694775],[-80.14591021344062,26.07703738078621]]},"type":"Feature","properties":{"runwayId":"10L - 28R","crossRunwayId":null,"taxiwayId":null}},{"geometry":{"type":"LineString","coordinates":[[-80.15159383769056,26.07707026253248],[-80.15089216681034,26.0770662031225]]},"type":"Feature","properties":{"runwayId":"10L - 28R","crossRunwayId":null,"taxiwayId":null}},{"geometry":{"type":"LineString","coordinates":[[-80.15785539354012,26.0771064878037],[-80.1572518265329,26.07710299595981]]},"type":"Feature","properties":{"runwayId":"10L - 28R","crossRunwayId":null,"taxiwayId":null}},{"geometry":{"type":"LineString","coordinates":[[-80.16067435600793,26.07712279647512],[-80.15986702731172,26.07711812580003]]},"type":"Feature","properties":{"runwayId":"10L - 28R","crossRunwayId":null,"taxiwayId":null}},{"geometry":{"type":"LineString","coordinates":[[-80.15834674957532,26.06609503151743],[-80.15785394222702,26.06609204179951]]},"type":"Feature","properties":{"runwayId":"10R - 28L","crossRunwayId":null,"taxiwayId":null}},{"geometry":{"type":"LineString","coordinates":[[-80.15771857836188,26.06609122058655],[-80.15702916434503,26.06608703811336]]},"type":"Feature","properties":{"runwayId":"10R - 28L","crossRunwayId":null,"taxiwayId":null}},{"geometry":{"type":"LineString","coordinates":[[-80.15691797548773,26.06608636356308],[-80.15618836639831,26.06608193723795]]},"type":"Feature","properties":{"runwayId":"10R - 28L","crossRunwayId":null,"taxiwayId":null}},{"geometry":{"type":"LineString","coordinates":[[-80.15517324187425,26.06607577877386],[-80.15292399520044,26.06606213324988]]},"type":"Feature","properties":{"runwayId":"10R - 28L","crossRunwayId":null,"taxiwayId":null}},{"geometry":{"type":"LineString","coordinates":[[-80.15246312008028,26.06605933725467],[-80.15032098479223,26.06604634154244]]},"type":"Feature","properties":{"runwayId":"10R - 28L","crossRunwayId":null,"taxiwayId":null}},{"geometry":{"type":"LineString","coordinates":[[-80.14717340210488,26.06602724607041],[-80.14637404064797,26.06602239657563]]},"type":"Feature","properties":{"runwayId":"10R - 28L","crossRunwayId":null,"taxiwayId":null}},{"geometry":{"type":"LineString","coordinates":[[-80.1434706727592,26.06600478268055],[-80.14187213098369,26.06599508478779]]},"type":"Feature","properties":{"runwayId":"10R - 28L","crossRunwayId":null,"taxiwayId":null}},{"geometry":{"type":"LineString","coordinates":[[-80.13902485143541,26.06597781116048],[-80.13732955528718,26.06596752628444]]},"type":"Feature","properties":{"runwayId":"10R - 28L","crossRunwayId":null,"taxiwayId":null}},{"geometry":{"type":"LineString","coordinates":[[-80.13613352576594,26.06596027031541],[-80.13543621945662,26.06595603995726]]},"type":"Feature","properties":{"runwayId":"10R - 28L","crossRunwayId":null,"taxiwayId":null}},{"geometry":{"type":"LineString","coordinates":[[-80.13529138677588,26.06595516129877],[-80.13459357327923,26.06595092786347]]},"type":"Feature","properties":{"runwayId":"10R - 28L","crossRunwayId":null,"taxiwayId":null}},{"geometry":{"type":"LineString","coordinates":[[-80.13449752534608,26.06595034516807],[-80.1339863830415,26.0659472442135]]},"type":"Feature","properties":{"runwayId":"10R - 28L","crossRunwayId":null,"taxiwayId":null}}]}