{
"type": "FeatureCollection",
"name": "JFK_SLS",
"crs": { "type": "name", "properties": { "name": "urn:ogc:def:crs:OGC:1.3:CRS84" } },
"features": [
{ "type": "Feature", "properties": { "id": "4L - 22R", "runwayId": null, "crossRunwayId": null, "taxiwayId": null }, "geometry": { "type": "Polygon", "coordinates": [ [ [ -73.785900406819778, 40.622159224556569 ], [ -73.785279829145878, 40.621875075171104 ], [ -73.763001314688864, 40.650384315515218 ], [ -73.763620548151181, 40.650665963944434 ], [ -73.785900406819778, 40.622159224556569 ] ] ] } },
{ "type": "Feature", "properties": { "id": "4R - 22L", "runwayId": null, "crossRunwayId": null, "taxiwayId": null }, "geometry": { "type": "Polygon", "coordinates": [ [ [ -73.77065816781527, 40.625575724436402 ], [ -73.770034789700603, 40.625289379075916 ], [ -73.754548688315495, 40.645103399844395 ], [ -73.755171506341952, 40.64538668544796 ], [ -73.77065816781527, 40.625575724436402 ] ] ] } },
{ "type": "Feature", "properties": { "id": "13L - 31R", "runwayId": null, "crossRunwayId": null, "taxiwayId": null }, "geometry": { "type": "Polygon", "coordinates": [ [ [ -73.790065110308348, 40.658013729259046 ], [ -73.790435664630536, 40.657538361094105 ], [ -73.759441058334232, 40.64348670252614 ], [ -73.759074872699614, 40.643963615733043 ], [ -73.790065110308348, 40.658013729259046 ] ] ] } },
{ "type": "Feature", "properties": { "id": "13R - 31L", "runwayId": null, "crossRunwayId": null, "taxiwayId": null }, "geometry": { "type": "Polygon", "coordinates": [ [ [ -73.816538460996057, 40.648608220273417 ], [ -73.816911031635641, 40.648135844751906 ], [ -73.771951187325683, 40.627759322490014 ], [ -73.771582873356081, 40.628232522342699 ], [ -73.816538460996057, 40.648608220273417 ] ] ] } },
{ "type": "Feature", "properties": { "runwayId": "4L - 22R", "crossRunwayId": null, "taxiwayId": null }, "geometry": { "type": "LineString", "coordinates": [ [ -73.785894799999895, 40.622158218 ], [ -73.7854371399999, 40.62274402 ] ] } },
{ "type": "Feature", "properties": { "runwayId": "4L - 22R", "crossRunwayId": null, "taxiwayId": null }, "geometry": { "type": "LineString", "coordinates": [ [ -73.785385871999907, 40.622809642 ], [ -73.784793989, 40.6235672500001 ] ] } },
{ "type": "Feature", "properties": { "runwayId": "4L - 22R", "crossRunwayId": null, "taxiwayId": null }, "geometry": { "type": "LineString", "coordinates": [ [ -73.782973920452207, 40.625907347320599 ], [ -73.782286747999905, 40.626776508 ] ] } },
{ "type": "Feature", "properties": { "runwayId": "4L - 22R", "crossRunwayId": null, "taxiwayId": null }, "geometry": { "type": "LineString", "coordinates": [ [ -73.779572423803614, 40.630427331792895 ], [ -73.77975502325323, 40.630194645768384 ] ] } },
{ "type": "Feature", "properties": { "runwayId": "4L - 22R", "crossRunwayId": "13R - 31L", "taxiwayId": null }, "geometry": { "type": "LineString", "coordinates": [ [ -73.779020883, 40.6309568020001 ], [ -73.778652346999905, 40.631428527 ] ] } },
{ "type": "Feature", "properties": { "runwayId": "4L - 22R", "crossRunwayId": "13R - 31L", "taxiwayId": null }, "geometry": { "type": "LineString", "coordinates": [ [ -73.778401641999906, 40.630676119 ], [ -73.778033103, 40.631147842000097 ] ] } },
{ "type": "Feature", "properties": { "runwayId": "4L - 22R", "crossRunwayId": null, "taxiwayId": null }, "geometry": { "type": "LineString", "coordinates": [ [ -73.777926680999897, 40.632357476 ], [ -73.777180348999906, 40.633312868000097 ] ] } },
{ "type": "Feature", "properties": { "runwayId": "4L - 22R", "crossRunwayId": null, "taxiwayId": null }, "geometry": { "type": "LineString", "coordinates": [ [ -73.776987856999895, 40.632485736 ], [ -73.776850844, 40.6326611100001 ] ] } },
{ "type": "Feature", "properties": { "runwayId": "4L - 22R", "crossRunwayId": null, "taxiwayId": null }, "geometry": { "type": "LineString", "coordinates": [ [ -73.775506278, 40.635455822 ], [ -73.774669564, 40.636526863 ] ] } },
{ "type": "Feature", "properties": { "runwayId": "4L - 22R", "crossRunwayId": null, "taxiwayId": null }, "geometry": { "type": "LineString", "coordinates": [ [ -73.774545937, 40.635611346000097 ], [ -73.7744068, 40.635789439000099 ] ] } },
{ "type": "Feature", "properties": { "runwayId": "4L - 22R", "crossRunwayId": null, "taxiwayId": null }, "geometry": { "type": "LineString", "coordinates": [ [ -73.774540695, 40.636691819000099 ], [ -73.773707774999906, 40.637757984000103 ] ] } },
{ "type": "Feature", "properties": { "runwayId": "4L - 22R", "crossRunwayId": null, "taxiwayId": null }, "geometry": { "type": "LineString", "coordinates": [ [ -73.771866946, 40.640114242 ], [ -73.772960078, 40.638715045 ] ] } },
{ "type": "Feature", "properties": { "runwayId": "4L - 22R", "crossRunwayId": null, "taxiwayId": null }, "geometry": { "type": "LineString", "coordinates": [ [ -73.771799111999897, 40.639127228000099 ], [ -73.771661229999907, 40.639303715 ] ] } },
{ "type": "Feature", "properties": { "runwayId": "4L - 22R", "crossRunwayId": null, "taxiwayId": null }, "geometry": { "type": "LineString", "coordinates": [ [ -73.769694060999896, 40.642895719000101 ], [ -73.7686132219999, 40.644278800000102 ] ] } },
{ "type": "Feature", "properties": { "runwayId": "4L - 22R", "crossRunwayId": null, "taxiwayId": null }, "geometry": { "type": "LineString", "coordinates": [ [ -73.768407486999905, 40.643468442 ], [ -73.768272017999905, 40.64364184 ] ] } },
{ "type": "Feature", "properties": { "runwayId": "4L - 22R", "crossRunwayId": null, "taxiwayId": null }, "geometry": { "type": "LineString", "coordinates": [ [ -73.768969612, 40.642748933000099 ], [ -73.768640835, 40.643169761 ] ] } },
{ "type": "Feature", "properties": { "runwayId": "4L - 22R", "crossRunwayId": null, "taxiwayId": null }, "geometry": { "type": "LineString", "coordinates": [ [ -73.767528141999904, 40.645669526000098 ], [ -73.767042281, 40.646289410000101 ] ] } },
{ "type": "Feature", "properties": { "runwayId": "4L - 22R", "crossRunwayId": null, "taxiwayId": null }, "geometry": { "type": "LineString", "coordinates": [ [ -73.766929234, 40.645360577000098 ], [ -73.766427644, 40.646002601000099 ] ] } },
{ "type": "Feature", "properties": { "runwayId": "4L - 22R", "crossRunwayId": "13L - 31R", "taxiwayId": null }, "geometry": { "type": "LineString", "coordinates": [ [ -73.766674124, 40.6467605980001 ], [ -73.766305565, 40.647232352000103 ] ] } },
{ "type": "Feature", "properties": { "runwayId": "4L - 22R", "crossRunwayId": "13L - 31R", "taxiwayId": null }, "geometry": { "type": "LineString", "coordinates": [ [ -73.766054825, 40.646479803 ], [ -73.765685575, 40.646952436 ] ] } },
{ "type": "Feature", "properties": { "runwayId": "4L - 22R", "crossRunwayId": null, "taxiwayId": null }, "geometry": { "type": "LineString", "coordinates": [ [ -73.766048656999899, 40.647562576 ], [ -73.765452544, 40.648325286 ] ] } },
{ "type": "Feature", "properties": { "runwayId": "4L - 22R", "crossRunwayId": null, "taxiwayId": null }, "geometry": { "type": "LineString", "coordinates": [ [ -73.765352156999896, 40.648453726000099 ], [ -73.764956804, 40.648959556000101 ] ] } },
{ "type": "Feature", "properties": { "runwayId": "4L - 22R", "crossRunwayId": null, "taxiwayId": null }, "geometry": { "type": "LineString", "coordinates": [ [ -73.764768021, 40.649201089 ], [ -73.764132657999895, 40.650013972000103 ] ] } },
{ "type": "Feature", "properties": { "runwayId": "4L - 22R", "crossRunwayId": null, "taxiwayId": null }, "geometry": { "type": "LineString", "coordinates": [ [ -73.764039129, 40.650133632000099 ], [ -73.763630836999894, 40.650655974000102 ] ] } },
{ "type": "Feature", "properties": { "runwayId": "4L - 22R", "crossRunwayId": null, "taxiwayId": null }, "geometry": { "type": "LineString", "coordinates": [ [ -73.76301026, 40.650376771 ], [ -73.763420514, 40.64985167 ] ] } },
{ "type": "Feature", "properties": { "runwayId": "4L - 22R", "crossRunwayId": null, "taxiwayId": null }, "geometry": { "type": "LineString", "coordinates": [ [ -73.764720325, 40.648187937 ], [ -73.764293801999898, 40.648733878 ] ] } },
{ "type": "Feature", "properties": { "runwayId": "4R - 22L", "crossRunwayId": null, "taxiwayId": null }, "geometry": { "type": "LineString", "coordinates": [ [ -73.770616189999899, 40.625617937000101 ], [ -73.770152891, 40.626210701 ] ] } },
{ "type": "Feature", "properties": { "runwayId": "4R - 22L", "crossRunwayId": null, "taxiwayId": null }, "geometry": { "type": "LineString", "coordinates": [ [ -73.767421995999896, 40.629704726000099 ], [ -73.766562813, 40.630804003 ] ] } },
{ "type": "Feature", "properties": { "runwayId": "4R - 22L", "crossRunwayId": null, "taxiwayId": null }, "geometry": { "type": "LineString", "coordinates": [ [ -73.764337863, 40.6336507010001 ], [ -73.76516888, 40.632587462000103 ] ] } },
{ "type": "Feature", "properties": { "runwayId": "4R - 22L", "crossRunwayId": null, "taxiwayId": null }, "geometry": { "type": "LineString", "coordinates": [ [ -73.761390033110999, 40.637430126489903 ], [ -73.760328644, 40.638780917000098 ] ] } },
{ "type": "Feature", "properties": { "runwayId": "4R - 22L", "crossRunwayId": null, "taxiwayId": null }, "geometry": { "type": "LineString", "coordinates": [ [ -73.759063418, 40.640399600000102 ], [ -73.758225362, 40.641471758000101 ] ] } },
{ "type": "Feature", "properties": { "runwayId": "4R - 22L", "crossRunwayId": null, "taxiwayId": null }, "geometry": { "type": "LineString", "coordinates": [ [ -73.755760192, 40.644625589 ], [ -73.7552006559999, 40.645341236 ] ] } },
{ "type": "Feature", "properties": { "runwayId": "13R - 31L", "crossRunwayId": null, "taxiwayId": null }, "geometry": { "type": "LineString", "coordinates": [ [ -73.771985405, 40.627766726000097 ], [ -73.772643698, 40.628065282000101 ] ] } },
{ "type": "Feature", "properties": { "runwayId": "13R - 31L", "crossRunwayId": null, "taxiwayId": null }, "geometry": { "type": "LineString", "coordinates": [ [ -73.77161583, 40.6282390820001 ], [ -73.772246542999895, 40.6285249640001 ] ] } },
{ "type": "Feature", "properties": { "runwayId": "13R - 31L", "crossRunwayId": null, "taxiwayId": null }, "geometry": { "type": "LineString", "coordinates": [ [ -73.772338361, 40.6285668250001 ], [ -73.773235805999903, 40.628973368000104 ] ] } },
{ "type": "Feature", "properties": { "runwayId": "13R - 31L", "crossRunwayId": null, "taxiwayId": null }, "geometry": { "type": "LineString", "coordinates": [ [ -73.773343564999905, 40.629022771000102 ], [ -73.77433387, 40.629471088000102 ] ] } },
{ "type": "Feature", "properties": { "runwayId": "13R - 31L", "crossRunwayId": null, "taxiwayId": null }, "geometry": { "type": "LineString", "coordinates": [ [ -73.77544517, 40.629974808 ], [ -73.776418819999904, 40.630416135000097 ] ] } },
{ "type": "Feature", "properties": { "runwayId": "13R - 31L", "crossRunwayId": "4L - 22R", "taxiwayId": null }, "geometry": { "type": "LineString", "coordinates": [ [ -73.778033103, 40.631147842000097 ], [ -73.778652346999905, 40.631428527 ] ] } },
{ "type": "Feature", "properties": { "runwayId": "13R - 31L", "crossRunwayId": "4L - 22R", "taxiwayId": null }, "geometry": { "type": "LineString", "coordinates": [ [ -73.778401641999906, 40.630676119 ], [ -73.779020883, 40.6309568020001 ] ] } },
{ "type": "Feature", "properties": { "runwayId": "13R - 31L", "crossRunwayId": null, "taxiwayId": null }, "geometry": { "type": "LineString", "coordinates": [ [ -73.77986608, 40.6313399040001 ], [ -73.780615959, 40.6316798020001 ] ] } },
{ "type": "Feature", "properties": { "runwayId": "13R - 31L", "crossRunwayId": null, "taxiwayId": null }, "geometry": { "type": "LineString", "coordinates": [ [ -73.779974072, 40.632029901000102 ], [ -73.780792484999907, 40.632398706000103 ] ] } },
{ "type": "Feature", "properties": { "runwayId": "13R - 31L", "crossRunwayId": null, "taxiwayId": null }, "geometry": { "type": "LineString", "coordinates": [ [ -73.781151840999897, 40.632561611 ], [ -73.781892658999894, 40.632897439 ] ] } },
{ "type": "Feature", "properties": { "runwayId": "13R - 31L", "crossRunwayId": null, "taxiwayId": null }, "geometry": { "type": "LineString", "coordinates": [ [ -73.783675474999896, 40.633066588000098 ], [ -73.78280518, 40.63267211 ] ] } },
{ "type": "Feature", "properties": { "runwayId": "13R - 31L", "crossRunwayId": null, "taxiwayId": null }, "geometry": { "type": "LineString", "coordinates": [ [ -73.782134122999906, 40.633007166 ], [ -73.783272079, 40.633522753000101 ] ] } },
{ "type": "Feature", "properties": { "runwayId": "13R - 31L", "crossRunwayId": null, "taxiwayId": null }, "geometry": { "type": "LineString", "coordinates": [ [ -73.787923636, 40.63563134 ], [ -73.788968355999899, 40.63610491 ] ] } },
{ "type": "Feature", "properties": { "runwayId": "13R - 31L", "crossRunwayId": null, "taxiwayId": null }, "geometry": { "type": "LineString", "coordinates": [ [ -73.793008587, 40.637936311 ], [ -73.794374595, 40.638555499000098 ] ] } },
{ "type": "Feature", "properties": { "runwayId": "13R - 31L", "crossRunwayId": null, "taxiwayId": null }, "geometry": { "type": "LineString", "coordinates": [ [ -73.794699126, 40.638702603000098 ], [ -73.796036048, 40.639308599000103 ] ] } },
{ "type": "Feature", "properties": { "runwayId": "13R - 31L", "crossRunwayId": null, "taxiwayId": null }, "geometry": { "type": "LineString", "coordinates": [ [ -73.798494647, 40.640423013 ], [ -73.799608156, 40.640927729000097 ] ] } },
{ "type": "Feature", "properties": { "runwayId": "13R - 31L", "crossRunwayId": null, "taxiwayId": null }, "geometry": { "type": "LineString", "coordinates": [ [ -73.800502792, 40.641333235 ], [ -73.801964434, 40.641995738 ] ] } },
{ "type": "Feature", "properties": { "runwayId": "13R - 31L", "crossRunwayId": null, "taxiwayId": null }, "geometry": { "type": "LineString", "coordinates": [ [ -73.803838970999905, 40.64284538 ], [ -73.8053562059999, 40.643533066 ] ] } },
{ "type": "Feature", "properties": { "runwayId": "13R - 31L", "crossRunwayId": null, "taxiwayId": null }, "geometry": { "type": "LineString", "coordinates": [ [ -73.811633961929999, 40.646380311209597 ], [ -73.813062347, 40.647025759 ] ] } },
{ "type": "Feature", "properties": { "runwayId": "13R - 31L", "crossRunwayId": null, "taxiwayId": null }, "geometry": { "type": "LineString", "coordinates": [ [ -73.813799742, 40.647359963 ], [ -73.814820978999904, 40.647822807000097 ] ] } },
{ "type": "Feature", "properties": { "runwayId": "13R - 31L", "crossRunwayId": null, "taxiwayId": null }, "geometry": { "type": "LineString", "coordinates": [ [ -73.8149018619999, 40.647859464000099 ], [ -73.815805079, 40.648268817 ] ] } },
{ "type": "Feature", "properties": { "runwayId": "13R - 31L", "crossRunwayId": null, "taxiwayId": null }, "geometry": { "type": "LineString", "coordinates": [ [ -73.81593068, 40.6483257410001 ], [ -73.816530459, 40.648597569000103 ] ] } },
{ "type": "Feature", "properties": { "runwayId": "13L - 31R", "crossRunwayId": null, "taxiwayId": null }, "geometry": { "type": "LineString", "coordinates": [ [ -73.790423818, 40.657528895 ], [ -73.789844951, 40.657266432 ] ] } },
{ "type": "Feature", "properties": { "runwayId": "13L - 31R", "crossRunwayId": null, "taxiwayId": null }, "geometry": { "type": "LineString", "coordinates": [ [ -73.78930482, 40.657021532 ], [ -73.788611325, 40.656707096 ] ] } },
{ "type": "Feature", "properties": { "runwayId": "13L - 31R", "crossRunwayId": null, "taxiwayId": null }, "geometry": { "type": "LineString", "coordinates": [ [ -73.787431619, 40.656172208 ], [ -73.786719938, 40.655849527 ] ] } },
{ "type": "Feature", "properties": { "runwayId": "13L - 31R", "crossRunwayId": null, "taxiwayId": null }, "geometry": { "type": "LineString", "coordinates": [ [ -73.783797938, 40.6545246680001 ], [ -73.782613351, 40.653987568 ] ] } },
{ "type": "Feature", "properties": { "runwayId": "13L - 31R", "crossRunwayId": null, "taxiwayId": null }, "geometry": { "type": "LineString", "coordinates": [ [ -73.781271948, 40.653379365 ], [ -73.780041518, 40.652821479000103 ] ] } },
{ "type": "Feature", "properties": { "runwayId": "13L - 31R", "crossRunwayId": null, "taxiwayId": null }, "geometry": { "type": "LineString", "coordinates": [ [ -73.779321098, 40.652494835 ], [ -73.7782815529999, 40.652023497000101 ] ] } },
{ "type": "Feature", "properties": { "runwayId": "13L - 31R", "crossRunwayId": null, "taxiwayId": null }, "geometry": { "type": "LineString", "coordinates": [ [ -73.774866615, 40.6504751370001 ], [ -73.773556529, 40.649881135 ] ] } },
{ "type": "Feature", "properties": { "runwayId": "13L - 31R", "crossRunwayId": null, "taxiwayId": null }, "geometry": { "type": "LineString", "coordinates": [ [ -73.771177115999905, 40.648802291 ], [ -73.770041013, 40.648287172 ] ] } },
{ "type": "Feature", "properties": { "runwayId": "13L - 31R", "crossRunwayId": null, "taxiwayId": null }, "geometry": { "type": "LineString", "coordinates": [ [ -73.769885176999907, 40.648216514000097 ], [ -73.768948039, 40.647791609000102 ] ] } },
{ "type": "Feature", "properties": { "runwayId": "13L - 31R", "crossRunwayId": null, "taxiwayId": null }, "geometry": { "type": "LineString", "coordinates": [ [ -73.768358228999901, 40.647524184000098 ], [ -73.767834261, 40.647286613000098 ] ] } },
{ "type": "Feature", "properties": { "runwayId": "13L - 31R", "crossRunwayId": "4L - 22R", "taxiwayId": null }, "geometry": { "type": "LineString", "coordinates": [ [ -73.766674124, 40.6467605980001 ], [ -73.766054825, 40.646479803 ] ] } },
{ "type": "Feature", "properties": { "runwayId": "13L - 31R", "crossRunwayId": "4L - 22R", "taxiwayId": null }, "geometry": { "type": "LineString", "coordinates": [ [ -73.766305565, 40.647232352000103 ], [ -73.765685575, 40.646952436 ] ] } },
{ "type": "Feature", "properties": { "runwayId": "13L - 31R", "crossRunwayId": null, "taxiwayId": null }, "geometry": { "type": "LineString", "coordinates": [ [ -73.764451930999897, 40.645753038000102 ], [ -73.763413321, 40.645282124000097 ] ] } },
{ "type": "Feature", "properties": { "runwayId": "13L - 31R", "crossRunwayId": null, "taxiwayId": null }, "geometry": { "type": "LineString", "coordinates": [ [ -73.760114901, 40.643786595000101 ], [ -73.760740036, 40.644070036000102 ] ] } },
{ "type": "Feature", "properties": { "runwayId": "13L - 31R", "crossRunwayId": null, "taxiwayId": null }, "geometry": { "type": "LineString", "coordinates": [ [ -73.762631547, 40.64556652 ], [ -73.763360333, 40.645896958 ] ] } },
{ "type": "Feature", "properties": { "runwayId": "13L - 31R", "crossRunwayId": null, "taxiwayId": null }, "geometry": { "type": "LineString", "coordinates": [ [ -73.767440361999903, 40.647748282000101 ], [ -73.768062277999903, 40.648030326 ] ] } },
{ "type": "Feature", "properties": { "runwayId": "13L - 31R", "crossRunwayId": null, "taxiwayId": null }, "geometry": { "type": "LineString", "coordinates": [ [ -73.769432913999907, 40.648650320000101 ], [ -73.770073104999895, 40.648940607 ] ] } },
{ "type": "Feature", "properties": { "runwayId": "13L - 31R", "crossRunwayId": null, "taxiwayId": null }, "geometry": { "type": "LineString", "coordinates": [ [ -73.773487509999896, 40.650488810000098 ], [ -73.774685795, 40.651032142000098 ] ] } },
{ "type": "Feature", "properties": { "runwayId": "13L - 31R", "crossRunwayId": null, "taxiwayId": null }, "geometry": { "type": "LineString", "coordinates": [ [ -73.777863001999904, 40.652472747 ], [ -73.778963840999893, 40.652971881 ] ] } },
{ "type": "Feature", "properties": { "runwayId": "13L - 31R", "crossRunwayId": null, "taxiwayId": null }, "geometry": { "type": "LineString", "coordinates": [ [ -73.782132503999904, 40.65440857 ], [ -73.782721691999896, 40.654675708000099 ] ] } },
{ "type": "Feature", "properties": { "runwayId": "13L - 31R", "crossRunwayId": null, "taxiwayId": null }, "geometry": { "type": "LineString", "coordinates": [ [ -73.782972103, 40.654789244 ], [ -73.783704096999898, 40.655121161000103 ] ] } },
{ "type": "Feature", "properties": { "runwayId": "13L - 31R", "crossRunwayId": null, "taxiwayId": null }, "geometry": { "type": "LineString", "coordinates": [ [ -73.786411565, 40.656348671 ], [ -73.787167209, 40.656691270000103 ] ] } },
{ "type": "Feature", "properties": { "runwayId": "13L - 31R", "crossRunwayId": null, "taxiwayId": null }, "geometry": { "type": "LineString", "coordinates": [ [ -73.789419231999901, 40.657712296000099 ], [ -73.790055198999895, 40.658000647000101 ] ] } }
]
}
