{
"type": "FeatureCollection",
"name": "laxnoyz",
"crs": { "type": "name", "properties": { "name": "urn:ogc:def:crs:OGC:1.3:CRS84" } },
"features": [
{ "type": "Feature", "properties": { "id": null, "runwayId": "6L - 24R" }, "geometry": { "type": "LineString", "coordinates": [ [ -118.43115239841967, 33.948913415598909 ], [ -118.430577384101312, 33.948972405674475 ] ] } },
{ "type": "Feature", "properties": { "id": null, "runwayId": "6L - 24R" }, "geometry": { "type": "LineString", "coordinates": [ [ -118.426489440243955, 33.949390881392056 ], [ -118.423790198669536, 33.949667128940852 ] ] } },
{ "type": "Feature", "properties": { "id": null, "runwayId": "6L - 24R" }, "geometry": { "type": "LineString", "coordinates": [ [ -118.411717992496222, 33.950903072339983 ], [ -118.410443722384585, 33.951033712535555 ] ] } },
{ "type": "Feature", "properties": { "id": null, "runwayId": "6L - 24R" }, "geometry": { "type": "LineString", "coordinates": [ [ -118.402510663616511, 33.951845543541125 ], [ -118.401939666476707, 33.951904427533989 ] ] } },
{ "type": "Feature", "properties": { "id": null, "runwayId": "6R - 24L" }, "geometry": { "type": "LineString", "coordinates": [ [ -118.434666103770084, 33.946613393337636 ], [ -118.433944599231978, 33.946687083295032 ] ] } },
{ "type": "Feature", "properties": { "id": null, "runwayId": "6R - 24L" }, "geometry": { "type": "LineString", "coordinates": [ [ -118.4313231327436, 33.947372815166929 ], [ -118.430272296295371, 33.947480292115792 ] ] } },
{ "type": "Feature", "properties": { "id": null, "runwayId": "6R - 24L" }, "geometry": { "type": "LineString", "coordinates": [ [ -118.431025609098043, 33.946985703954013 ], [ -118.430186569143274, 33.947071943345883 ] ] } },
{ "type": "Feature", "properties": { "id": null, "runwayId": "6R - 24L" }, "geometry": { "type": "LineString", "coordinates": [ [ -118.42796076643377, 33.947717448855109 ], [ -118.426461898941739, 33.947871262506446 ] ] } },
{ "type": "Feature", "properties": { "id": null, "runwayId": "6R - 24L" }, "geometry": { "type": "LineString", "coordinates": [ [ -118.428375049684718, 33.947257936960789 ], [ -118.426146919541225, 33.947485762495781 ] ] } },
{ "type": "Feature", "properties": { "id": null, "runwayId": "6R - 24L" }, "geometry": { "type": "LineString", "coordinates": [ [ -118.421179011681275, 33.948412504149005 ], [ -118.419315900769192, 33.948602999794062 ] ] } },
{ "type": "Feature", "properties": { "id": null, "runwayId": "6R - 24L" }, "geometry": { "type": "LineString", "coordinates": [ [ -118.422744211042144, 33.947834578941176 ], [ -118.420683656146238, 33.948045670117885 ] ] } },
{ "type": "Feature", "properties": { "id": null, "runwayId": "6R - 24L" }, "geometry": { "type": "LineString", "coordinates": [ [ -118.418958251745465, 33.948222008077558 ], [ -118.417917112938866, 33.948328840386338 ] ] } },
{ "type": "Feature", "properties": { "id": null, "runwayId": "6R - 24L" }, "geometry": { "type": "LineString", "coordinates": [ [ -118.416727018356653, 33.948868148428126 ], [ -118.415472531433963, 33.94899621749677 ] ] } },
{ "type": "Feature", "properties": { "id": null, "runwayId": "6R - 24L" }, "geometry": { "type": "LineString", "coordinates": [ [ -118.416602888543665, 33.948462702367095 ], [ -118.414976787993282, 33.948630029546983 ] ] } },
{ "type": "Feature", "properties": { "id": null, "runwayId": "6R - 24L" }, "geometry": { "type": "LineString", "coordinates": [ [ -118.411267634018373, 33.949427403396648 ], [ -118.410388639780038, 33.949516858108225 ] ] } },
{ "type": "Feature", "properties": { "id": null, "runwayId": "6R - 24L" }, "geometry": { "type": "LineString", "coordinates": [ [ -118.411134194469412, 33.949023247124813 ], [ -118.410403380195348, 33.949098543900554 ] ] } },
{ "type": "Feature", "properties": { "id": null, "runwayId": "6R - 24L" }, "geometry": { "type": "LineString", "coordinates": [ [ -118.40975790516768, 33.949163865408437 ], [ -118.409022048119979, 33.949239805620628 ] ] } },
{ "type": "Feature", "properties": { "id": null, "runwayId": "6R - 24L" }, "geometry": { "type": "LineString", "coordinates": [ [ -118.403516115101809, 33.949803563043019 ], [ -118.401654943718015, 33.949994699129633 ] ] } },
{ "type": "Feature", "properties": { "id": null, "runwayId": "6R - 24L" }, "geometry": { "type": "LineString", "coordinates": [ [ -118.40228722995306, 33.950348010159587 ], [ -118.401717008624559, 33.950405929860629 ] ] } },
{ "type": "Feature", "properties": { "id": null, "runwayId": "6R - 24L" }, "geometry": { "type": "LineString", "coordinates": [ [ -118.401267038052367, 33.950033955983166 ], [ -118.400211158830501, 33.950142073125519 ] ] } },
{ "type": "Feature", "properties": { "id": null, "runwayId": "6R - 24L" }, "geometry": { "type": "LineString", "coordinates": [ [ -118.399708433087838, 33.950193557430765 ], [ -118.39903386513528, 33.950262095863771 ] ] } },
{ "type": "Feature", "properties": { "id": null, "runwayId": "7L - 25R" }, "geometry": { "type": "LineString", "coordinates": [ [ -118.422128604750753, 33.935757425612771 ], [ -118.421465286062499, 33.935825653838627 ] ] } },
{ "type": "Feature", "properties": { "id": null, "runwayId": "7L - 25R" }, "geometry": { "type": "LineString", "coordinates": [ [ -118.422061884976259, 33.935351917104697 ], [ -118.421450545647176, 33.935414352667429 ] ] } },
{ "type": "Feature", "properties": { "id": null, "runwayId": "7L - 25R" }, "geometry": { "type": "LineString", "coordinates": [ [ -118.419816686983495, 33.935994293181174 ], [ -118.418722793006367, 33.936105646457108 ] ] } },
{ "type": "Feature", "properties": { "id": null, "runwayId": "7L - 25R" }, "geometry": { "type": "LineString", "coordinates": [ [ -118.419666955396551, 33.935595866105245 ], [ -118.418590129268736, 33.935707219902227 ] ] } },
{ "type": "Feature", "properties": { "id": null, "runwayId": "7L - 25R" }, "geometry": { "type": "LineString", "coordinates": [ [ -118.413201343761571, 33.936670778179035 ], [ -118.411471284492833, 33.936847783357024 ] ] } },
{ "type": "Feature", "properties": { "id": null, "runwayId": "7L - 25R" }, "geometry": { "type": "LineString", "coordinates": [ [ -118.413103591533883, 33.936267204997385 ], [ -118.412109777218461, 33.936369546702942 ] ] } },
{ "type": "Feature", "properties": { "id": null, "runwayId": "7L - 25R" }, "geometry": { "type": "LineString", "coordinates": [ [ -118.409575977410498, 33.93704087949515 ], [ -118.408437474281754, 33.937157380620029 ] ] } },
{ "type": "Feature", "properties": { "id": null, "runwayId": "7L - 25R" }, "geometry": { "type": "LineString", "coordinates": [ [ -118.409388231068277, 33.936646962908839 ], [ -118.408382779582936, 33.936750591468495 ] ] } },
{ "type": "Feature", "properties": { "id": null, "runwayId": "7L - 25R" }, "geometry": { "type": "LineString", "coordinates": [ [ -118.40807478248442, 33.937194712438476 ], [ -118.407080192357697, 33.937295765726972 ] ] } },
{ "type": "Feature", "properties": { "id": null, "runwayId": "7L - 25R" }, "geometry": { "type": "LineString", "coordinates": [ [ -118.405671318980083, 33.937439943459616 ], [ -118.403679035481332, 33.937643336631616 ] ] } },
{ "type": "Feature", "properties": { "id": null, "runwayId": "7L - 25R" }, "geometry": { "type": "LineString", "coordinates": [ [ -118.404568891078355, 33.937140645661621 ], [ -118.403505253743148, 33.937248779180997 ] ] } },
{ "type": "Feature", "properties": { "id": null, "runwayId": "7L - 25R" }, "geometry": { "type": "LineString", "coordinates": [ [ -118.402217406933161, 33.937793306602295 ], [ -118.400683627931201, 33.93795035641719 ] ] } },
{ "type": "Feature", "properties": { "id": null, "runwayId": "7L - 25R" }, "geometry": { "type": "LineString", "coordinates": [ [ -118.399460949273092, 33.938073936395746 ], [ -118.397813126005445, 33.938242571285457 ] ] } },
{ "type": "Feature", "properties": { "id": null, "runwayId": "7L - 25R" }, "geometry": { "type": "LineString", "coordinates": [ [ -118.397491940114264, 33.938274753478346 ], [ -118.39525450023487, 33.938505177624208 ] ] } },
{ "type": "Feature", "properties": { "id": null, "runwayId": "7L - 25R" }, "geometry": { "type": "LineString", "coordinates": [ [ -118.396571827875391, 33.937959367463371 ], [ -118.393350659227892, 33.938286339064831 ] ] } },
{ "type": "Feature", "properties": { "id": null, "runwayId": "7L - 25R" }, "geometry": { "type": "LineString", "coordinates": [ [ -118.394224222786931, 33.938610734845874 ], [ -118.393093089865943, 33.938724015621105 ] ] } },
{ "type": "Feature", "properties": { "id": null, "runwayId": "7L - 25R" }, "geometry": { "type": "LineString", "coordinates": [ [ -118.391023225234051, 33.938936416668412 ], [ -118.389421950646252, 33.939101188024999 ] ] } },
{ "type": "Feature", "properties": { "id": null, "runwayId": "7L - 25R" }, "geometry": { "type": "LineString", "coordinates": [ [ -118.388653897428242, 33.939179711762428 ], [ -118.387614310244331, 33.939285268147792 ] ] } },
{ "type": "Feature", "properties": { "id": null, "runwayId": "7L - 25R" }, "geometry": { "type": "LineString", "coordinates": [ [ -118.388821472675829, 33.938751048511065 ], [ -118.387733785189312, 33.938861754542479 ] ] } },
{ "type": "Feature", "properties": { "id": null, "runwayId": "7L - 25R" }, "geometry": { "type": "LineString", "coordinates": [ [ -118.383823696079645, 33.93967402346297 ], [ -118.382664633950711, 33.939792451881729 ] ] } },
{ "type": "Feature", "properties": { "id": null, "runwayId": "7L - 25R" }, "geometry": { "type": "LineString", "coordinates": [ [ -118.383944722647328, 33.939249224518719 ], [ -118.382742215083852, 33.939374089882875 ] ] } },
{ "type": "Feature", "properties": { "id": null, "runwayId": "7L - 25R" }, "geometry": { "type": "LineString", "coordinates": [ [ -118.380430297316607, 33.940019010136851 ], [ -118.379817406364893, 33.940082085907399 ] ] } },
{ "type": "Feature", "properties": { "id": null, "runwayId": "7R - 25L" }, "geometry": { "type": "LineString", "coordinates": [ [ -118.383432428565058, 33.93757232071642 ], [ -118.382767299650325, 33.937639260190942 ] ] } },
{ "type": "Feature", "properties": { "id": null, "runwayId": "7R - 25L" }, "geometry": { "type": "LineString", "coordinates": [ [ -118.383482080490268, 33.937010198693571 ], [ -118.382685580856801, 33.937090869868435 ] ] } },
{ "type": "Feature", "properties": { "id": null, "runwayId": "7R - 25L" }, "geometry": { "type": "LineString", "coordinates": [ [ -118.393997944482038, 33.936492699871103 ], [ -118.393366976110869, 33.936557819590178 ] ] } },
{ "type": "Feature", "properties": { "id": null, "runwayId": "7R - 25L" }, "geometry": { "type": "LineString", "coordinates": [ [ -118.394266892410215, 33.935908257120659 ], [ -118.39327281949106, 33.936009526489542 ] ] } },
{ "type": "Feature", "properties": { "id": null, "runwayId": "7R - 25L" }, "geometry": { "type": "LineString", "coordinates": [ [ -118.391710852677406, 33.936169154233269 ], [ -118.390607131756738, 33.936281580045204 ] ] } },
{ "type": "Feature", "properties": { "id": null, "runwayId": "7R - 25L" }, "geometry": { "type": "LineString", "coordinates": [ [ -118.399061406437554, 33.935974339688599 ], [ -118.396721559462392, 33.936212064866034 ] ] } },
{ "type": "Feature", "properties": { "id": null, "runwayId": "7R - 25L" }, "geometry": { "type": "LineString", "coordinates": [ [ -118.405770622830417, 33.935286906830939 ], [ -118.403053756388857, 33.935564436931713 ] ] } },
{ "type": "Feature", "properties": { "id": null, "runwayId": "7R - 25L" }, "geometry": { "type": "LineString", "coordinates": [ [ -118.40233636467066, 33.935082649806269 ], [ -118.39917105443898, 33.935407057793036 ] ] } },
{ "type": "Feature", "properties": { "id": null, "runwayId": "7R - 25L" }, "geometry": { "type": "LineString", "coordinates": [ [ -118.411190957998343, 33.934732493766916 ], [ -118.40812394204022, 33.935049074883132 ] ] } },
{ "type": "Feature", "properties": { "id": null, "runwayId": "7R - 25L" }, "geometry": { "type": "LineString", "coordinates": [ [ -118.407807386178845, 33.93452394426518 ], [ -118.406700562012858, 33.934635514020997 ] ] } },
{ "type": "Feature", "properties": { "id": null, "runwayId": "7R - 25L" }, "geometry": { "type": "LineString", "coordinates": [ [ -118.412932913040862, 33.933998706220073 ], [ -118.411769196043934, 33.934117142532735 ] ] } },
{ "type": "Feature", "properties": { "id": null, "runwayId": "7R - 25L" }, "geometry": { "type": "LineString", "coordinates": [ [ -118.413016700664627, 33.934546258228046 ], [ -118.411896429102271, 33.934660402638897 ] ] } },
{ "type": "Feature", "properties": { "id": null, "runwayId": "7R - 25L" }, "geometry": { "type": "LineString", "coordinates": [ [ -118.419116905162554, 33.933921465057807 ], [ -118.418309544170427, 33.934004713863068 ] ] } },
{ "type": "Feature", "properties": { "id": null, "runwayId": "7R - 25L" }, "geometry": { "type": "LineString", "coordinates": [ [ -118.418989930707994, 33.933378629358025 ], [ -118.417787423144489, 33.933502215971771 ] ] } },
{ "type": "Feature", "properties": { "id": null, "runwayId": "6R - 24L" }, "geometry": { "type": "LineString", "coordinates": [ [ -118.43380999596603, 33.946701563846823 ], [ -118.432711059215251, 33.94681354669769 ] ] } },
{ "type": "Feature", "properties": { "id": null, "runwayId": "7R - 25L" }, "geometry": { "type": "LineString", "coordinates": [ [ -118.402822564612222, 33.935587608840635 ], [ -118.399621049853224, 33.935912444011244 ] ] } },
{ "type": "Feature", "properties": { "id": null, "runwayId": "7R - 25L" }, "geometry": { "type": "LineString", "coordinates": [ [ -118.407971883019357, 33.935061948244559 ], [ -118.406760582928015, 33.935185532415247 ] ] } },
{ "type": "Feature", "properties": { "id": null, "runwayId": "7R - 25L" }, "geometry": { "type": "LineString", "coordinates": [ [ -118.393201469693608, 33.936569834514685 ], [ -118.391296077064837, 33.93676207307616 ] ] } },
{ "type": "Feature", "properties": { "id": null, "runwayId": "6L - 24R" }, "geometry": { "type": "LineString", "coordinates": [ [ -118.421894488804071, 33.949861421193326 ], [ -118.424024591363548, 33.949643481345589 ] ] } },
{ "type": "Feature", "properties": { "id": null, "runwayId": "6L - 24R" }, "geometry": { "type": "LineString", "coordinates": [ [ -118.421847138777636, 33.949866610237322 ], [ -118.419768926658122, 33.950078712410566 ] ] } },
{ "type": "Feature", "properties": { "id": null, "runwayId": "6L - 24R" }, "geometry": { "type": "LineString", "coordinates": [ [ -118.415630664073078, 33.950501619496052 ], [ -118.413604342393469, 33.950709829886307 ] ] } },
{ "type": "Feature", "properties": { "id": null, "runwayId": "6L - 24R" }, "geometry": { "type": "LineString", "coordinates": [ [ -118.409868230717919, 33.951095765033344 ], [ -118.40796904061618, 33.951285165139119 ] ] } },
{ "type": "Feature", "properties": { "id": null, "runwayId": "6R - 24L" }, "geometry": { "type": "LineString", "coordinates": [ [ -118.406905286597436, 33.949453432609296 ], [ -118.406273520491183, 33.949520890181219 ] ] } },
{ "type": "Feature", "properties": { "id": null, "runwayId": "6R - 24L" }, "geometry": { "type": "LineString", "coordinates": [ [ -118.412510102741237, 33.94888134050899 ], [ -118.411880282526496, 33.948946852189408 ] ] } },
{ "type": "Feature", "properties": { "id": null, "runwayId": "6R - 24L" }, "geometry": { "type": "LineString", "coordinates": [ [ -118.412440699277781, 33.949308139377472 ], [ -118.412069034001732, 33.949346408576929 ] ] } },
{ "type": "Feature", "properties": { "id": null, "runwayId": "6R - 24L" }, "geometry": { "type": "LineString", "coordinates": [ [ -118.423082779878627, 33.947798127575261 ], [ -118.422540524781283, 33.947855207059192 ] ] } },
{ "type": "Feature", "properties": { "id": null, "runwayId": "6R - 24L" }, "geometry": { "type": "LineString", "coordinates": [ [ -118.422899866077856, 33.948235304531735 ], [ -118.422576848089236, 33.9482690333177 ] ] } },
{ "type": "Feature", "properties": { "id": null, "runwayId": "6R - 24L" }, "geometry": { "type": "LineString", "coordinates": [ [ -118.42507148098926, 33.948014770162011 ], [ -118.424741976695657, 33.948045904425975 ] ] } },
{ "type": "Feature", "properties": { "id": null, "runwayId": "6R - 24L" }, "geometry": { "type": "LineString", "coordinates": [ [ -118.42533093318896, 33.947565917856551 ], [ -118.424433228578025, 33.947659320648441 ] ] } },
{ "type": "Feature", "properties": { "id": null, "runwayId": "6R - 24L" }, "geometry": { "type": "LineString", "coordinates": [ [ -118.406810114499805, 33.949886692712475 ], [ -118.40643064528129, 33.949924105170638 ] ] } },
{ "type": "Feature", "properties": { "id": "7R - 25L", "runwayId": null }, "geometry": { "type": "Polygon", "coordinates": [ [ [ -118.419118115857088, 33.93392207883609 ], [ -118.419033542560911, 33.933374695880481 ], [ -118.382646360216157, 33.937094544630419 ], [ -118.382724427874194, 33.937644443615021 ], [ -118.419118115857088, 33.93392207883609 ] ] ] } },
{ "type": "Feature", "properties": { "id": "7L - 25R", "runwayId": null }, "geometry": { "type": "Polygon", "coordinates": [ [ [ -118.422129460961031, 33.935757881597894 ], [ -118.422072058271354, 33.935350211072169 ], [ -118.379756326129694, 33.93967764204362 ], [ -118.379817406364893, 33.940082085907399 ], [ -118.422129460961031, 33.935757881597894 ] ] ] } },
{ "type": "Feature", "properties": { "id": "6R - 24L", "runwayId": null }, "geometry": { "type": "Polygon", "coordinates": [ [ [ -118.434729734044566, 33.947023928725351 ], [ -118.434673096724069, 33.946612502635254 ], [ -118.399034445453566, 33.950261935013103 ], [ -118.399092613512494, 33.950674613237929 ], [ -118.434729734044566, 33.947023928725351 ] ] ] } },
{ "type": "Feature", "properties": { "id": "6L - 24R", "runwayId": null }, "geometry": { "type": "Polygon", "coordinates": [ [ [ -118.431214648447622, 33.949319328116133 ], [ -118.43115239841967, 33.948913415598909 ], [ -118.401933153724144, 33.951905017359543 ], [ -118.401994383259876, 33.952315571364025 ], [ -118.431214648447622, 33.949319328116133 ] ] ] } }
]
}
