{
"type": "FeatureCollection",
"name": "Safety Logic Runways",
"crs": { "type": "name", "properties": { "name": "urn:ogc:def:crs:OGC:1.3:CRS84" } },
"features": [
{ "type": "Feature", "properties": { "id": "9 - 27" }, "geometry": { "type": "Polygon", "coordinates": [ [ [ -89.985736665099154, 35.058833639847627 ], [ -89.98575540026313, 35.058421183668791 ], [ -89.955864634758271, 35.057576306033305 ], [ -89.9558495419477, 35.057993775556994 ], [ -89.985736665099154, 35.058833639847627 ] ] ] } },
{ "type": "Feature", "properties": { "id": "18R - 36L" }, "geometry": { "type": "Polygon", "coordinates": [ [ [ -89.987193565251715, 35.049494539530109 ], [ -89.987698269635302, 35.049487081417809 ], [ -89.987146075329008, 35.023885860604359 ], [ -89.986644520986488, 35.0238928595221 ], [ -89.987193565251715, 35.049494539530109 ] ] ] } },
{ "type": "Feature", "properties": { "id": "18L - 36R" }, "geometry": { "type": "Polygon", "coordinates": [ [ [ -89.972702894621818, 35.048819939839042 ], [ -89.973205571671315, 35.048817654985164 ], [ -89.97268642919893, 35.024087636852606 ], [ -89.972183068246167, 35.024094660963286 ], [ -89.972702894621818, 35.048819939839042 ] ] ] } },
{ "type": "Feature", "properties": { "id": "18C - 36C" }, "geometry": { "type": "Polygon", "coordinates": [ [ [ -89.975920161878051, 35.054600105426331 ], [ -89.976422827237371, 35.05459655846493 ], [ -89.975781845724342, 35.024044442093754 ], [ -89.975280322950411, 35.024051440557415 ], [ -89.975920161878051, 35.054600105426331 ] ] ] } },
{ "type": "Feature", "properties": { "runwayId": "9 - 27" }, "geometry": { "type": "LineString", "coordinates": [ [ -89.985665597334403, 35.058831642757525 ], [ -89.984647020972872, 35.058803019530423 ] ] } },
{ "type": "Feature", "properties": { "runwayId": "9 - 27" }, "geometry": { "type": "LineString", "coordinates": [ [ -89.985374592616679, 35.05841041994767 ], [ -89.984465352244314, 35.058384719807748 ] ] } },
{ "type": "Feature", "properties": { "runwayId": "9 - 27" }, "geometry": { "type": "LineString", "coordinates": [ [ -89.981495479709963, 35.058714457411085 ], [ -89.979213599407856, 35.058649707040701 ] ] } },
{ "type": "Feature", "properties": { "runwayId": "9 - 27" }, "geometry": { "type": "LineString", "coordinates": [ [ -89.978193731526105, 35.058621674295686 ], [ -89.977394576808209, 35.058599217082033 ] ] } },
{ "type": "Feature", "properties": { "runwayId": "9 - 27" }, "geometry": { "type": "LineString", "coordinates": [ [ -89.978211364972765, 35.058207947688032 ], [ -89.977408284962067, 35.058185248224532 ] ] } },
{ "type": "Feature", "properties": { "runwayId": "9 - 27" }, "geometry": { "type": "LineString", "coordinates": [ [ -89.975274309344798, 35.05853963500315 ], [ -89.974511786587087, 35.05851820719186 ] ] } },
{ "type": "Feature", "properties": { "runwayId": "9 - 27" }, "geometry": { "type": "LineString", "coordinates": [ [ -89.975183703802472, 35.058122369310645 ], [ -89.974352844205498, 35.058098884643066 ] ] } },
{ "type": "Feature", "properties": { "runwayId": "9 - 27" }, "geometry": { "type": "LineString", "coordinates": [ [ -89.972330423682166, 35.058456908257213 ], [ -89.97140239826804, 35.058430829621201 ] ] } },
{ "type": "Feature", "properties": { "runwayId": "9 - 27" }, "geometry": { "type": "LineString", "coordinates": [ [ -89.972346029501324, 35.058042444456326 ], [ -89.971391188407509, 35.05801517194098 ] ] } },
{ "type": "Feature", "properties": { "runwayId": "9 - 27" }, "geometry": { "type": "LineString", "coordinates": [ [ -89.96956136253668, 35.058379094291553 ], [ -89.968598266427293, 35.058352030126606 ] ] } },
{ "type": "Feature", "properties": { "runwayId": "9 - 27" }, "geometry": { "type": "LineString", "coordinates": [ [ -89.969677303386348, 35.05796672811227 ], [ -89.96869249951358, 35.057938892131709 ] ] } },
{ "type": "Feature", "properties": { "runwayId": "9 - 27" }, "geometry": { "type": "LineString", "coordinates": [ [ -89.964288279867674, 35.057814404631387 ], [ -89.963376076732573, 35.057788620747466 ] ] } },
{ "type": "Feature", "properties": { "runwayId": "9 - 27" }, "geometry": { "type": "LineString", "coordinates": [ [ -89.956659326510788, 35.057598768398435 ], [ -89.955864634758271, 35.057576306033305 ] ] } },
{ "type": "Feature", "properties": { "runwayId": "9 - 27" }, "geometry": { "type": "LineString", "coordinates": [ [ -89.956380329710157, 35.058009035187922 ], [ -89.9558495419477, 35.057993775556994 ], [ -89.955191362528481, 35.057975279919653 ] ] } },
{ "type": "Feature", "properties": { "runwayId": "9 - 27" }, "geometry": { "type": "LineString", "coordinates": [ [ -89.956775239266264, 35.057602044731212 ], [ -89.955864634758271, 35.057576306033305 ] ] } },
{ "type": "Feature", "properties": { "runwayId": "18R - 36L" }, "geometry": { "type": "LineString", "coordinates": [ [ -89.987193565251715, 35.049494539530109 ], [ -89.987155105722252, 35.047701189469187 ] ] } },
{ "type": "Feature", "properties": { "runwayId": "18R - 36L" }, "geometry": { "type": "LineString", "coordinates": [ [ -89.987118773550975, 35.046007037135674 ], [ -89.987077354892477, 35.044075704256841 ] ] } },
{ "type": "Feature", "properties": { "runwayId": "18R - 36L" }, "geometry": { "type": "LineString", "coordinates": [ [ -89.987037771739267, 35.042229960140929 ], [ -89.987021503612866, 35.041471384935079 ] ] } },
{ "type": "Feature", "properties": { "runwayId": "18R - 36L" }, "geometry": { "type": "LineString", "coordinates": [ [ -89.986924609201154, 35.036953243356606 ], [ -89.986908049801713, 35.036181086223927 ] ] } },
{ "type": "Feature", "properties": { "runwayId": "18R - 36L" }, "geometry": { "type": "LineString", "coordinates": [ [ -89.986844994859638, 35.033240863454218 ], [ -89.986809005122396, 35.031562678661992 ] ] } },
{ "type": "Feature", "properties": { "runwayId": "18R - 36L" }, "geometry": { "type": "LineString", "coordinates": [ [ -89.986756703325213, 35.02912387006289 ], [ -89.986719153093915, 35.027372920154299 ] ] } },
{ "type": "Feature", "properties": { "runwayId": "18R - 36L" }, "geometry": { "type": "LineString", "coordinates": [ [ -89.986679030424767, 35.02550201865909 ], [ -89.986644520986488, 35.0238928595221 ] ] } },
{ "type": "Feature", "properties": { "runwayId": "18C - 36C" }, "geometry": { "type": "LineString", "coordinates": [ [ -89.976422827237371, 35.05459655846493 ], [ -89.97637835784748, 35.05247694355041 ] ] } },
{ "type": "Feature", "properties": { "runwayId": "18C - 36C" }, "geometry": { "type": "LineString", "coordinates": [ [ -89.975920161878051, 35.054600105426331 ], [ -89.975907794016422, 35.054009610469329 ] ] } },
{ "type": "Feature", "properties": { "runwayId": "18C - 36C" }, "geometry": { "type": "LineString", "coordinates": [ [ -89.975893597629934, 35.053331813863984 ], [ -89.975881516198029, 35.052744127538894 ] ] } },
{ "type": "Feature", "properties": { "runwayId": "18C - 36C" }, "geometry": { "type": "LineString", "coordinates": [ [ -89.976305833570351, 35.04902010414137 ], [ -89.976292425606616, 35.048381019144387 ] ] } },
{ "type": "Feature", "properties": { "runwayId": "18C - 36C" }, "geometry": { "type": "LineString", "coordinates": [ [ -89.975803206735279, 35.049016163426487 ], [ -89.975789149397173, 35.0483694786301 ] ] } },
{ "type": "Feature", "properties": { "runwayId": "18C - 36C" }, "geometry": { "type": "LineString", "coordinates": [ [ -89.976256879154704, 35.046653814435409 ], [ -89.976192570388193, 35.043621461822561 ] ] } },
{ "type": "Feature", "properties": { "runwayId": "18C - 36C" }, "geometry": { "type": "LineString", "coordinates": [ [ -89.975753774877703, 35.046643988180001 ], [ -89.975696307637094, 35.043912340285829 ] ] } },
{ "type": "Feature", "properties": { "runwayId": "18C - 36C" }, "geometry": { "type": "LineString", "coordinates": [ [ -89.976163995283954, 35.042259441402194 ], [ -89.97606883744939, 35.037723782922058 ] ] } },
{ "type": "Feature", "properties": { "runwayId": "18C - 36C" }, "geometry": { "type": "LineString", "coordinates": [ [ -89.975661443199286, 35.042247761935656 ], [ -89.975649748837981, 35.041689422783634 ] ] } },
{ "type": "Feature", "properties": { "runwayId": "18C - 36C" }, "geometry": { "type": "LineString", "coordinates": [ [ -89.975578874394913, 35.038305571761796 ], [ -89.97556707602493, 35.037726661394863 ] ] } },
{ "type": "Feature", "properties": { "runwayId": "18C - 36C" }, "geometry": { "type": "LineString", "coordinates": [ [ -89.975989528926576, 35.033943575273383 ], [ -89.975935182911414, 35.031353195136106 ] ] } },
{ "type": "Feature", "properties": { "runwayId": "18C - 36C" }, "geometry": { "type": "LineString", "coordinates": [ [ -89.975445629380218, 35.031943881149331 ], [ -89.975431473700283, 35.031301272981871 ] ] } },
{ "type": "Feature", "properties": { "runwayId": "18C - 36C" }, "geometry": { "type": "LineString", "coordinates": [ [ -89.975818628163424, 35.025814291960572 ], [ -89.97580738835947, 35.025261921139276 ] ] } },
{ "type": "Feature", "properties": { "runwayId": "18C - 36C" }, "geometry": { "type": "LineString", "coordinates": [ [ -89.975317205532676, 35.025812373811569 ], [ -89.975305697630986, 35.025271882661912 ] ] } },
{ "type": "Feature", "properties": { "runwayId": "18C - 36C" }, "geometry": { "type": "LineString", "coordinates": [ [ -89.975791432989709, 35.024501415097241 ], [ -89.975781845724342, 35.024044442093754 ] ] } },
{ "type": "Feature", "properties": { "runwayId": "18C - 36C" }, "geometry": { "type": "LineString", "coordinates": [ [ -89.975289913305289, 35.024509325385274 ], [ -89.975280322950411, 35.024051440557415 ] ] } },
{ "type": "Feature", "properties": { "runwayId": "18L - 36R" }, "geometry": { "type": "LineString", "coordinates": [ [ -89.973205571671315, 35.048817654985164 ], [ -89.97319618478582, 35.048370498644339 ] ] } },
{ "type": "Feature", "properties": { "runwayId": "18L - 36R" }, "geometry": { "type": "LineString", "coordinates": [ [ -89.972702894621818, 35.048819939839042 ], [ -89.972693815329251, 35.048388087876376 ] ] } },
{ "type": "Feature", "properties": { "runwayId": "18L - 36R" }, "geometry": { "type": "LineString", "coordinates": [ [ -89.97318083763416, 35.04763941737265 ], [ -89.973168540301572, 35.047053618147324 ] ] } },
{ "type": "Feature", "properties": { "runwayId": "18L - 36R" }, "geometry": { "type": "LineString", "coordinates": [ [ -89.97267790726427, 35.047631428803818 ], [ -89.97266575830858, 35.047053569865504 ] ] } },
{ "type": "Feature", "properties": { "runwayId": "18L - 36R" }, "geometry": { "type": "LineString", "coordinates": [ [ -89.973137143235064, 35.045557978577541 ], [ -89.973096052837178, 35.043600584723741 ] ] } },
{ "type": "Feature", "properties": { "runwayId": "18L - 36R" }, "geometry": { "type": "LineString", "coordinates": [ [ -89.972599689386854, 35.043911034990003 ], [ -89.97255643507296, 35.041853665407707 ] ] } },
{ "type": "Feature", "properties": { "runwayId": "18L - 36R" }, "geometry": { "type": "LineString", "coordinates": [ [ -89.973045641973769, 35.041199198528993 ], [ -89.973008264652293, 35.039418681836871 ] ] } },
{ "type": "Feature", "properties": { "runwayId": "18L - 36R" }, "geometry": { "type": "LineString", "coordinates": [ [ -89.972987432957353, 35.038426337304998 ], [ -89.972971711208515, 35.037677411615888 ] ] } },
{ "type": "Feature", "properties": { "runwayId": "18L - 36R" }, "geometry": { "type": "LineString", "coordinates": [ [ -89.97248260013653, 35.038341743966917 ], [ -89.97247057594717, 35.03776981947636 ] ] } },
{ "type": "Feature", "properties": { "runwayId": "18L - 36R" }, "geometry": { "type": "LineString", "coordinates": [ [ -89.972905905030927, 35.034542649866701 ], [ -89.972863255411681, 35.032510980501655 ] ] } },
{ "type": "Feature", "properties": { "runwayId": "18L - 36R" }, "geometry": { "type": "LineString", "coordinates": [ [ -89.972852081654963, 35.032003850243733 ], [ -89.972838585197493, 35.031335783177511 ] ] } },
{ "type": "Feature", "properties": { "runwayId": "18L - 36R" }, "geometry": { "type": "LineString", "coordinates": [ [ -89.972802191508364, 35.029602123075179 ], [ -89.972758876900443, 35.027538776120487 ] ] } },
{ "type": "Feature", "properties": { "runwayId": "18L - 36R" }, "geometry": { "type": "LineString", "coordinates": [ [ -89.972723089374099, 35.025833991359768 ], [ -89.97271087494866, 35.025252141523843 ] ] } },
{ "type": "Feature", "properties": { "runwayId": "18L - 36R" }, "geometry": { "type": "LineString", "coordinates": [ [ -89.972229058128775, 35.026282146489493 ], [ -89.972183068246167, 35.024094660963286 ] ] } },
{ "type": "Feature", "properties": { "runwayId": "18L - 36R" }, "geometry": { "type": "LineString", "coordinates": [ [ -89.972695981405849, 35.024542668491705 ], [ -89.97268642919893, 35.024087636852606 ] ] } },
{ "type": "Feature", "properties": { "id": "M/N" }, "geometry": { "type": "Polygon", "coordinates": [ [ [ -89.985022181051065, 35.049550691215622 ], [ -89.98648391533554, 35.04953773102941 ], [ -89.98583088422464, 35.023909261674099 ], [ -89.984312421985052, 35.023933029467074 ], [ -89.985022181051065, 35.049550691215622 ] ] ] } },
{ "type": "Feature", "properties": { "id": "A" }, "geometry": { "type": "Polygon", "coordinates": [ [ [ -89.98519896119015, 35.05719468269973 ], [ -89.985201599699678, 35.056674162326502 ], [ -89.955840265551757, 35.056006768279666 ], [ -89.955819157475432, 35.056408501272038 ], [ -89.98519896119015, 35.05719468269973 ] ] ] } },
{ "type": "Feature", "properties": { "id": "J" }, "geometry": { "type": "Polygon", "coordinates": [ [ [ -89.97817261028824, 35.046515791471016 ], [ -89.978795298539424, 35.04651147124865 ], [ -89.978267596631653, 35.024023779158455 ], [ -89.977697678571261, 35.024032421980962 ], [ -89.97817261028824, 35.046515791471016 ] ] ] } },
{ "type": "Feature", "properties": { "id": "S" }, "geometry": { "type": "Polygon", "coordinates": [ [ [ -89.974542021162875, 35.054689242983258 ], [ -89.9751779019617, 35.054678443507761 ], [ -89.974494527991169, 35.024069153966373 ], [ -89.973856008682759, 35.024077796784084 ], [ -89.974542021162875, 35.054689242983258 ] ] ] } },
{ "type": "Feature", "properties": { "id": "Y" }, "geometry": { "type": "Polygon", "coordinates": [ [ [ -89.970505101568406, 35.049062522781803 ], [ -89.971383725244934, 35.049053882606252 ], [ -89.970908793527954, 35.023984886445916 ], [ -89.970011700284687, 35.024002172098228 ], [ -89.970505101568406, 35.049062522781803 ] ] ] } },
{ "type": "Feature", "properties": { "id": "V" }, "geometry": { "type": "Polygon", "coordinates": [ [ [ -89.955821795985059, 35.058557523229211 ], [ -89.955753194737198, 35.059641731935848 ], [ -89.9854997512777, 35.060613619933179 ], [ -89.985536690411266, 35.059538063199938 ], [ -89.955821795985059, 35.058557523229211 ] ] ] } }
]
}
