{"type":"FeatureCollection","features":[{"type":"Feature","properties":{"runwayId":"8R - 26L","crossRunwayId":null,"taxiwayId":null},"geometry":{"type":"LineString","coordinates":[[-80.30142041881558,25.80043116518077],[-80.29996052290505,25.80049155850666]]}},{"type":"Feature","properties":{"runwayId":"8L - 26R","crossRunwayId":null,"taxiwayId":null},"geometry":{"type":"LineString","coordinates":[[-80.30153315118447,25.80269799485705],[-80.30019942262157,25.80275302566381]]}},{"type":"Feature","properties":{"runwayId":"8L - 26R","crossRunwayId":null,"taxiwayId":null},"geometry":{"type":"LineString","coordinates":[[-80.29174491051782,25.80310186563177],[-80.2887675200876,25.80322471491063]]}},{"type":"Feature","properties":{"runwayId":"8L - 26R","crossRunwayId":null,"taxiwayId":null},"geometry":{"type":"LineString","coordinates":[[-80.27684860137316,25.80371649682713],[-80.27542772862947,25.80377512277425]]}},{"type":"Feature","properties":{"runwayId":"8L - 26R","crossRunwayId":null,"taxiwayId":null},"geometry":{"type":"LineString","coordinates":[[-80.27689790457735,25.8041283015597],[-80.27544348691764,25.80418872856241]]}},{"type":"Feature","properties":{"runwayId":"8L - 26R","crossRunwayId":null,"taxiwayId":null},"geometry":{"type":"LineString","coordinates":[[-80.29182491425595,25.80350812410306],[-80.28872152360053,25.80363706197838]]}},{"type":"Feature","properties":{"runwayId":"8L - 26R","crossRunwayId":null,"taxiwayId":null},"geometry":{"type":"LineString","coordinates":[[-80.30155254600061,25.80310396519125],[-80.3000979186166,25.80316440142986]]}},{"type":"Feature","properties":{"runwayId":"9 - 27","crossRunwayId":null,"taxiwayId":null},"geometry":{"type":"LineString","coordinates":[[-80.27630130550347,25.78749045932891],[-80.27531317799402,25.78753136019613]]}},{"type":"Feature","properties":{"runwayId":"9 - 27","crossRunwayId":null,"taxiwayId":null},"geometry":{"type":"LineString","coordinates":[[-80.27731113860041,25.78785749189031],[-80.27532954237016,25.78793956538436]]}},{"type":"Feature","properties":{"runwayId":"9 - 27","crossRunwayId":null,"taxiwayId":null},"geometry":{"type":"LineString","coordinates":[[-80.2865257569959,25.78747584128202],[-80.28422118702446,25.78757129196214]]}},{"type":"Feature","properties":{"runwayId":"9 - 27","crossRunwayId":null,"taxiwayId":null},"geometry":{"type":"LineString","coordinates":[[-80.28895440096342,25.78737525162196],[-80.28675264779207,25.78746644391475]]}},{"type":"Feature","properties":{"runwayId":"9 - 27","crossRunwayId":null,"taxiwayId":null},"geometry":{"type":"LineString","coordinates":[[-80.29381793586809,25.78717381330808],[-80.29146980245667,25.78727106854571]]}},{"type":"Feature","properties":{"runwayId":"9 - 27","crossRunwayId":null,"taxiwayId":null},"geometry":{"type":"LineString","coordinates":[[-80.29853706042175,25.78697835586764],[-80.29619683352945,25.78707528379215]]}},{"type":"Feature","properties":{"runwayId":"9 - 27","crossRunwayId":null,"taxiwayId":null},"geometry":{"type":"LineString","coordinates":[[-80.31485799597775,25.78630237031709],[-80.31331433016119,25.78636630650971]]}},{"type":"Feature","properties":{"runwayId":"12 - 30","crossRunwayId":null,"taxiwayId":null},"geometry":{"type":"LineString","coordinates":[[-80.30240046311995,25.799106815665],[-80.3019173422943,25.79885972592829]]}},{"type":"Feature","properties":{"runwayId":"12 - 30","crossRunwayId":null,"taxiwayId":null},"geometry":{"type":"LineString","coordinates":[[-80.29484102833207,25.79524052142121],[-80.29240595668325,25.79399507030557]]}},{"type":"Feature","properties":{"runwayId":"12 - 30","crossRunwayId":null,"taxiwayId":null},"geometry":{"type":"LineString","coordinates":[[-80.29075082043731,25.79314852048312],[-80.28832494561667,25.79190775134308]]}},{"type":"Feature","properties":{"runwayId":"12 - 30","crossRunwayId":null,"taxiwayId":null},"geometry":{"type":"LineString","coordinates":[[-80.28805295066545,25.79176863249706],[-80.2861637535626,25.79080234931861]]}},{"type":"Feature","properties":{"runwayId":"12 - 30","crossRunwayId":null,"taxiwayId":null},"geometry":{"type":"LineString","coordinates":[[-80.28327580633403,25.78932521198016],[-80.28222410430432,25.78878727918078]]}},{"type":"Feature","properties":{"runwayId":"12 - 30","crossRunwayId":null,"taxiwayId":null},"geometry":{"type":"LineString","coordinates":[[-80.2853300329364,25.79037591686919],[-80.28494388999064,25.79017841148158]]}},{"type":"Feature","properties":{"runwayId":"12 - 30","crossRunwayId":null,"taxiwayId":null},"geometry":{"type":"LineString","coordinates":[[-80.28446011386801,25.78993096796119],[-80.28369135281456,25.78953775827923]]}},{"type":"Feature","properties":{"runwayId":"12 - 30","crossRunwayId":null,"taxiwayId":null},"geometry":{"type":"LineString","coordinates":[[-80.28651719831163,25.79145941565574],[-80.28452060620052,25.79043843829349]]}},{"type":"Feature","properties":{"runwayId":"12 - 30","crossRunwayId":null,"taxiwayId":null},"geometry":{"type":"LineString","coordinates":[[-80.28825118973248,25.79234610239327],[-80.28651719831163,25.79145941565574]]}},{"type":"Feature","properties":{"runwayId":"12 - 30","crossRunwayId":null,"taxiwayId":null},"geometry":{"type":"LineString","coordinates":[[-80.29017497011456,25.79332983107562],[-80.28825118973248,25.79234610239327]]}},{"type":"Feature","properties":{"runwayId":"12 - 30","crossRunwayId":null,"taxiwayId":null},"geometry":{"type":"LineString","coordinates":[[-80.29278775082702,25.79466586828947],[-80.29008933968339,25.79328604396867]]}},{"type":"Feature","properties":{"runwayId":"12 - 30","crossRunwayId":null,"taxiwayId":null},"geometry":{"type":"LineString","coordinates":[[-80.30217924099806,25.79946805297093],[-80.30073044997846,25.79872725010313]]}},{"type":"Feature","properties":{"runwayId":"8L - 26R","crossRunwayId":null,"taxiwayId":null},"geometry":{"type":"LineString","coordinates":[[-80.2980822201165,25.80284038323807],[-80.29223278537863,25.80308173555062]]}},{"type":"Feature","properties":{"runwayId":"8L - 26R","crossRunwayId":null,"taxiwayId":null},"geometry":{"type":"LineString","coordinates":[[-80.2849954065084,25.80338035485757],[-80.27966490590394,25.80360029455426]]}},{"type":"Feature","properties":{"runwayId":"8L - 26R","crossRunwayId":null,"taxiwayId":null},"geometry":{"type":"LineString","coordinates":[[-80.28514850872517,25.80378551135473],[-80.2797681092955,25.80400905245765]]}},{"type":"Feature","properties":{"runwayId":"12 - 30","crossRunwayId":null,"taxiwayId":null},"geometry":{"type":"LineString","coordinates":[[-80.28457639161134,25.79046696484112],[-80.2817901979225,25.78904220245699],[-80.28147541872512,25.78888123426577],[-80.28119592948951,25.78873831206903]]}},{"type":"Feature","properties":{"runwayId":"8R - 26L","crossRunwayId":null,"taxiwayId":null},"geometry":{"type":"LineString","coordinates":[[-80.27046516537668,25.80171196149013],[-80.26952564363279,25.80175058891931]]}},{"type":"Feature","properties":{"runwayId":"8R - 26L","crossRunwayId":null,"taxiwayId":null},"geometry":{"type":"LineString","coordinates":[[-80.29476866126062,25.80125405259235],[-80.2955659478903,25.80122235810745]]}},{"type":"Feature","properties":{"runwayId":"8L - 26R","crossRunwayId":null,"taxiwayId":null},"geometry":{"type":"LineString","coordinates":[[-80.29805590766395,25.80324924197866],[-80.29227152466775,25.80349045441616]]}},{"type":"Feature","properties":{"runwayId":"12 - 30","crossRunwayId":null,"taxiwayId":null},"geometry":{"type":"LineString","coordinates":[[-80.29860315823453,25.79763950455602],[-80.29559612274171,25.79609981426515]]}},{"type":"Feature","properties":{"runwayId":"12 - 30","crossRunwayId":null,"taxiwayId":null},"geometry":{"type":"LineString","coordinates":[[-80.29505590469174,25.79582566943809],[-80.29278775082702,25.79466586828947]]}},{"type":"Feature","properties":{"runwayId":"9 - 27","crossRunwayId":null,"taxiwayId":null},"geometry":{"type":"LineString","coordinates":[[-80.30385243908144,25.78675820229545],[-80.30064404010774,25.7868913568506]]}},{"type":"Feature","properties":{"id":"9 - 27"},"geometry":{"type":"Polygon","coordinates":[[[-80.31485799597775,25.78630237031709],[-80.31483981333757,25.78589525096805],[-80.27531317799402,25.78753136019613],[-80.27532954237016,25.78793956538436],[-80.31485799597775,25.78630237031709]]]}},{"type":"Feature","properties":{"id":"12 - 30"},"geometry":{"type":"Polygon","coordinates":[[[-80.30217924099806,25.79946805297093],[-80.30240046311995,25.799106815665],[-80.27762843417366,25.78643662116332],[-80.27740781813976,25.78680117147501],[-80.30217924099806,25.79946805297093]]]}},{"type":"Feature","properties":{"id":"8L - 26R"},"geometry":{"type":"Polygon","coordinates":[[[-80.30155254600061,25.80310396519125],[-80.30153315118447,25.80269799485705],[-80.27542772862947,25.80377512277425],[-80.27544348691764,25.80418872856241],[-80.30155254600061,25.80310396519125]]]}},{"type":"Feature","properties":{"runwayId":"8L - 26R","crossRunwayId":null,"taxiwayId":null},"geometry":{"type":"LineString","coordinates":[[-80.28832465410233,25.80365405510649],[-80.28539573567816,25.80377523973066]]}},{"type":"Feature","properties":{"runwayId":"8L - 26R","crossRunwayId":null,"taxiwayId":null},"geometry":{"type":"LineString","coordinates":[[-80.28829649090768,25.8032477695813],[-80.28542257854664,25.80336272946183]]}},{"type":"Feature","properties":{"runwayId":"8R - 26L","crossRunwayId":null,"taxiwayId":null},"geometry":{"type":"LineString","coordinates":[[-80.28763633221389,25.80154805626726],[-80.29344281181693,25.80130597115883]]}},{"type":"Feature","properties":{"runwayId":"8R - 26L","crossRunwayId":null,"taxiwayId":null},"geometry":{"type":"LineString","coordinates":[[-80.29707318171859,25.80115549780916],[-80.29798395931721,25.80111746439466]]}},{"type":"Feature","properties":{"runwayId":"8R - 26L","crossRunwayId":null,"taxiwayId":null},"geometry":{"type":"LineString","coordinates":[[-80.30003702268004,25.80103354935755],[-80.3014470866878,25.80097683434769]]}},{"type":"Feature","properties":{"runwayId":"8R - 26L","crossRunwayId":null,"taxiwayId":null},"geometry":{"type":"LineString","coordinates":[[-80.28498882427813,25.8016562699619],[-80.28579449281098,25.80162382095646]]}},{"type":"Feature","properties":{"runwayId":"8R - 26L","crossRunwayId":null,"taxiwayId":null},"geometry":{"type":"LineString","coordinates":[[-80.2792069874704,25.80189654325145],[-80.2832827717066,25.80172750681715]]}},{"type":"Feature","properties":{"runwayId":"8R - 26L","crossRunwayId":null,"taxiwayId":null},"geometry":{"type":"LineString","coordinates":[[-80.27515836060047,25.80206361741881],[-80.27672527357937,25.8019973612957]]}},{"type":"Feature","properties":{"runwayId":"8R - 26L","crossRunwayId":null,"taxiwayId":null},"geometry":{"type":"LineString","coordinates":[[-80.26955109932898,25.80229734333502],[-80.27064487338069,25.8022488023318]]}},{"type":"Feature","properties":{"id":"8R - 26L"},"geometry":{"type":"Polygon","coordinates":[[[-80.3014470866878,25.80097683434769],[-80.30142041881558,25.80043116518077],[-80.26952564363279,25.80175058891931],[-80.26955109932898,25.80229734333502],[-80.3014470866878,25.80097683434769]]]}},{"type":"Feature","properties":{"runwayId":"8R - 26L","crossRunwayId":null,"taxiwayId":null},"geometry":{"type":"LineString","coordinates":[[-80.29817406088115,25.80056643129355],[-80.29703271917532,25.80061351419647]]}},{"type":"Feature","properties":{"runwayId":"8R - 26L","crossRunwayId":null,"taxiwayId":null},"geometry":{"type":"LineString","coordinates":[[-80.29551800340414,25.80067721164071],[-80.29472323134542,25.80070966090533]]}},{"type":"Feature","properties":{"runwayId":"8R - 26L","crossRunwayId":null,"taxiwayId":null},"geometry":{"type":"LineString","coordinates":[[-80.2939321473241,25.8007427138681],[-80.2921328879893,25.80081727165888]]}},{"type":"Feature","properties":{"runwayId":"8R - 26L","crossRunwayId":null,"taxiwayId":null},"geometry":{"type":"LineString","coordinates":[[-80.29116310179235,25.80085771999543],[-80.2892915904522,25.80093439068496]]}},{"type":"Feature","properties":{"runwayId":"8R - 26L","crossRunwayId":null,"taxiwayId":null},"geometry":{"type":"LineString","coordinates":[[-80.28869949281217,25.80095914262928],[-80.28794042766096,25.80099113903741]]}},{"type":"Feature","properties":{"runwayId":"8R - 26L","crossRunwayId":null,"taxiwayId":null},"geometry":{"type":"LineString","coordinates":[[-80.28739325702192,25.80101528726426],[-80.28677333146335,25.80103928455981]]}},{"type":"Feature","properties":{"runwayId":"8R - 26L","crossRunwayId":null,"taxiwayId":null},"geometry":{"type":"LineString","coordinates":[[-80.28349801898004,25.80117647655243],[-80.28147596865894,25.80125827852304]]}},{"type":"Feature","properties":{"runwayId":"8R - 26L","crossRunwayId":null,"taxiwayId":null},"geometry":{"type":"LineString","coordinates":[[-80.28078110888602,25.80128786003356],[-80.27916273102166,25.80135411655332]]}},{"type":"Feature","properties":{"runwayId":"8R - 26L","crossRunwayId":null,"taxiwayId":null},"geometry":{"type":"LineString","coordinates":[[-80.27664547786118,25.80145840635333],[-80.27491562068464,25.80152903962451]]}},{"type":"Feature","properties":{"runwayId":"8R - 26L","crossRunwayId":null,"taxiwayId":null},"geometry":{"type":"LineString","coordinates":[[-80.2857572771609,25.80108260042064],[-80.28495529666544,25.80111580420565]]}},{"type":"Feature","properties":{"runwayId":"12 - 30","crossRunwayId":"9 - 27","taxiwayId":null},"geometry":{"type":"LineString","coordinates":[[-80.27931125686939,25.78777465119529],[-80.27857179464307,25.78739647851497]]}},{"type":"Feature","properties":{"runwayId":"12 - 30","crossRunwayId":"9 - 27","taxiwayId":null},"geometry":{"type":"LineString","coordinates":[[-80.28017441873152,25.78773890082719],[-80.27943548256378,25.78736072844829]]}},{"type":"Feature","properties":{"runwayId":"9 - 27","crossRunwayId":"12 - 30","taxiwayId":null},"geometry":{"type":"LineString","coordinates":[[-80.27931125686939,25.78777465119529],[-80.28017441873152,25.78773890082719]]}},{"type":"Feature","properties":{"runwayId":"9 - 27","crossRunwayId":"12 - 30","taxiwayId":null},"geometry":{"type":"LineString","coordinates":[[-80.27857179464307,25.78739647851497],[-80.27943541803117,25.78736088824882]]}}]}