{
"type": "FeatureCollection",
"name": "MSPLogic",
"crs": { "type": "name", "properties": { "name": "urn:ogc:def:crs:OGC:1.3:CRS84" } },
"features": [
{ "type": "Feature", "properties": { "id": "4 - 22" }, "geometry": { "type": "Polygon", "coordinates": [ [ [ -93.238865566259392, 44.872192257591415 ], [ -93.238447595889241, 44.871897080699057 ], [ -93.208092752617787, 44.893473617076467 ], [ -93.208503732542681, 44.893767238909042 ], [ -93.238865566259392, 44.872192257591415 ] ] ] } },
{ "type": "Feature", "properties": { "id": "12L - 30R" }, "geometry": { "type": "Polygon", "coordinates": [ [ [ -93.220853519089133, 44.893133773210224 ], [ -93.22115993360444, 44.892781753098966 ], [ -93.194129629569616, 44.881079675615091 ], [ -93.193829040425356, 44.881433831184502 ], [ -93.220853519089133, 44.893133773210224 ] ] ] } },
{ "type": "Feature", "properties": { "id": "12R - 30L" }, "geometry": { "type": "Polygon", "coordinates": [ [ [ -93.23394429282834, 44.888031540665025 ], [ -93.234350321187875, 44.887559799632115 ], [ -93.201408721918185, 44.873295751641514 ], [ -93.201006480049799, 44.873766164763772 ], [ -93.23394429282834, 44.888031540665025 ] ] ] } },
{ "type": "Feature", "properties": { "id": "17 - 35" }, "geometry": { "type": "Polygon", "coordinates": [ [ [ -93.241982139751286, 44.887798766045734 ], [ -93.242556812601649, 44.887721793380145 ], [ -93.236945523973901, 44.866143925282138 ], [ -93.236370559854976, 44.866219068872503 ], [ -93.241982139751286, 44.887798766045734 ] ] ] } },
{ "type": "Feature", "properties": { "taxiwayId": "A9", "crossRunwayId": "12R - 30L" }, "geometry": { "type": "LineString", "coordinates": [ [ -93.228639709984478, 44.885084849886113 ], [ -93.228231351476566, 44.885554960264685 ] ] } },
{ "type": "Feature", "properties": { "taxiwayId": "K", "crossRunwayId": "4 - 22" }, "geometry": { "type": "LineString", "coordinates": [ [ -93.234426633548324, 44.874761677529207 ], [ -93.234836157130502, 44.875050234717477 ] ] } },
{ "type": "Feature", "properties": { "runwayId": "12L - 30R" }, "geometry": { "type": "LineString", "coordinates": [ [ -93.194863626317385, 44.881398952323856 ], [ -93.194129629569829, 44.881080294770264 ] ] } },
{ "type": "Feature", "properties": { "runwayId": "12L - 30R" }, "geometry": { "type": "LineString", "coordinates": [ [ -93.196262880434574, 44.882005717656106 ], [ -93.195340141666193, 44.881604510275608 ] ] } },
{ "type": "Feature", "properties": { "runwayId": "12L - 30R" }, "geometry": { "type": "LineString", "coordinates": [ [ -93.201040849738973, 44.884071148410953 ], [ -93.199901407168937, 44.883579975555257 ] ] } },
{ "type": "Feature", "properties": { "runwayId": "12L - 30R" }, "geometry": { "type": "LineString", "coordinates": [ [ -93.203743821888779, 44.885240865872362 ], [ -93.202506513085737, 44.884706777646187 ] ] } },
{ "type": "Feature", "properties": { "runwayId": "12L - 30R" }, "geometry": { "type": "LineString", "coordinates": [ [ -93.208731504549718, 44.887401107225301 ], [ -93.207935758869411, 44.887056893841766 ] ] } },
{ "type": "Feature", "properties": { "runwayId": "12L - 30R" }, "geometry": { "type": "LineString", "coordinates": [ [ -93.211390203879802, 44.888551772025338 ], [ -93.210420862143366, 44.8881332760851 ] ] } },
{ "type": "Feature", "properties": { "runwayId": "12L - 30R" }, "geometry": { "type": "LineString", "coordinates": [ [ -93.212953733459557, 44.88922986105441 ], [ -93.212222066860392, 44.888913723159121 ] ] } },
{ "type": "Feature", "properties": { "runwayId": "12L - 30R" }, "geometry": { "type": "LineString", "coordinates": [ [ -93.216177493777892, 44.890625634488828 ], [ -93.21533398005532, 44.890260805199077 ] ] } },
{ "type": "Feature", "properties": { "runwayId": "12L - 30R" }, "geometry": { "type": "LineString", "coordinates": [ [ -93.220033889388205, 44.892295400549401 ], [ -93.219037750945091, 44.891863725685305 ] ] } },
{ "type": "Feature", "properties": { "runwayId": "12L - 30R" }, "geometry": { "type": "LineString", "coordinates": [ [ -93.221159351067783, 44.892780721384078 ], [ -93.220448655804304, 44.892473682148243 ] ] } },
{ "type": "Feature", "properties": { "runwayId": "12L - 30R" }, "geometry": { "type": "LineString", "coordinates": [ [ -93.220852936552518, 44.893133154185186 ], [ -93.220130590546972, 44.892821164602111 ] ] } },
{ "type": "Feature", "properties": { "runwayId": "12L - 30R" }, "geometry": { "type": "LineString", "coordinates": [ [ -93.219847477515771, 44.892696533369637 ], [ -93.21898765275435, 44.89232593956622 ] ] } },
{ "type": "Feature", "properties": { "runwayId": "12L - 30R" }, "geometry": { "type": "LineString", "coordinates": [ [ -93.212594890605331, 44.889557553070098 ], [ -93.211624383794671, 44.889137413599002 ] ] } },
{ "type": "Feature", "properties": { "runwayId": "12L - 30R" }, "geometry": { "type": "LineString", "coordinates": [ [ -93.208893449864036, 44.887955393752442 ], [ -93.208215376678183, 44.887662361332083 ] ] } },
{ "type": "Feature", "properties": { "runwayId": "12R - 30L" }, "geometry": { "type": "LineString", "coordinates": [ [ -93.233213791303925, 44.887714777100001 ], [ -93.233943127754699, 44.888030096144753 ] ] } },
{ "type": "Feature", "properties": { "runwayId": "12R - 30L" }, "geometry": { "type": "LineString", "coordinates": [ [ -93.232881745156206, 44.887571149527581 ], [ -93.23194852072001, 44.887166679149459 ] ] } },
{ "type": "Feature", "properties": { "runwayId": "12R - 30L" }, "geometry": { "type": "LineString", "coordinates": [ [ -93.228097950480816, 44.885499240622529 ], [ -93.22714958008001, 44.885088151816241 ] ] } },
{ "type": "Feature", "properties": { "runwayId": "12R - 30L" }, "geometry": { "type": "LineString", "coordinates": [ [ -93.224928948650089, 44.884126456688335 ], [ -93.224015530475342, 44.883731042611231 ] ] } },
{ "type": "Feature", "properties": { "runwayId": "12R - 30L" }, "geometry": { "type": "LineString", "coordinates": [ [ -93.221657420289489, 44.882710713147851 ], [ -93.220848858792948, 44.882361518568388 ] ] } },
{ "type": "Feature", "properties": { "runwayId": "12R - 30L" }, "geometry": { "type": "LineString", "coordinates": [ [ -93.220665942143157, 44.882280617394159 ], [ -93.219652327586985, 44.881842263135148 ] ] } },
{ "type": "Feature", "properties": { "runwayId": "12R - 30L" }, "geometry": { "type": "LineString", "coordinates": [ [ -93.217171884609883, 44.880767414263417 ], [ -93.216250310915697, 44.880367849348055 ] ] } },
{ "type": "Feature", "properties": { "runwayId": "12R - 30L" }, "geometry": { "type": "LineString", "coordinates": [ [ -93.214244053139069, 44.87949853840724 ], [ -93.213243254399131, 44.87906759307149 ] ] } },
{ "type": "Feature", "properties": { "runwayId": "12R - 30L" }, "geometry": { "type": "LineString", "coordinates": [ [ -93.212343817114842, 44.87867544652245 ], [ -93.211236996622461, 44.878195785741276 ] ] } },
{ "type": "Feature", "properties": { "runwayId": "12R - 30L" }, "geometry": { "type": "LineString", "coordinates": [ [ -93.20812624850187, 44.876849246758852 ], [ -93.207025253380522, 44.876372047576979 ] ] } },
{ "type": "Feature", "properties": { "runwayId": "12R - 30L" }, "geometry": { "type": "LineString", "coordinates": [ [ -93.203012737827166, 44.874634943085127 ], [ -93.202066697574736, 44.874225427924408 ] ] } },
{ "type": "Feature", "properties": { "runwayId": "12R - 30L" }, "geometry": { "type": "LineString", "coordinates": [ [ -93.20169154368152, 44.874062776941116 ], [ -93.201006771319015, 44.873766577586373 ] ] } },
{ "type": "Feature", "properties": { "runwayId": "12R - 30L" }, "geometry": { "type": "LineString", "coordinates": [ [ -93.201408721918909, 44.87329616446754 ], [ -93.202119999719557, 44.873604131718047 ] ] } },
{ "type": "Feature", "properties": { "runwayId": "12R - 30L" }, "geometry": { "type": "LineString", "coordinates": [ [ -93.202473017202905, 44.873757701902782 ], [ -93.203430708197331, 44.874172174226715 ] ] } },
{ "type": "Feature", "properties": { "runwayId": "12R - 30L" }, "geometry": { "type": "LineString", "coordinates": [ [ -93.207432738082872, 44.875903513388181 ], [ -93.208372952964311, 44.87631095258628 ] ] } },
{ "type": "Feature", "properties": { "runwayId": "12R - 30L" }, "geometry": { "type": "LineString", "coordinates": [ [ -93.213494036621341, 44.878529732439496 ], [ -93.21459386666848, 44.879006088157908 ] ] } },
{ "type": "Feature", "properties": { "runwayId": "12R - 30L" }, "geometry": { "type": "LineString", "coordinates": [ [ -93.216487112247535, 44.879825873081003 ], [ -93.217603253333522, 44.880309648028678 ] ] } },
{ "type": "Feature", "properties": { "runwayId": "12R - 30L" }, "geometry": { "type": "LineString", "coordinates": [ [ -93.220236321031095, 44.881449722729691 ], [ -93.221227799177427, 44.881878173637922 ] ] } },
{ "type": "Feature", "properties": { "runwayId": "12R - 30L" }, "geometry": { "type": "LineString", "coordinates": [ [ -93.221534213692692, 44.882010258052887 ], [ -93.222303745203419, 44.88234376985114 ] ] } },
{ "type": "Feature", "properties": { "runwayId": "12R - 30L" }, "geometry": { "type": "LineString", "coordinates": [ [ -93.224484764110429, 44.88328857186228 ], [ -93.225391774377087, 44.88368109972135 ] ] } },
{ "type": "Feature", "properties": { "runwayId": "12R - 30L" }, "geometry": { "type": "LineString", "coordinates": [ [ -93.227542501354918, 44.884612259197993 ], [ -93.228534562038305, 44.885041924778818 ] ] } },
{ "type": "Feature", "properties": { "runwayId": "12R - 30L" }, "geometry": { "type": "LineString", "coordinates": [ [ -93.232294256489723, 44.886670167235621 ], [ -93.233253695095513, 44.887084959278766 ] ] } },
{ "type": "Feature", "properties": { "runwayId": "12R - 30L" }, "geometry": { "type": "LineString", "coordinates": [ [ -93.233655063158253, 44.887259129772389 ], [ -93.234349447382911, 44.887560005994068 ] ] } },
{ "type": "Feature", "properties": { "runwayId": "4 - 22" }, "geometry": { "type": "LineString", "coordinates": [ [ -93.237347183305999, 44.87267981219216 ], [ -93.2365211456964, 44.873267266651688 ] ] } },
{ "type": "Feature", "properties": { "runwayId": "4 - 22" }, "geometry": { "type": "LineString", "coordinates": [ [ -93.237365824493224, 44.873258184478026 ], [ -93.236429687371512, 44.873922830676449 ] ] } },
{ "type": "Feature", "properties": { "runwayId": "4 - 22" }, "geometry": { "type": "LineString", "coordinates": [ [ -93.234087888224579, 44.875586889445955 ], [ -93.234829166685927, 44.875060348641455 ] ] } },
{ "type": "Feature", "properties": { "runwayId": "4 - 22" }, "geometry": { "type": "LineString", "coordinates": [ [ -93.234199444079465, 44.874917515103263 ], [ -93.233391465120022, 44.875490911179348 ] ] } },
{ "type": "Feature", "properties": { "runwayId": "4 - 22" }, "geometry": { "type": "LineString", "coordinates": [ [ -93.23119996054514, 44.877635832447346 ], [ -93.230418778292361, 44.878192689811115 ] ] } },
{ "type": "Feature", "properties": { "runwayId": "4 - 22" }, "geometry": { "type": "LineString", "coordinates": [ [ -93.229940515332274, 44.877945427643915 ], [ -93.230823059040645, 44.877317979645881 ] ] } },
{ "type": "Feature", "properties": { "runwayId": "4 - 22" }, "geometry": { "type": "LineString", "coordinates": [ [ -93.228968260910293, 44.879224657334547 ], [ -93.228209797604492, 44.879763337029424 ] ] } },
{ "type": "Feature", "properties": { "runwayId": "4 - 22" }, "geometry": { "type": "LineString", "coordinates": [ [ -93.227691339584368, 44.879542086822539 ], [ -93.228469609151603, 44.878988957583111 ] ] } },
{ "type": "Feature", "properties": { "runwayId": "4 - 22" }, "geometry": { "type": "LineString", "coordinates": [ [ -93.22500001817663, 44.882044311017005 ], [ -93.224254370687092, 44.88257512188742 ] ] } },
{ "type": "Feature", "properties": { "runwayId": "4 - 22" }, "geometry": { "type": "LineString", "coordinates": [ [ -93.22363105598879, 44.882429417680491 ], [ -93.224427966743264, 44.88186228221138 ] ] } },
{ "type": "Feature", "properties": { "runwayId": "4 - 22" }, "geometry": { "type": "LineString", "coordinates": [ [ -93.222671034845902, 44.883701530908894 ], [ -93.222024709932043, 44.884160508399901 ] ] } },
{ "type": "Feature", "properties": { "runwayId": "4 - 22" }, "geometry": { "type": "LineString", "coordinates": [ [ -93.221288965573194, 44.884093230453558 ], [ -93.222063157380731, 44.88354344698638 ] ] } },
{ "type": "Feature", "properties": { "runwayId": "4 - 22" }, "geometry": { "type": "LineString", "coordinates": [ [ -93.220697690415392, 44.88451340676837 ], [ -93.220089521681686, 44.884945136798876 ] ] } },
{ "type": "Feature", "properties": { "runwayId": "4 - 22" }, "geometry": { "type": "LineString", "coordinates": [ [ -93.219847186247605, 44.885118488289493 ], [ -93.219244260347779, 44.885546499137504 ] ] } },
{ "type": "Feature", "properties": { "runwayId": "4 - 22" }, "geometry": { "type": "LineString", "coordinates": [ [ -93.221160807410882, 44.88477343575989 ], [ -93.220405256790599, 44.885312063503356 ] ] } },
{ "type": "Feature", "properties": { "runwayId": "4 - 22" }, "geometry": { "type": "LineString", "coordinates": [ [ -93.219942139795137, 44.88563936510166 ], [ -93.219191832008775, 44.886173031935961 ] ] } },
{ "type": "Feature", "properties": { "runwayId": "4 - 22" }, "geometry": { "type": "LineString", "coordinates": [ [ -93.218237636236907, 44.886851974464605 ], [ -93.217436647722721, 44.887419886193726 ] ] } },
{ "type": "Feature", "properties": { "runwayId": "4 - 22" }, "geometry": { "type": "LineString", "coordinates": [ [ -93.217091785758768, 44.887076498376516 ], [ -93.21783044280312, 44.886551507270184 ] ] } },
{ "type": "Feature", "properties": { "runwayId": "4 - 22" }, "geometry": { "type": "LineString", "coordinates": [ [ -93.215862049938025, 44.88795064746472 ], [ -93.215182811677991, 44.888433115941446 ] ] } },
{ "type": "Feature", "properties": { "runwayId": "4 - 22" }, "geometry": { "type": "LineString", "coordinates": [ [ -93.215788650263292, 44.888590773710987 ], [ -93.21661177518736, 44.888005952012158 ] ] } },
{ "type": "Feature", "properties": { "runwayId": "4 - 22" }, "geometry": { "type": "LineString", "coordinates": [ [ -93.214800667339588, 44.889293624949524 ], [ -93.215386699663441, 44.888877197977159 ] ] } },
{ "type": "Feature", "properties": { "runwayId": "4 - 22" }, "geometry": { "type": "LineString", "coordinates": [ [ -93.21490843670334, 44.888627918148771 ], [ -93.214227159563421, 44.889112650862685 ] ] } },
{ "type": "Feature", "properties": { "runwayId": "4 - 22" }, "geometry": { "type": "LineString", "coordinates": [ [ -93.210992331040273, 44.891999088706697 ], [ -93.210130467398983, 44.89261110717036 ] ] } },
{ "type": "Feature", "properties": { "runwayId": "4 - 22" }, "geometry": { "type": "LineString", "coordinates": [ [ -93.210267946154872, 44.891926867622217 ], [ -93.209452394213145, 44.892505459134661 ] ] } },
{ "type": "Feature", "properties": { "runwayId": "4 - 22" }, "geometry": { "type": "LineString", "coordinates": [ [ -93.208093335155937, 44.893472791714736 ], [ -93.208706164186424, 44.893036998846156 ] ] } },
{ "type": "Feature", "properties": { "runwayId": "17 - 35" }, "geometry": { "type": "LineString", "coordinates": [ [ -93.242556812602643, 44.887720967935778 ], [ -93.242411178327316, 44.887156360990545 ] ] } },
{ "type": "Feature", "properties": { "runwayId": "17 - 35" }, "geometry": { "type": "LineString", "coordinates": [ [ -93.241980683409494, 44.887798146963398 ], [ -93.241825728540562, 44.88720093542458 ] ] } },
{ "type": "Feature", "properties": { "runwayId": "17 - 35" }, "geometry": { "type": "LineString", "coordinates": [ [ -93.242329623133159, 44.886850117186 ], [ -93.242119909776747, 44.886037448835872 ] ] } },
{ "type": "Feature", "properties": { "runwayId": "17 - 35" }, "geometry": { "type": "LineString", "coordinates": [ [ -93.241374844824293, 44.885463332380233 ], [ -93.241032313008802, 44.884145030351817 ] ] } },
{ "type": "Feature", "properties": { "runwayId": "17 - 35" }, "geometry": { "type": "LineString", "coordinates": [ [ -93.240928621404763, 44.881460867447089 ], [ -93.24071949058542, 44.880653901785777 ] ] } },
{ "type": "Feature", "properties": { "runwayId": "17 - 35" }, "geometry": { "type": "LineString", "coordinates": [ [ -93.240048990381894, 44.880364959922467 ], [ -93.240388026974841, 44.881668489006536 ] ] } },
{ "type": "Feature", "properties": { "runwayId": "17 - 35" }, "geometry": { "type": "LineString", "coordinates": [ [ -93.240260451349727, 44.878890921062549 ], [ -93.24006471888373, 44.878137582224952 ] ] } },
{ "type": "Feature", "properties": { "runwayId": "17 - 35" }, "geometry": { "type": "LineString", "coordinates": [ [ -93.239708206177809, 44.879056035106416 ], [ -93.239395383754413, 44.877854406829165 ] ] } },
{ "type": "Feature", "properties": { "runwayId": "17 - 35" }, "geometry": { "type": "LineString", "coordinates": [ [ -93.239596650322923, 44.876336546441863 ], [ -93.239384024280966, 44.875527857670996 ] ] } },
{ "type": "Feature", "properties": { "runwayId": "17 - 35" }, "geometry": { "type": "LineString", "coordinates": [ [ -93.239020521129774, 44.876410025511724 ], [ -93.238810225236236, 44.875599686536262 ] ] } },
{ "type": "Feature", "properties": { "runwayId": "17 - 35" }, "geometry": { "type": "LineString", "coordinates": [ [ -93.238082053859756, 44.870512412524214 ], [ -93.237912535563282, 44.869856396800557 ] ] } },
{ "type": "Feature", "properties": { "runwayId": "17 - 35" }, "geometry": { "type": "LineString", "coordinates": [ [ -93.237501264369769, 44.870568146680981 ], [ -93.237335823833035, 44.869933599794372 ] ] } },
{ "type": "Feature", "properties": { "runwayId": "17 - 35" }, "geometry": { "type": "LineString", "coordinates": [ [ -93.236762607325389, 44.867729764531028 ], [ -93.236598331862865, 44.867098076444321 ] ] } },
{ "type": "Feature", "properties": { "runwayId": "17 - 35" }, "geometry": { "type": "LineString", "coordinates": [ [ -93.236508038612115, 44.866747548495795 ], [ -93.236369977319157, 44.866220720379246 ] ] } },
{ "type": "Feature", "properties": { "runwayId": "12R - 30L", "crossRunwayId": "4 - 22" }, "geometry": { "type": "LineString", "coordinates": [ [ -93.223717271479018, 44.882956303810587 ], [ -93.223201143607341, 44.882732589333372 ] ] } },
{ "type": "Feature", "properties": { "runwayId": "12R - 30L", "crossRunwayId": "4 - 22" }, "geometry": { "type": "LineString", "coordinates": [ [ -93.222638412767537, 44.883134614357608 ], [ -93.223153375565033, 44.883358327271509 ] ] } },
{ "type": "Feature", "properties": { "runwayId": "4 - 22", "crossRunwayId": "12R - 30L" }, "geometry": { "type": "LineString", "coordinates": [ [ -93.223154540639243, 44.883359152778809 ], [ -93.223718436553256, 44.882957129323664 ] ] } },
{ "type": "Feature", "properties": { "runwayId": "4 - 22", "crossRunwayId": "12R - 30L" }, "geometry": { "type": "LineString", "coordinates": [ [ -93.22320230868155, 44.882734240365913 ], [ -93.222637247693314, 44.883135439868113 ] ] } },
{ "type": "Feature", "properties": { "runwayId": "4 - 22", "crossRunwayId": "12L - 30R" }, "geometry": { "type": "LineString", "coordinates": [ [ -93.213732585563761, 44.890051976532447 ], [ -93.214155507499257, 44.889751526053566 ] ] } },
{ "type": "Feature", "properties": { "runwayId": "4 - 22", "crossRunwayId": "12L - 30R" }, "geometry": { "type": "LineString", "coordinates": [ [ -93.213644039924347, 44.889527838001996 ], [ -93.213218787840432, 44.889829940478243 ] ] } },
{ "type": "Feature", "properties": { "runwayId": "12L - 30R", "crossRunwayId": "4 - 22" }, "geometry": { "type": "LineString", "coordinates": [ [ -93.214157837647676, 44.889749875222421 ], [ -93.213644039924347, 44.889529488839507 ] ] } },
{ "type": "Feature", "properties": { "runwayId": "12L - 30R", "crossRunwayId": "4 - 22" }, "geometry": { "type": "LineString", "coordinates": [ [ -93.213219952914656, 44.889829940478243 ], [ -93.213732585563761, 44.890051976532447 ] ] } },
{ "type": "Feature", "properties": { "runwayId": "17 - 35", "crossRunwayId": "4 - 22" }, "geometry": { "type": "LineString", "coordinates": [ [ -93.238573132634983, 44.872400325428437 ], [ -93.238442644324323, 44.871901621893649 ] ] } },
{ "type": "Feature", "properties": { "runwayId": "17 - 35", "crossRunwayId": "4 - 22" }, "geometry": { "type": "LineString", "coordinates": [ [ -93.237941662417228, 44.87225748528806 ], [ -93.238072150727916, 44.872757011398619 ] ] } },
{ "type": "Feature", "properties": { "runwayId": "4 - 22", "crossRunwayId": "17 - 35" }, "geometry": { "type": "LineString", "coordinates": [ [ -93.238443809398504, 44.871902447565319 ], [ -93.237941662417271, 44.87225748528806 ] ] } },
{ "type": "Feature", "properties": { "runwayId": "4 - 22", "crossRunwayId": "17 - 35" }, "geometry": { "type": "LineString", "coordinates": [ [ -93.238070985653735, 44.872757011398619 ], [ -93.238571967560802, 44.872399499763908 ] ] } }
]
}
