{
"type": "FeatureCollection",
"name": "MSY_ASDEX_Safety",
"crs": { "type": "name", "properties": { "name": "urn:ogc:def:crs:OGC:1.3:CRS84" } },
"features": [
{ "type": "Feature", "properties": { "id": "11 - 29" }, "geometry": { "type": "Polygon", "coordinates": [ [ [ -90.281674395642582, 29.996825850043226 ], [ -90.281800360486599, 29.996425576958728 ], [ -90.251043018191211, 29.98901007238884 ], [ -90.250913348498756, 29.989414386419472 ], [ -90.281674395642582, 29.996825850043226 ] ] ] } },
{ "type": "Feature", "properties": { "id": "2 - 20" }, "geometry": { "type": "Polygon", "coordinates": [ [ [ -90.251656170593691, 29.984555021737538 ], [ -90.251194299498934, 29.984441369871611 ], [ -90.245288153748334, 30.002998861933666 ], [ -90.245749870474455, 30.003109551528091 ], [ -90.251656170593691, 29.984555021737538 ] ] ] } },
{ "type": "Feature", "properties": { "id": "S" }, "geometry": { "type": "Polygon", "coordinates": [ [ [ -90.252896519376293, 29.98454972485905 ], [ -90.252641081199442, 29.984483590211763 ], [ -90.246927040243463, 30.002703222089838 ], [ -90.247165819408764, 30.00275612010109 ], [ -90.252896519376293, 29.98454972485905 ], [ -90.252896519376293, 29.98454972485905 ] ] ] } },
{ "type": "Feature", "properties": { "id": "E" }, "geometry": { "type": "Polygon", "coordinates": [ [ [ -90.282044236556132, 29.995642887897237 ], [ -90.282135861119571, 29.995372367017836 ], [ -90.251148711416249, 29.98790209254545 ], [ -90.251087628373966, 29.988099287119898 ], [ -90.282044236556132, 29.995642887897237 ], [ -90.282044236556132, 29.995642887897237 ] ] ] } },
{ "type": "Feature", "properties": { "id": "G" }, "geometry": { "type": "Polygon", "coordinates": [ [ [ -90.280569914035325, 29.998738796568929 ], [ -90.280674032857405, 29.998474295523298 ], [ -90.25910616592536, 29.993321193606185 ], [ -90.259017317863851, 29.993578494354402 ], [ -90.280569914035325, 29.998738796568929 ], [ -90.280569914035325, 29.998738796568929 ] ] ] } },
{ "type": "Feature", "properties": { "runwayId": "2 - 20" }, "geometry": { "type": "LineString", "coordinates": [ [ -90.251658949229807, 29.984556024547537 ], [ -90.2514662971154, 29.9851651963256 ] ] } },
{ "type": "Feature", "properties": { "runwayId": "2 - 20" }, "geometry": { "type": "LineString", "coordinates": [ [ -90.251360708937341, 29.985501068192313 ], [ -90.251080375411902, 29.986381924203918 ] ] } },
{ "type": "Feature", "properties": { "runwayId": "2 - 20" }, "geometry": { "type": "LineString", "coordinates": [ [ -90.250737059464456, 29.987456910934881 ], [ -90.250468457958831, 29.988306997922209 ] ] } },
{ "type": "Feature", "properties": { "runwayId": "2 - 20" }, "geometry": { "type": "LineString", "coordinates": [ [ -90.247545486976421, 29.997483409386749 ], [ -90.247340485367531, 29.998130469731464 ] ] } },
{ "type": "Feature", "properties": { "runwayId": "2 - 20" }, "geometry": { "type": "LineString", "coordinates": [ [ -90.246784140639676, 29.999896227819271 ], [ -90.24653591580001, 30.000666263906911 ] ] } },
{ "type": "Feature", "properties": { "runwayId": "2 - 20" }, "geometry": { "type": "LineString", "coordinates": [ [ -90.245935730366682, 30.002550688128867 ], [ -90.245756662696266, 30.003111088882694 ] ] } },
{ "type": "Feature", "properties": { "runwayId": "11 - 29" }, "geometry": { "type": "LineString", "coordinates": [ [ -90.28103506896187, 29.996671812815052 ], [ -90.280395407849852, 29.996518603782611 ] ] } },
{ "type": "Feature", "properties": { "runwayId": "11 - 29" }, "geometry": { "type": "LineString", "coordinates": [ [ -90.281674395642582, 29.996825850043226 ], [ -90.281203639415779, 29.996711997465937 ] ] } },
{ "type": "Feature", "properties": { "runwayId": "11 - 29" }, "geometry": { "type": "LineString", "coordinates": [ [ -90.281129628565793, 29.99625959818384 ], [ -90.281797890587569, 29.99642083089207 ] ] } },
{ "type": "Feature", "properties": { "runwayId": "11 - 29" }, "geometry": { "type": "LineString", "coordinates": [ [ -90.277693030628811, 29.995867397618845 ], [ -90.276583465164222, 29.99559925831262 ] ] } },
{ "type": "Feature", "properties": { "runwayId": "11 - 29" }, "geometry": { "type": "LineString", "coordinates": [ [ -90.277367046325182, 29.995352358509567 ], [ -90.278277049702027, 29.995570011224032 ] ] } },
{ "type": "Feature", "properties": { "runwayId": "11 - 29" }, "geometry": { "type": "LineString", "coordinates": [ [ -90.271336710806821, 29.994334795464695 ], [ -90.270450449031131, 29.994121589956215 ] ] } },
{ "type": "Feature", "properties": { "runwayId": "11 - 29" }, "geometry": { "type": "LineString", "coordinates": [ [ -90.270594583534532, 29.99371647185097 ], [ -90.271498566532827, 29.993937871622848 ] ] } },
{ "type": "Feature", "properties": { "runwayId": "11 - 29" }, "geometry": { "type": "LineString", "coordinates": [ [ -90.264513074961854, 29.992255434888101 ], [ -90.265398533718411, 29.992465072552612 ] ] } },
{ "type": "Feature", "properties": { "runwayId": "11 - 29" }, "geometry": { "type": "LineString", "coordinates": [ [ -90.264287079212281, 29.992642622473234 ], [ -90.26536519008323, 29.992903598888557 ] ] } },
{ "type": "Feature", "properties": { "runwayId": "11 - 29" }, "geometry": { "type": "LineString", "coordinates": [ [ -90.258849288041048, 29.990882618117826 ], [ -90.25949640155352, 29.991036639799507 ] ] } },
{ "type": "Feature", "properties": { "runwayId": "11 - 29" }, "geometry": { "type": "LineString", "coordinates": [ [ -90.257408410768818, 29.990536068460369 ], [ -90.258817488092689, 29.990879409330244 ] ] } },
{ "type": "Feature", "properties": { "runwayId": "11 - 29" }, "geometry": { "type": "LineString", "coordinates": [ [ -90.256274109697884, 29.990267063802797 ], [ -90.257380006931456, 29.990530720462345 ] ] } },
{ "type": "Feature", "properties": { "runwayId": "11 - 29" }, "geometry": { "type": "LineString", "coordinates": [ [ -90.256059845968082, 29.990659072335294 ], [ -90.257025576438949, 29.990897592458474 ] ] } },
{ "type": "Feature", "properties": { "runwayId": "11 - 29" }, "geometry": { "type": "LineString", "coordinates": [ [ -90.251881394499776, 29.989208953917522 ], [ -90.251281826541174, 29.989063218920371 ] ] } },
{ "type": "Feature", "properties": { "runwayId": "11 - 29" }, "geometry": { "type": "LineString", "coordinates": [ [ -90.25114783452571, 29.989475020011906 ], [ -90.251617115317188, 29.989588398713856 ] ] } }
]
}
