{
"type": "FeatureCollection",
"name": "PHL_SLS",
"crs": { "type": "name", "properties": { "name": "urn:ogc:def:crs:OGC:1.3:CRS84" } },
"features": [
{ "type": "Feature", "properties": { "id": "9L - 27R" }, "geometry": { "type": "Polygon", "coordinates": [ [ [ -75.255749829208199, 39.868904327349689 ], [ -75.255618992615581, 39.868507465571561 ], [ -75.222855627925568, 39.875041636553334 ], [ -75.222994529787613, 39.875444478205324 ], [ -75.255749829208199, 39.868904327349689 ] ] ] } },
{ "type": "Feature", "properties": { "id": "9R - 27L" }, "geometry": { "type": "Polygon", "coordinates": [ [ [ -75.275313932440696, 39.861101307884191 ], [ -75.275129775455866, 39.860563384960656 ], [ -75.233747326191278, 39.868821963244038 ], [ -75.23392879475297, 39.869364635990422 ], [ -75.275313932440696, 39.861101307884191 ] ] ] } },
{ "type": "Feature", "properties": { "id": "8 - 26" }, "geometry": { "type": "Polygon", "coordinates": [ [ [ -75.230108545476483, 39.87856414276424 ], [ -75.229974796425452, 39.878161147509758 ], [ -75.212713999714936, 39.881594268005614 ], [ -75.212849765083334, 39.881998274587893 ], [ -75.230108545476483, 39.87856414276424 ] ] ] } },
{ "type": "Feature", "properties": { "id": "17 - 35" }, "geometry": { "type": "Polygon", "coordinates": [ [ [ -75.235863787305277, 39.887760352771942 ], [ -75.236369658925426, 39.887614407189957 ], [ -75.22809155601864, 39.870937606120904 ], [ -75.227586132469028, 39.871087713868754 ], [ -75.235863787305277, 39.887760352771942 ] ] ] } },
{ "type": "Feature", "properties": { "runwayId": "9R - 27L", "crossRunwayId": null }, "geometry": { "type": "LineString", "coordinates": [ [ -75.233890792999901, 39.869344698000099 ], [ -75.234298641999899, 39.869263294000099 ] ] } },
{ "type": "Feature", "properties": { "runwayId": "9R - 27L", "crossRunwayId": null }, "geometry": { "type": "LineString", "coordinates": [ [ -75.23469278760011, 39.869232675953334 ], [ -75.235153171318785, 39.869138747707098 ] ] } },
{ "type": "Feature", "properties": { "runwayId": "9R - 27L", "crossRunwayId": null }, "geometry": { "type": "LineString", "coordinates": [ [ -75.238969235, 39.868331113000103 ], [ -75.239812564, 39.868162795 ] ] } },
{ "type": "Feature", "properties": { "runwayId": "9R - 27L", "crossRunwayId": null }, "geometry": { "type": "LineString", "coordinates": [ [ -75.2403004, 39.868065429000097 ], [ -75.241144327, 39.867896991000102 ] ] } },
{ "type": "Feature", "properties": { "runwayId": "9R - 27L", "crossRunwayId": null }, "geometry": { "type": "LineString", "coordinates": [ [ -75.245025510999895, 39.867122346 ], [ -75.247020845999899, 39.866724094000098 ] ] } },
{ "type": "Feature", "properties": { "runwayId": "9R - 27L", "crossRunwayId": null }, "geometry": { "type": "LineString", "coordinates": [ [ -75.248778429, 39.866373294 ], [ -75.249450166, 39.866239220000097 ] ] } },
{ "type": "Feature", "properties": { "runwayId": "9R - 27L", "crossRunwayId": null }, "geometry": { "type": "LineString", "coordinates": [ [ -75.252220644, 39.865686249000099 ], [ -75.255403045293349, 39.865050947222578 ] ] } },
{ "type": "Feature", "properties": { "runwayId": "9R - 27L", "crossRunwayId": null }, "geometry": { "type": "LineString", "coordinates": [ [ -75.255403045293349, 39.865050947222578 ], [ -75.256684148, 39.864795350000101 ] ] } },
{ "type": "Feature", "properties": { "runwayId": "9R - 27L", "crossRunwayId": null }, "geometry": { "type": "LineString", "coordinates": [ [ -75.257004343999895, 39.864731439 ], [ -75.259079151, 39.864317311 ] ] } },
{ "type": "Feature", "properties": { "runwayId": "9R - 27L", "crossRunwayId": null }, "geometry": { "type": "LineString", "coordinates": [ [ -75.259683229, 39.864196738 ], [ -75.261004617, 39.863932989 ] ] } },
{ "type": "Feature", "properties": { "runwayId": "9R - 27L", "crossRunwayId": null }, "geometry": { "type": "LineString", "coordinates": [ [ -75.261641826, 39.863805802000101 ], [ -75.264605662999898, 39.863214216000102 ] ] } },
{ "type": "Feature", "properties": { "runwayId": "9R - 27L", "crossRunwayId": null }, "geometry": { "type": "LineString", "coordinates": [ [ -75.265200976, 39.863095390000097 ], [ -75.266008654, 39.862934175000099 ] ] } },
{ "type": "Feature", "properties": { "runwayId": "9R - 27L", "crossRunwayId": null }, "geometry": { "type": "LineString", "coordinates": [ [ -75.274562527999905, 39.861226769 ], [ -75.275241127999905, 39.861091320000099 ] ] } },
{ "type": "Feature", "properties": { "runwayId": "9R - 27L", "crossRunwayId": null }, "geometry": { "type": "LineString", "coordinates": [ [ -75.274063917, 39.861326293 ], [ -75.273075209999902, 39.861523655 ] ] } },
{ "type": "Feature", "properties": { "runwayId": "9R - 27L", "crossRunwayId": null }, "geometry": { "type": "LineString", "coordinates": [ [ -75.256527946999896, 39.864266711 ], [ -75.255600485999906, 39.8644518300001 ] ] } },
{ "type": "Feature", "properties": { "runwayId": "9R - 27L", "crossRunwayId": null }, "geometry": { "type": "LineString", "coordinates": [ [ -75.249328975, 39.8657036130001 ], [ -75.24850259, 39.865868556000102 ] ] } },
{ "type": "Feature", "properties": { "runwayId": "9R - 27L", "crossRunwayId": null }, "geometry": { "type": "LineString", "coordinates": [ [ -75.239455566600697, 39.867671541496598 ], [ -75.238932911999896, 39.867778643000101 ] ] } },
{ "type": "Feature", "properties": { "runwayId": "9R - 27L", "crossRunwayId": null }, "geometry": { "type": "LineString", "coordinates": [ [ -75.233768497, 39.868809449 ], [ -75.233995866, 39.868764068000097 ] ] } },
{ "type": "Feature", "properties": { "runwayId": "9L - 27R", "crossRunwayId": null }, "geometry": { "type": "LineString", "coordinates": [ [ -75.255732699, 39.868896592000098 ], [ -75.255102146999903, 39.869022408 ] ] } },
{ "type": "Feature", "properties": { "runwayId": "9L - 27R", "crossRunwayId": null }, "geometry": { "type": "LineString", "coordinates": [ [ -75.254961011, 39.8686207820001 ], [ -75.255489747, 39.868515280000103 ] ] } },
{ "type": "Feature", "properties": { "runwayId": "9L - 27R", "crossRunwayId": null }, "geometry": { "type": "LineString", "coordinates": [ [ -75.254965662, 39.869049642 ], [ -75.253937273, 39.8692548510001 ] ] } },
{ "type": "Feature", "properties": { "runwayId": "9L - 27R", "crossRunwayId": null }, "geometry": { "type": "LineString", "coordinates": [ [ -75.250948643999905, 39.869851198 ], [ -75.249135928, 39.870212902 ] ] } },
{ "type": "Feature", "properties": { "runwayId": "9L - 27R", "crossRunwayId": null }, "geometry": { "type": "LineString", "coordinates": [ [ -75.248806616, 39.870278612 ], [ -75.247425667999906, 39.87055416 ] ] } },
{ "type": "Feature", "properties": { "runwayId": "9L - 27R", "crossRunwayId": null }, "geometry": { "type": "LineString", "coordinates": [ [ -75.243152212, 39.8714068620001 ], [ -75.240632799, 39.871909566000099 ] ] } },
{ "type": "Feature", "properties": { "runwayId": "9L - 27R", "crossRunwayId": null }, "geometry": { "type": "LineString", "coordinates": [ [ -75.238176892, 39.872399596 ], [ -75.237871691, 39.872460492000101 ] ] } },
{ "type": "Feature", "properties": { "runwayId": "9L - 27R", "crossRunwayId": null }, "geometry": { "type": "LineString", "coordinates": [ [ -75.237256679, 39.872583206000101 ], [ -75.236944353, 39.872645524000099 ] ] } },
{ "type": "Feature", "properties": { "runwayId": "9L - 27R", "crossRunwayId": null }, "geometry": { "type": "LineString", "coordinates": [ [ -75.232618316, 39.873508691 ], [ -75.231796994, 39.873672566 ] ] } },
{ "type": "Feature", "properties": { "runwayId": "9L - 27R", "crossRunwayId": null }, "geometry": { "type": "LineString", "coordinates": [ [ -75.231415493, 39.873748686000098 ], [ -75.230355655, 39.873960151000098 ] ] } },
{ "type": "Feature", "properties": { "runwayId": "9L - 27R", "crossRunwayId": "17 - 35" }, "geometry": { "type": "LineString", "coordinates": [ [ -75.229640172, 39.8741028580001 ], [ -75.229120877, 39.8742064730001 ] ] } },
{ "type": "Feature", "properties": { "runwayId": "9L - 27R", "crossRunwayId": null }, "geometry": { "type": "LineString", "coordinates": [ [ -75.228410759, 39.874348207 ], [ -75.227554601999898, 39.874519031 ] ] } },
{ "type": "Feature", "properties": { "runwayId": "9L - 27R", "crossRunwayId": null }, "geometry": { "type": "LineString", "coordinates": [ [ -75.225694502, 39.874890165000103 ], [ -75.224815201999903, 39.875065605 ] ] } },
{ "type": "Feature", "properties": { "runwayId": "9L - 27R", "crossRunwayId": null }, "geometry": { "type": "LineString", "coordinates": [ [ -75.223704026, 39.875287304 ], [ -75.223183853, 39.875391094000101 ] ] } },
{ "type": "Feature", "properties": { "runwayId": "9L - 27R", "crossRunwayId": null }, "geometry": { "type": "LineString", "coordinates": [ [ -75.247952222222224, 39.87002 ], [ -75.247344758807316, 39.870138672903146 ] ] } },
{ "type": "Feature", "properties": { "runwayId": "9L - 27R", "crossRunwayId": null }, "geometry": { "type": "LineString", "coordinates": [ [ -75.241553922, 39.871295924 ], [ -75.240383677, 39.871529426000102 ] ] } },
{ "type": "Feature", "properties": { "runwayId": "9L - 27R", "crossRunwayId": null }, "geometry": { "type": "LineString", "coordinates": [ [ -75.237751789999905, 39.872054572 ], [ -75.238030635, 39.871998934 ] ] } },
{ "type": "Feature", "properties": { "runwayId": "9L - 27R", "crossRunwayId": null }, "geometry": { "type": "LineString", "coordinates": [ [ -75.237106388, 39.8721833500001 ], [ -75.236827629999894, 39.872238971000101 ] ] } },
{ "type": "Feature", "properties": { "runwayId": "9L - 27R", "crossRunwayId": null }, "geometry": { "type": "LineString", "coordinates": [ [ -75.231870422, 39.873228093000101 ], [ -75.231588673, 39.873284311000099 ] ] } },
{ "type": "Feature", "properties": { "runwayId": "9L - 27R", "crossRunwayId": null }, "geometry": { "type": "LineString", "coordinates": [ [ -75.231105869, 39.873380646 ], [ -75.230027586999896, 39.873595798000103 ] ] } },
{ "type": "Feature", "properties": { "runwayId": "9L - 27R", "crossRunwayId": "17 - 35" }, "geometry": { "type": "LineString", "coordinates": [ [ -75.22944598, 39.873711847 ], [ -75.228926685, 39.873815463 ] ] } },
{ "type": "Feature", "properties": { "runwayId": "9L - 27R", "crossRunwayId": null }, "geometry": { "type": "LineString", "coordinates": [ [ -75.228178442999905, 39.873964761 ], [ -75.227362300042202, 39.8741251011106 ] ] } },
{ "type": "Feature", "properties": { "runwayId": "9L - 27R", "crossRunwayId": null }, "geometry": { "type": "LineString", "coordinates": [ [ -75.223811946, 39.8748360210001 ], [ -75.223029579, 39.874992126000102 ] ] } },
{ "type": "Feature", "properties": { "runwayId": "8 - 26", "crossRunwayId": null }, "geometry": { "type": "LineString", "coordinates": [ [ -75.22994969, 39.878146234 ], [ -75.22953331, 39.878229158000103 ] ] } },
{ "type": "Feature", "properties": { "runwayId": "8 - 26", "crossRunwayId": null }, "geometry": { "type": "LineString", "coordinates": [ [ -75.230085742, 39.878553060000101 ], [ -75.229660714, 39.878637706000099 ] ] } },
{ "type": "Feature", "properties": { "runwayId": "8 - 26", "crossRunwayId": null }, "geometry": { "type": "LineString", "coordinates": [ [ -75.229486508, 39.8786724 ], [ -75.229085883, 39.878752185000103 ] ] } },
{ "type": "Feature", "properties": { "runwayId": "8 - 26", "crossRunwayId": null }, "geometry": { "type": "LineString", "coordinates": [ [ -75.225912099, 39.879384264000102 ], [ -75.224858116999897, 39.879594169 ] ] } },
{ "type": "Feature", "properties": { "runwayId": "8 - 26", "crossRunwayId": null }, "geometry": { "type": "LineString", "coordinates": [ [ -75.220828727, 39.880396632 ], [ -75.220353847999903, 39.880491205000098 ] ] } },
{ "type": "Feature", "properties": { "runwayId": "8 - 26", "crossRunwayId": null }, "geometry": { "type": "LineString", "coordinates": [ [ -75.214019516, 39.881752679 ], [ -75.2134388059999, 39.881868327000099 ] ] } },
{ "type": "Feature", "properties": { "runwayId": "8 - 26", "crossRunwayId": null }, "geometry": { "type": "LineString", "coordinates": [ [ -75.213199231, 39.881916039 ], [ -75.212830211, 39.881989529000101 ] ] } },
{ "type": "Feature", "properties": { "runwayId": "17 - 35", "crossRunwayId": null }, "geometry": { "type": "LineString", "coordinates": [ [ -75.228064214, 39.870929629 ], [ -75.228307074, 39.871418632 ] ] } },
{ "type": "Feature", "properties": { "runwayId": "17 - 35", "crossRunwayId": null }, "geometry": { "type": "LineString", "coordinates": [ [ -75.228551441, 39.871910671000101 ], [ -75.228823566999907, 39.872458604 ] ] } },
{ "type": "Feature", "properties": { "runwayId": "17 - 35", "crossRunwayId": "9R - 27L" }, "geometry": { "type": "LineString", "coordinates": [ [ -75.22944598, 39.873711847 ], [ -75.229640172, 39.8741028580001 ] ] } },
{ "type": "Feature", "properties": { "runwayId": "17 - 35", "crossRunwayId": null }, "geometry": { "type": "LineString", "coordinates": [ [ -75.229927318, 39.874681034 ], [ -75.230301176, 39.875433806 ] ] } },
{ "type": "Feature", "properties": { "runwayId": "17 - 35", "crossRunwayId": null }, "geometry": { "type": "LineString", "coordinates": [ [ -75.230838757999905, 39.8765162400001 ], [ -75.231194463999898, 39.877232463 ] ] } },
{ "type": "Feature", "properties": { "runwayId": "17 - 35", "crossRunwayId": null }, "geometry": { "type": "LineString", "coordinates": [ [ -75.232373141, 39.8796057550001 ], [ -75.232544886, 39.879951568 ] ] } },
{ "type": "Feature", "properties": { "runwayId": "17 - 35", "crossRunwayId": null }, "geometry": { "type": "LineString", "coordinates": [ [ -75.232773440999907, 39.880411768 ], [ -75.2329934159999, 39.880854693000103 ] ] } },
{ "type": "Feature", "properties": { "runwayId": "17 - 35", "crossRunwayId": null }, "geometry": { "type": "LineString", "coordinates": [ [ -75.233629596999904, 39.882135658 ], [ -75.234252302999906, 39.883389490000098 ] ] } },
{ "type": "Feature", "properties": { "runwayId": "17 - 35", "crossRunwayId": null }, "geometry": { "type": "LineString", "coordinates": [ [ -75.235213664999904, 39.885325216000098 ], [ -75.235633923, 39.886171414 ] ] } },
{ "type": "Feature", "properties": { "runwayId": "17 - 35", "crossRunwayId": null }, "geometry": { "type": "LineString", "coordinates": [ [ -75.236109233, 39.887128463000103 ], [ -75.236343921999904, 39.887601015 ] ] } },
{ "type": "Feature", "properties": { "runwayId": "17 - 35", "crossRunwayId": null }, "geometry": { "type": "LineString", "coordinates": [ [ -75.235845561, 39.887746754 ], [ -75.235613524, 39.887279599000102 ] ] } },
{ "type": "Feature", "properties": { "runwayId": "17 - 35", "crossRunwayId": null }, "geometry": { "type": "LineString", "coordinates": [ [ -75.234875835, 39.885794401000098 ], [ -75.235127522, 39.88630113 ] ] } },
{ "type": "Feature", "properties": { "runwayId": "17 - 35", "crossRunwayId": null }, "geometry": { "type": "LineString", "coordinates": [ [ -75.232054014, 39.880112903000096 ], [ -75.23229212, 39.880592329000102 ] ] } },
{ "type": "Feature", "properties": { "runwayId": "17 - 35", "crossRunwayId": null }, "geometry": { "type": "LineString", "coordinates": [ [ -75.230333382, 39.876648326000101 ], [ -75.230661982999905, 39.877309994 ] ] } },
{ "type": "Feature", "properties": { "runwayId": "17 - 35", "crossRunwayId": null }, "geometry": { "type": "LineString", "coordinates": [ [ -75.229380334, 39.874729241000097 ], [ -75.229740943, 39.875455380000098 ] ] } },
{ "type": "Feature", "properties": { "runwayId": "17 - 35", "crossRunwayId": "9R - 27L" }, "geometry": { "type": "LineString", "coordinates": [ [ -75.228926685, 39.873815463 ], [ -75.229120877, 39.8742064730001 ] ] } },
{ "type": "Feature", "properties": { "runwayId": "17 - 35", "crossRunwayId": null }, "geometry": { "type": "LineString", "coordinates": [ [ -75.227971602, 39.87189248 ], [ -75.228263968, 39.872481226 ] ] } },
{ "type": "Feature", "properties": { "runwayId": "17 - 35", "crossRunwayId": null }, "geometry": { "type": "LineString", "coordinates": [ [ -75.227565671, 39.871075036 ], [ -75.227797943, 39.871542775000101 ] ] } }
]
}
