{"type":"FeatureCollection","features":[{"type":"Feature","properties":{"runwayId":"16L - 34R"},"geometry":{"coordinates":[[-122.30759162295593,47.44876080780133],[-122.30758427478014,47.44928424287056]],"type":"LineString"}},{"type":"Feature","properties":{"runwayId":"16L - 34R"},"geometry":{"coordinates":[[-122.30750084229894,47.459720453775375],[-122.30749736219794,47.46033083552382]],"type":"LineString"}},{"type":"Feature","properties":{"runwayId":"16R - 34L"},"geometry":{"coordinates":[[-122.31761749989633,47.458890104561746],[-122.31763659038155,47.45664974360318]],"type":"LineString"}},{"type":"Feature","properties":{"runwayId":"16R - 34L"},"geometry":{"coordinates":[[-122.31758906217325,47.46177182719704],[-122.31760275687526,47.45944191015549]],"type":"LineString"}},{"type":"Feature","properties":{"runwayId":"16R - 34L"},"geometry":{"coordinates":[[-122.31756955050386,47.463837921220446],[-122.31757805788686,47.463102161792385]],"type":"LineString"}},{"type":"Feature","properties":{"id":"16R - 34L"},"geometry":{"coordinates":[[[-122.3175694569067,47.46383603999893],[-122.3181834358865,47.46383874914645],[-122.3183833144136,47.44053943081873],[-122.3177751000038,47.4405363373707],[-122.3175694569067,47.46383603999893]]],"type":"Polygon"}},{"type":"Feature","properties":{"id":"16C - 34C"},"geometry":{"coordinates":[[[-122.3106979311131,47.46380863331461],[-122.3113063967457,47.46381326448843],[-122.3115363160561,47.437975076152],[-122.3109294617138,47.43797186727549],[-122.3106979311131,47.46380863331461]]],"type":"Polygon"}},{"type":"Feature","properties":{"id":"16L - 34R"},"geometry":{"coordinates":[[[-122.3074643822316,47.46379878193239],[-122.3080738426776,47.46379996179062],[-122.308366055874,47.43117808073848],[-122.3077562152589,47.4311723975766],[-122.3074643822316,47.46379878193239]]],"type":"Polygon"}},{"type":"Feature","properties":{"runwayId":"16L - 34R"},"geometry":{"coordinates":[[-122.30747187819539,47.46330538728514],[-122.30746242313167,47.4637940409505]],"type":"LineString"}},{"type":"Feature","properties":{"runwayId":"16R - 34L"},"geometry":{"coordinates":[[-122.31775763842408,47.44260206794232],[-122.31774765924204,47.44478801950032]],"type":"LineString"}},{"type":"Feature","properties":{"runwayId":"16L - 34R"},"geometry":{"coordinates":[[-122.30829398340971,47.43892778054299],[-122.30828989574229,47.43922035435203]],"type":"LineString"}},{"type":"Feature","properties":{"runwayId":"16C - 34C"},"geometry":{"coordinates":[[-122.31090891057481,47.440756995112466],[-122.31088972220354,47.44278425079007]],"type":"LineString"}},{"type":"Feature","properties":{"runwayId":"16C - 34C"},"geometry":{"coordinates":[[-122.31093172129282,47.438725830846124],[-122.31092577595028,47.43797341742321]],"type":"LineString"}},{"type":"Feature","properties":{"runwayId":"16L - 34R"},"geometry":{"coordinates":[[-122.3076988233452,47.4378363248216],[-122.30769857713042,47.43844167641939]],"type":"LineString"}},{"type":"Feature","properties":{"runwayId":"16L - 34R"},"geometry":{"coordinates":[[-122.3077105973067,47.43660127460318],[-122.30771898227282,47.43593895876885]],"type":"LineString"}},{"type":"Feature","properties":{"runwayId":"16L - 34R"},"geometry":{"coordinates":[[-122.30824979066148,47.443438966847026],[-122.30824629459852,47.443749951657594]],"type":"LineString"}},{"type":"Feature","properties":{"runwayId":"16L - 34R"},"geometry":{"coordinates":[[-122.30762805988581,47.44629767706089],[-122.30762993043902,47.44552207119159]],"type":"LineString"}},{"type":"Feature","properties":{"runwayId":"16C - 34C"},"geometry":{"coordinates":[[-122.31084093092572,47.447668530117745],[-122.31083926488425,47.44915027698787]],"type":"LineString"}},{"type":"Feature","properties":{"runwayId":"16C - 34C"},"geometry":{"coordinates":[[-122.3108247831941,47.4506253105975],[-122.31083978916256,47.4491446084928]],"type":"LineString"}},{"type":"Feature","properties":{"runwayId":"16L - 34R"},"geometry":{"coordinates":[[-122.30756792217151,47.4529312483769],[-122.30757132437279,47.45191851079758]],"type":"LineString"}},{"type":"Feature","properties":{"runwayId":"16R - 34L"},"geometry":{"coordinates":[[-122.31773413034749,47.44548494304686],[-122.31771371029045,47.447620198429796]],"type":"LineString"}},{"type":"Feature","properties":{"runwayId":"16L - 34R"},"geometry":{"coordinates":[[-122.3075397162461,47.45594081642613],[-122.30753930143942,47.45565461223402]],"type":"LineString"}},{"type":"Feature","properties":{"runwayId":"16L - 34R"},"geometry":{"coordinates":[[-122.30813997528283,47.4558633901383],[-122.30814334878643,47.455564235697985]],"type":"LineString"}},{"type":"Feature","properties":{"runwayId":"16C - 34C"},"geometry":{"coordinates":[[-122.31077840391697,47.45555027793683],[-122.31078309771941,47.45459224826441]],"type":"LineString"}},{"type":"Feature","properties":{"runwayId":"16R - 34L"},"geometry":{"coordinates":[[-122.31765647207158,47.453840357406406],[-122.31767752769468,47.45165659375811]],"type":"LineString"}},{"type":"Feature","properties":{"runwayId":"16L - 34R"},"geometry":{"coordinates":[[-122.30810200202443,47.46024128522582],[-122.30810260934581,47.459919095020545]],"type":"LineString"}},{"type":"Feature","properties":{"runwayId":"16C - 34C"},"geometry":{"coordinates":[[-122.31073205804489,47.46024431722633],[-122.31073580315719,47.45998122153889]],"type":"LineString"}},{"type":"Feature","properties":{"runwayId":"16C - 34C"},"geometry":{"coordinates":[[-122.31075266139459,47.45838982585808],[-122.31076939605495,47.4563527334824]],"type":"LineString"}},{"type":"Feature","properties":{"runwayId":"16C - 34C"},"geometry":{"coordinates":[[-122.31130252402912,47.46381606646936],[-122.31131409860514,47.46304930643253]],"type":"LineString"}},{"type":"Feature","properties":{"runwayId":"16C - 34C"},"geometry":{"coordinates":[[-122.31071621093159,47.46236528626927],[-122.31071038847405,47.463305701191054]],"type":"LineString"}},{"type":"Feature","properties":{"runwayId":"16C - 34C"},"geometry":{"coordinates":[[-122.31070577912958,47.46380848493014],[-122.31071039317989,47.463296964363174]],"type":"LineString"}},{"type":"Feature","properties":{"runwayId":"16L - 34R"},"geometry":{"coordinates":[[-122.30746790482307,47.46329710490864],[-122.307482850762,47.46253643700491]],"type":"LineString"}},{"type":"Feature","properties":{"runwayId":"16L - 34R"},"geometry":{"coordinates":[[-122.30775555098381,47.43117311015783],[-122.30775841368143,47.432188890674865]],"type":"LineString"}},{"type":"Feature","properties":{"runwayId":"16L - 34R"},"geometry":{"coordinates":[[-122.30769305711836,47.43865259593501],[-122.30769011885165,47.439374245525144]],"type":"LineString"}},{"type":"Feature","properties":{"runwayId":"16L - 34R"},"geometry":{"coordinates":[[-122.30765857882295,47.44310191914323],[-122.30765480336674,47.44386889942665]],"type":"LineString"}},{"type":"Feature","properties":{"runwayId":"16L - 34R"},"geometry":{"coordinates":[[-122.30807599827037,47.46337547311893],[-122.30807231383227,47.46380259895276]],"type":"LineString"}},{"type":"Feature","properties":{"runwayId":"16L - 34R"},"geometry":{"coordinates":[[-122.30808326114376,47.46279573782774],[-122.30807664316859,47.46307280188711]],"type":"LineString"}},{"type":"Feature","properties":{"runwayId":"16C - 34C"},"geometry":{"coordinates":[[-122.31080665692772,47.45209823061304],[-122.3107982599741,47.45333516797903]],"type":"LineString"}},{"type":"Feature","properties":{"runwayId":"16L - 34R"},"geometry":{"coordinates":[[-122.3081691175322,47.452456323002004],[-122.30817370243572,47.45216408591357]],"type":"LineString"}},{"type":"Feature","properties":{"runwayId":"16L - 34R"},"geometry":{"coordinates":[[-122.30823444087578,47.445818048492995],[-122.3082332570601,47.446118278792504]],"type":"LineString"}},{"type":"Feature","properties":{"runwayId":"16L - 34R"},"geometry":{"coordinates":[[-122.3083023846123,47.437929740908274],[-122.3083010156902,47.438207811403636]],"type":"LineString"}},{"type":"Feature","properties":{"runwayId":"16C - 34C"},"geometry":{"coordinates":[[-122.31086705715792,47.44554307726344],[-122.31085029631053,47.44767107531579]],"type":"LineString"}},{"type":"Feature","properties":{"runwayId":"16C - 34C"},"geometry":{"coordinates":[[-122.31134027713591,47.460252777249586],[-122.3113446006702,47.4599816538511]],"type":"LineString"}},{"type":"Feature","properties":{"runwayId":"16C - 34C"},"geometry":{"coordinates":[[-122.31138296837057,47.45519115458715],[-122.3113869899166,47.454918087841264]],"type":"LineString"}},{"type":"Feature","properties":{"runwayId":"16C - 34C"},"geometry":{"coordinates":[[-122.3114583244629,47.44651723562264],[-122.31146374095219,47.446232028982095]],"type":"LineString"}},{"type":"Feature","properties":{"runwayId":"16C - 34C"},"geometry":{"coordinates":[[-122.31150321814363,47.44163667242133],[-122.31149498822312,47.44199636444937]],"type":"LineString"}},{"type":"Feature","properties":{"runwayId":"16C - 34C"},"geometry":{"coordinates":[[-122.31152216361033,47.438733824580424],[-122.3115359771026,47.437978284193214]],"type":"LineString"}},{"type":"Feature","properties":{"runwayId":"16R - 34L"},"geometry":{"coordinates":[[-122.31771219819845,47.44834443109024],[-122.31769301453951,47.45048275219915]],"type":"LineString"}},{"type":"Feature","properties":{"runwayId":"16R - 34L"},"geometry":{"coordinates":[[-122.317774369409,47.440535374681254],[-122.31778058877666,47.44128187513098]],"type":"LineString"}}]}