{
"type": "FeatureCollection",
"name": "SFO",
"features": [
{ "type": "Feature", "properties": { "id": "10R - 28L" }, "geometry": { "type": "Polygon", "coordinates": [ [ [ -122.3929464, 37.6265344 ], [ -122.3932719, 37.6260472 ], [ -122.3585072, 37.6114656 ], [ -122.3581825, 37.6119583 ], [ -122.3929464, 37.6265344 ] ] ] } },
{ "type": "Feature", "properties": { "id": "10L - 28R" }, "geometry": { "type": "Polygon", "coordinates": [ [ [ -122.393249844627292, 37.628988052286658 ], [ -122.393570183120246, 37.628503010098193 ], [ -122.357316316910115, 37.613291180006279 ], [ -122.356990440663736, 37.61377640700853 ], [ -122.393249844627292, 37.628988052286658 ] ] ] } },
{ "type": "Feature", "properties": { "id": "1L - 19R" }, "geometry": { "type": "Polygon", "coordinates": [ [ [ -122.383250324194847, 37.608034611986668 ], [ -122.382637344964806, 37.607775612820404 ], [ -122.37032122205045, 37.626358188480665 ], [ -122.370934217694597, 37.626614357057761 ], [ -122.383250324194847, 37.608034611986668 ] ] ] } },
{ "type": "Feature", "properties": { "id": "1R - 19L" }, "geometry": { "type": "Polygon", "coordinates": [ [ [ -122.381361184037772, 37.606465988641673 ], [ -122.380754753736042, 37.606209928055577 ], [ -122.366820814068177, 37.627219480431563 ], [ -122.367434369373299, 37.627477583491149 ], [ -122.381361184037772, 37.606465988641673 ] ] ] } },
{ "type": "Feature", "properties": { "runwayId": "10R - 28L" }, "geometry": { "type": "LineString", "coordinates": [ [ -122.393285211065944, 37.626054741944905 ], [ -122.392703524870811, 37.625810187698853 ] ] } },
{ "type": "Feature", "properties": { "runwayId": "10R - 28L" }, "geometry": { "type": "LineString", "coordinates": [ [ -122.391942562673364, 37.62549132805519 ], [ -122.391271130418488, 37.625209644879099 ] ] } },
{ "type": "Feature", "properties": { "runwayId": "10R - 28L" }, "geometry": { "type": "LineString", "coordinates": [ [ -122.389249181773678, 37.624361159660353 ], [ -122.388466647310707, 37.624032940622016 ] ] } },
{ "type": "Feature", "properties": { "runwayId": "10R - 28L" }, "geometry": { "type": "LineString", "coordinates": [ [ -122.385977199971009, 37.622988221044643 ], [ -122.385047222222227, 37.622598333333336 ] ] } },
{ "type": "Feature", "properties": { "runwayId": "10R - 28L" }, "geometry": { "type": "LineString", "coordinates": [ [ -122.383514491798536, 37.621955802466687 ], [ -122.382768728206941, 37.621641069952133 ] ] } },
{ "type": "Feature", "properties": { "runwayId": "10R - 28L" }, "geometry": { "type": "LineString", "coordinates": [ [ -122.379488333333327, 37.620266944444445 ], [ -122.377984166666664, 37.619635833333334 ] ] } },
{ "type": "Feature", "properties": { "runwayId": "10R - 28L" }, "geometry": { "type": "LineString", "coordinates": [ [ -122.37233048678074, 37.617264022953904 ], [ -122.371609643135301, 37.616960736659706 ] ] } },
{ "type": "Feature", "properties": { "runwayId": "10R - 28L" }, "geometry": { "type": "LineString", "coordinates": [ [ -122.368745943258929, 37.615760409449777 ], [ -122.368226430789719, 37.615541294490441 ] ] } },
{ "type": "Feature", "properties": { "runwayId": "10R - 28L" }, "geometry": { "type": "LineString", "coordinates": [ [ -122.366280059416624, 37.614724706582592 ], [ -122.365654149507847, 37.614462373168287 ] ] } },
{ "type": "Feature", "properties": { "runwayId": "10R - 28L" }, "geometry": { "type": "LineString", "coordinates": [ [ -122.360556722406088, 37.612322667090829 ], [ -122.359994378087237, 37.612086787704115 ] ] } },
{ "type": "Feature", "properties": { "runwayId": "10R - 28L" }, "geometry": { "type": "LineString", "coordinates": [ [ -122.358205741470186, 37.611958642342998 ], [ -122.359079471042193, 37.612325691098619 ] ] } },
{ "type": "Feature", "properties": { "runwayId": "10R - 28L" }, "geometry": { "type": "LineString", "coordinates": [ [ -122.365244026561939, 37.614913782610685 ], [ -122.365862275734798, 37.615172990722982 ] ] } },
{ "type": "Feature", "properties": { "runwayId": "10R - 28L" }, "geometry": { "type": "LineString", "coordinates": [ [ -122.367783471059923, 37.615978326321141 ], [ -122.368346734947139, 37.616215222181737 ] ] } },
{ "type": "Feature", "properties": { "runwayId": "10R - 28L" }, "geometry": { "type": "LineString", "coordinates": [ [ -122.371293950557302, 37.617448879236974 ], [ -122.372014569982625, 37.617752593534902 ] ] } },
{ "type": "Feature", "properties": { "runwayId": "10R - 28L" }, "geometry": { "type": "LineString", "coordinates": [ [ -122.37797333333333, 37.620251111111109 ], [ -122.378489166666654, 37.620468888888887 ] ] } },
{ "type": "Feature", "properties": { "runwayId": "10R - 28L" }, "geometry": { "type": "LineString", "coordinates": [ [ -122.381617986067397, 37.62178028439417 ], [ -122.382030838604237, 37.621958269148024 ] ] } },
{ "type": "Feature", "properties": { "runwayId": "10R - 28L" }, "geometry": { "type": "LineString", "coordinates": [ [ -122.384658611111121, 37.623058055555553 ], [ -122.3857538888889, 37.623518055555557 ] ] } },
{ "type": "Feature", "properties": { "runwayId": "10R - 28L" }, "geometry": { "type": "LineString", "coordinates": [ [ -122.388233135292495, 37.624558477475816 ], [ -122.388922463005017, 37.624848986524078 ] ] } },
{ "type": "Feature", "properties": { "runwayId": "10R - 28L" }, "geometry": { "type": "LineString", "coordinates": [ [ -122.390999306047718, 37.625716988969671 ], [ -122.39157444832486, 37.625957253958354 ] ] } },
{ "type": "Feature", "properties": { "runwayId": "10R - 28L" }, "geometry": { "type": "LineString", "coordinates": [ [ -122.392520348263062, 37.626353873384367 ], [ -122.392958932283392, 37.626540817309284 ] ] } },
{ "type": "Feature", "properties": { "runwayId": "10R - 28L", "crossRunwayId": "1L - 19R" }, "geometry": { "type": "LineString", "coordinates": [ [ -122.376077353918603, 37.618841913740255 ], [ -122.37547802575547, 37.618591783306705 ] ] } },
{ "type": "Feature", "properties": { "runwayId": "10R - 28L", "crossRunwayId": "1L - 19R" }, "geometry": { "type": "LineString", "coordinates": [ [ -122.375159395585953, 37.619070260314139 ], [ -122.375762516965281, 37.619322642546997 ] ] } },
{ "type": "Feature", "properties": { "runwayId": "10R - 28L", "crossRunwayId": "1R - 19L" }, "geometry": { "type": "LineString", "coordinates": [ [ -122.373787786747258, 37.617880093511147 ], [ -122.373191312487549, 37.617628700327849 ] ] } },
{ "type": "Feature", "properties": { "runwayId": "10R - 28L", "crossRunwayId": "1R - 19L" }, "geometry": { "type": "LineString", "coordinates": [ [ -122.372870747443145, 37.61811253670956 ], [ -122.373475195957667, 37.618361401712967 ] ] } },
{ "type": "Feature", "properties": { "runwayId": "10L - 28R" }, "geometry": { "type": "LineString", "coordinates": [ [ -122.393570066879036, 37.628500933099602 ], [ -122.393054930018408, 37.628285574285798 ] ] } },
{ "type": "Feature", "properties": { "runwayId": "10L - 28R" }, "geometry": { "type": "LineString", "coordinates": [ [ -122.392846004525239, 37.628199683202439 ], [ -122.392170983920366, 37.627917853890011 ] ] } },
{ "type": "Feature", "properties": { "runwayId": "10L - 28R" }, "geometry": { "type": "LineString", "coordinates": [ [ -122.390685262355262, 37.627292622007623 ], [ -122.390112710845401, 37.627053260331202 ] ] } },
{ "type": "Feature", "properties": { "runwayId": "10L - 28R" }, "geometry": { "type": "LineString", "coordinates": [ [ -122.385916090264217, 37.625292981128439 ], [ -122.384150920654065, 37.624553028613562 ] ] } },
{ "type": "Feature", "properties": { "runwayId": "10L - 28R" }, "geometry": { "type": "LineString", "coordinates": [ [ -122.382326064969789, 37.623786546512079 ], [ -122.381754508513197, 37.623546774189833 ] ] } },
{ "type": "Feature", "properties": { "runwayId": "10L - 28R" }, "geometry": { "type": "LineString", "coordinates": [ [ -122.379085696411821, 37.622426472660074 ], [ -122.375936906724448, 37.6211046109321 ] ] } },
{ "type": "Feature", "properties": { "runwayId": "10L - 28R" }, "geometry": { "type": "LineString", "coordinates": [ [ -122.371044410781565, 37.61905208522041 ], [ -122.370472732315889, 37.618813941355477 ] ] } },
{ "type": "Feature", "properties": { "runwayId": "10L - 28R" }, "geometry": { "type": "LineString", "coordinates": [ [ -122.367418480589322, 37.617530170993291 ], [ -122.36684649952204, 37.617291685876751 ] ] } },
{ "type": "Feature", "properties": { "runwayId": "10L - 28R" }, "geometry": { "type": "LineString", "coordinates": [ [ -122.364960644285361, 37.616501294289961 ], [ -122.364389347152752, 37.616261383015299 ] ] } },
{ "type": "Feature", "properties": { "runwayId": "10L - 28R" }, "geometry": { "type": "LineString", "coordinates": [ [ -122.357762152269757, 37.613476554825681 ], [ -122.357321973390455, 37.613294631480095 ] ] } },
{ "type": "Feature", "properties": { "runwayId": "10L - 28R" }, "geometry": { "type": "LineString", "coordinates": [ [ -122.357003140236586, 37.613781963815384 ], [ -122.357489569779929, 37.613983467838452 ] ] } },
{ "type": "Feature", "properties": { "runwayId": "10L - 28R" }, "geometry": { "type": "LineString", "coordinates": [ [ -122.358461768343602, 37.614389825013319 ], [ -122.359037102149188, 37.614632568773295 ] ] } },
{ "type": "Feature", "properties": { "runwayId": "10L - 28R" }, "geometry": { "type": "LineString", "coordinates": [ [ -122.364128227743095, 37.616768286290778 ], [ -122.364699081505364, 37.617010628418868 ] ] } },
{ "type": "Feature", "properties": { "runwayId": "10L - 28R" }, "geometry": { "type": "LineString", "coordinates": [ [ -122.366525092438067, 37.617775476663049 ], [ -122.367100426237954, 37.618013429082453 ] ] } },
{ "type": "Feature", "properties": { "runwayId": "10L - 28R" }, "geometry": { "type": "LineString", "coordinates": [ [ -122.3701493314705, 37.619297236811143 ], [ -122.370726498998792, 37.619536995250343 ] ] } },
{ "type": "Feature", "properties": { "runwayId": "10L - 28R" }, "geometry": { "type": "LineString", "coordinates": [ [ -122.375744103231256, 37.621643838762274 ], [ -122.376519932145058, 37.621968350546055 ] ] } },
{ "type": "Feature", "properties": { "runwayId": "10L - 28R" }, "geometry": { "type": "LineString", "coordinates": [ [ -122.381432409958478, 37.624028442158725 ], [ -122.382008360321578, 37.624268749222054 ] ] } },
{ "type": "Feature", "properties": { "runwayId": "10L - 28R" }, "geometry": { "type": "LineString", "coordinates": [ [ -122.383830696041301, 37.625034999938464 ], [ -122.384405738103197, 37.625275627129653 ] ] } },
{ "type": "Feature", "properties": { "runwayId": "10L - 28R" }, "geometry": { "type": "LineString", "coordinates": [ [ -122.389789580744221, 37.627534244473587 ], [ -122.39036759675146, 37.627774289951525 ] ] } },
{ "type": "Feature", "properties": { "runwayId": "10L - 28R" }, "geometry": { "type": "LineString", "coordinates": [ [ -122.392802984414473, 37.628801450346458 ], [ -122.393246219432527, 37.628989447427074 ] ] } },
{ "type": "Feature", "properties": { "runwayId": "10L - 28R", "crossRunwayId": "1L - 19R" }, "geometry": { "type": "LineString", "coordinates": [ [ -122.374875062152654, 37.620663135592466 ], [ -122.374270992464986, 37.620407753407058 ] ] } },
{ "type": "Feature", "properties": { "runwayId": "10L - 28R", "crossRunwayId": "1L - 19R" }, "geometry": { "type": "LineString", "coordinates": [ [ -122.374554535374386, 37.621143852622609 ], [ -122.373952362299093, 37.620891476572169 ] ] } },
{ "type": "Feature", "properties": { "runwayId": "10L - 28R", "crossRunwayId": "1R - 19L" }, "geometry": { "type": "LineString", "coordinates": [ [ -122.372583148600597, 37.619702528870057 ], [ -122.371981889788017, 37.619451141848714 ] ] } },
{ "type": "Feature", "properties": { "runwayId": "10L - 28R", "crossRunwayId": "1R - 19L" }, "geometry": { "type": "LineString", "coordinates": [ [ -122.372264178404706, 37.620183825271994 ], [ -122.371661324741154, 37.619929913387367 ] ] } },
{ "type": "Feature", "properties": { "runwayId": "1L - 19R" }, "geometry": { "type": "LineString", "coordinates": [ [ -122.382640708055916, 37.607776962477686 ], [ -122.382389519026404, 37.608158523955922 ] ] } },
{ "type": "Feature", "properties": { "runwayId": "1L - 19R" }, "geometry": { "type": "LineString", "coordinates": [ [ -122.382139068498645, 37.60853433053002 ], [ -122.38181452121664, 37.609023573932241 ] ] } },
{ "type": "Feature", "properties": { "runwayId": "1L - 19R" }, "geometry": { "type": "LineString", "coordinates": [ [ -122.381077321847556, 37.610134413114231 ], [ -122.380704796973674, 37.610698645666304 ] ] } },
{ "type": "Feature", "properties": { "runwayId": "1L - 19R" }, "geometry": { "type": "LineString", "coordinates": [ [ -122.379143371367775, 37.613056731406125 ], [ -122.378867774398387, 37.61347636112118 ] ] } },
{ "type": "Feature", "properties": { "runwayId": "1L - 19R" }, "geometry": { "type": "LineString", "coordinates": [ [ -122.376922190163413, 37.616410635105687 ], [ -122.376656056655406, 37.616810423295149 ] ] } },
{ "type": "Feature", "properties": { "runwayId": "1L - 19R" }, "geometry": { "type": "LineString", "coordinates": [ [ -122.376382986057223, 37.617224457939741 ], [ -122.375946135148155, 37.617882096787 ] ] } },
{ "type": "Feature", "properties": { "runwayId": "1L - 19R" }, "geometry": { "type": "LineString", "coordinates": [ [ -122.373435746233241, 37.621670588303779 ], [ -122.373178755832001, 37.622058161400702 ] ] } },
{ "type": "Feature", "properties": { "runwayId": "1L - 19R" }, "geometry": { "type": "LineString", "coordinates": [ [ -122.371736517922798, 37.624238683007135 ], [ -122.371309108274843, 37.624881782497027 ] ] } },
{ "type": "Feature", "properties": { "runwayId": "1L - 19R" }, "geometry": { "type": "LineString", "coordinates": [ [ -122.370556796275991, 37.626017097116105 ], [ -122.370325455751697, 37.626356991230239 ] ] } },
{ "type": "Feature", "properties": { "runwayId": "1L - 19R" }, "geometry": { "type": "LineString", "coordinates": [ [ -122.370936770835229, 37.626613797173277 ], [ -122.371159394175237, 37.626268593395274 ] ] } },
{ "type": "Feature", "properties": { "runwayId": "1L - 19R" }, "geometry": { "type": "LineString", "coordinates": [ [ -122.371907725686128, 37.625135691346792 ], [ -122.372308033280959, 37.62453189988846 ] ] } },
{ "type": "Feature", "properties": { "runwayId": "1L - 19R" }, "geometry": { "type": "LineString", "coordinates": [ [ -122.373779980612895, 37.622307677307859 ], [ -122.374250575640431, 37.621598857207481 ] ] } },
{ "type": "Feature", "properties": { "runwayId": "1L - 19R" }, "geometry": { "type": "LineString", "coordinates": [ [ -122.376588495587256, 37.618070157499801 ], [ -122.377085974214609, 37.61732275099282 ] ] } },
{ "type": "Feature", "properties": { "runwayId": "1L - 19R" }, "geometry": { "type": "LineString", "coordinates": [ [ -122.3773249134899, 37.616958140324478 ], [ -122.377879713965953, 37.61612205919176 ] ] } },
{ "type": "Feature", "properties": { "runwayId": "1L - 19R" }, "geometry": { "type": "LineString", "coordinates": [ [ -122.379443757724133, 37.613765430114171 ], [ -122.379779656921585, 37.613258074655008 ] ] } },
{ "type": "Feature", "properties": { "runwayId": "1L - 19R" }, "geometry": { "type": "LineString", "coordinates": [ [ -122.38139659047981, 37.610820670768128 ], [ -122.381720467215032, 37.6103293143942 ] ] } },
{ "type": "Feature", "properties": { "runwayId": "1L - 19R" }, "geometry": { "type": "LineString", "coordinates": [ [ -122.382592948187025, 37.609013788211769 ], [ -122.382914800597661, 37.608523725633795 ] ] } },
{ "type": "Feature", "properties": { "runwayId": "1L - 19R" }, "geometry": { "type": "LineString", "coordinates": [ [ -122.382993319733615, 37.608410559250643 ], [ -122.383242765167012, 37.60803233567534 ] ] } },
{ "type": "Feature", "properties": { "runwayId": "1L - 19R", "crossRunwayId": "10R - 28L" }, "geometry": { "type": "LineString", "coordinates": [ [ -122.376081284934997, 37.618842115838021 ], [ -122.375762102074304, 37.61932013761956 ] ] } },
{ "type": "Feature", "properties": { "runwayId": "1L - 19R", "crossRunwayId": "10R - 28L" }, "geometry": { "type": "LineString", "coordinates": [ [ -122.375159946160991, 37.619069442135022 ], [ -122.375477787916211, 37.618587169627922 ] ] } },
{ "type": "Feature", "properties": { "runwayId": "1L - 19R", "crossRunwayId": "10L - 28R" }, "geometry": { "type": "LineString", "coordinates": [ [ -122.374873870829134, 37.620664447488451 ], [ -122.374556029072906, 37.621143519794352 ] ] } },
{ "type": "Feature", "properties": { "runwayId": "1L - 19R", "crossRunwayId": "10L - 28R" }, "geometry": { "type": "LineString", "coordinates": [ [ -122.373952532067406, 37.62089176821361 ], [ -122.374271101672065, 37.620409401413063 ] ] } },
{ "type": "Feature", "properties": { "runwayId": "1R - 19L" }, "geometry": { "type": "LineString", "coordinates": [ [ -122.380751474073975, 37.606210809023324 ], [ -122.380502696277233, 37.606589816748247 ] ] } },
{ "type": "Feature", "properties": { "runwayId": "1R - 19L" }, "geometry": { "type": "LineString", "coordinates": [ [ -122.379848933501052, 37.607573164465236 ], [ -122.379524673756421, 37.608066684974496 ] ] } },
{ "type": "Feature", "properties": { "runwayId": "1R - 19L" }, "geometry": { "type": "LineString", "coordinates": [ [ -122.376880844182367, 37.612056910006778 ], [ -122.376549007151425, 37.612559247887766 ] ] } },
{ "type": "Feature", "properties": { "runwayId": "1R - 19L" }, "geometry": { "type": "LineString", "coordinates": [ [ -122.374180342889588, 37.616136706385412 ], [ -122.373592795587285, 37.61702106312066 ] ] } },
{ "type": "Feature", "properties": { "runwayId": "1R - 19L" }, "geometry": { "type": "LineString", "coordinates": [ [ -122.371149291414056, 37.620705720080672 ], [ -122.370875197435424, 37.621116988957787 ] ] } },
{ "type": "Feature", "properties": { "runwayId": "1R - 19L" }, "geometry": { "type": "LineString", "coordinates": [ [ -122.369402555962282, 37.623338450867536 ], [ -122.369040680367121, 37.62388283656464 ] ] } },
{ "type": "Feature", "properties": { "runwayId": "1R - 19L" }, "geometry": { "type": "LineString", "coordinates": [ [ -122.368264362480147, 37.625053902451484 ], [ -122.367938673973114, 37.625545708909883 ] ] } },
{ "type": "Feature", "properties": { "runwayId": "1R - 19L" }, "geometry": { "type": "LineString", "coordinates": [ [ -122.367055741511891, 37.626878020973287 ], [ -122.366827677817824, 37.627217801445319 ] ] } },
{ "type": "Feature", "properties": { "runwayId": "1R - 19L" }, "geometry": { "type": "LineString", "coordinates": [ [ -122.368540896645371, 37.625798210089094 ], [ -122.368866538726536, 37.625304788928354 ] ] } },
{ "type": "Feature", "properties": { "runwayId": "1R - 19L" }, "geometry": { "type": "LineString", "coordinates": [ [ -122.369630318846006, 37.624156608886885 ], [ -122.370024603556274, 37.623560713361705 ] ] } },
{ "type": "Feature", "properties": { "runwayId": "1R - 19L" }, "geometry": { "type": "LineString", "coordinates": [ [ -122.37148504310656, 37.62135827818355 ], [ -122.371812208008819, 37.620860286764987 ] ] } },
{ "type": "Feature", "properties": { "runwayId": "1R - 19L" }, "geometry": { "type": "LineString", "coordinates": [ [ -122.374210532730544, 37.617246764843706 ], [ -122.374861870435694, 37.616263842845548 ] ] } },
{ "type": "Feature", "properties": { "runwayId": "1R - 19L" }, "geometry": { "type": "LineString", "coordinates": [ [ -122.376635013394917, 37.613587547780433 ], [ -122.378143550166484, 37.611311099361821 ] ] } },
{ "type": "Feature", "properties": { "runwayId": "1R - 19L" }, "geometry": { "type": "LineString", "coordinates": [ [ -122.380127816988491, 37.608315468464085 ], [ -122.380455064139056, 37.607825324779263 ] ] } },
{ "type": "Feature", "properties": { "runwayId": "1R - 19L" }, "geometry": { "type": "LineString", "coordinates": [ [ -122.381103135895742, 37.606843323608601 ], [ -122.381356685402082, 37.606463891889447 ] ] } },
{ "type": "Feature", "properties": { "runwayId": "1R - 19L", "crossRunwayId": "10R - 28L" }, "geometry": { "type": "LineString", "coordinates": [ [ -122.373793209868069, 37.617881734786366 ], [ -122.373472934567914, 37.618356955020232 ] ] } },
{ "type": "Feature", "properties": { "runwayId": "1R - 19L", "crossRunwayId": "10R - 28L" }, "geometry": { "type": "LineString", "coordinates": [ [ -122.373186776556821, 37.617628268893796 ], [ -122.372866501256695, 37.618107063832838 ] ] } },
{ "type": "Feature", "properties": { "runwayId": "1R - 19L", "crossRunwayId": "10L - 28R" }, "geometry": { "type": "LineString", "coordinates": [ [ -122.372583113477873, 37.619702691548866 ], [ -122.372263930613769, 37.620179645548042 ] ] } },
{ "type": "Feature", "properties": { "runwayId": "1R - 19L", "crossRunwayId": "10L - 28R" }, "geometry": { "type": "LineString", "coordinates": [ [ -122.371983639766682, 37.619447748289964 ], [ -122.371663115795002, 37.619930015214585 ] ] } },
{ "type": "Feature", "properties": { "id": null, "runwayId": "10R - 28L", "crossRunwayId": null }, "geometry": { "type": "LineString", "coordinates": [ [ -122.381724785900047, 37.621204115828526 ], [ -122.382502188109868, 37.621529506756673 ] ] } },
{ "type": "Feature", "properties": { "id": null, "runwayId": "10R - 28L", "crossRunwayId": null }, "geometry": { "type": "LineString", "coordinates": [ [ -122.382618723029907, 37.622206566709202 ], [ -122.383041308671793, 37.622380778378933 ] ] } }
]
}
