{
"type": "FeatureCollection",
"name": "safetyLogic",
"crs": { "type": "name", "properties": { "name": "urn:ogc:def:crs:OGC:1.3:CRS84" } },
"features": [
{ "type": "Feature", "properties": { "runwayId": "16R - 34L"}, "geometry": { "type": "LineString", "coordinates": [ [ -111.99520508254389, 40.775001623318872 ], [ -111.995280065485744, 40.775590745241878 ] ] } },
{ "type": "Feature", "properties": { "runwayId": "16R - 34L"}, "geometry": { "type": "LineString", "coordinates": [ [ -111.995289438353467, 40.775686565783595 ], [ -111.995364421295307, 40.77634311022215 ] ] } },
{ "type": "Feature", "properties": { "runwayId": "16R - 34L"}, "geometry": { "type": "LineString", "coordinates": [ [ -111.995926793359104, 40.781240372124131 ], [ -111.996189233655556, 40.783426279726655 ] ] } },
{ "type": "Feature", "properties": { "runwayId": "16R - 34L"}, "geometry": { "type": "LineString", "coordinates": [ [ -111.996311080936053, 40.784561787750903 ], [ -111.9965594619309, 40.786616298239593 ] ] } },
{ "type": "Feature", "properties": { "runwayId": "16R - 34L"}, "geometry": { "type": "LineString", "coordinates": [ [ -111.996644989348908, 40.787399585805133 ], [ -111.996862908523653, 40.789281034948608 ] ] } },
{ "type": "Feature", "properties": { "runwayId": "16R - 34L"}, "geometry": { "type": "LineString", "coordinates": [ [ -111.996867594957493, 40.789380383916644 ], [ -111.997270628269845, 40.792928463895294 ] ] } },
{ "type": "Feature", "properties": { "runwayId": "16R - 34L"}, "geometry": { "type": "LineString", "coordinates": [ [ -111.997280586941855, 40.792939107849975 ], [ -111.997522524090144, 40.794904662229548 ] ] } },
{ "type": "Feature", "properties": { "runwayId": "16R - 34L"}, "geometry": { "type": "LineString", "coordinates": [ [ -111.997899782016233, 40.798193465130282 ], [ -111.997660773889137, 40.796130443306154 ] ] } },
{ "type": "Feature", "properties": { "runwayId": "16R - 34L"}, "geometry": { "type": "LineString", "coordinates": [ [ -111.998279383159286, 40.80147146251506 ], [ -111.998040375032176, 40.799422733119819 ] ] } },
{ "type": "Feature", "properties": { "runwayId": "16R - 34L"}, "geometry": { "type": "LineString", "coordinates": [ [ -111.998869873826294, 40.806563744490724 ], [ -111.998926111032688, 40.807060358533761 ] ] } },
{ "type": "Feature", "properties": { "runwayId": "16R - 34L"}, "geometry": { "type": "LineString", "coordinates": [ [ -111.998949543201988, 40.807266097548556 ], [ -111.999015153276105, 40.80780172543993 ] ] } },
{ "type": "Feature", "properties": { "runwayId": "16L - 34R"}, "geometry": { "type": "LineString", "coordinates": [ [ -111.973410821854884, 40.774627208779208 ], [ -111.97344362689195, 40.774939516787647 ], [ -111.973476431929001, 40.775214559556559 ] ] } },
{ "type": "Feature", "properties": { "runwayId": "16L - 34R"}, "geometry": { "type": "LineString", "coordinates": [ [ -111.973490491230606, 40.775344095433937 ], [ -111.973579533474023, 40.776073395454247 ] ] } },
{ "type": "Feature", "properties": { "runwayId": "16L - 34R"}, "geometry": { "type": "LineString", "coordinates": [ [ -111.97415362162252, 40.781036326753231 ], [ -111.974350451844842, 40.782768031029988 ] ] } },
{ "type": "Feature", "properties": { "runwayId": "16L - 34R"}, "geometry": { "type": "LineString", "coordinates": [ [ -111.974655070046055, 40.785379696346098 ], [ -111.974894078173179, 40.787441278089283 ] ] } },
{ "type": "Feature", "properties": { "runwayId": "16L - 34R"}, "geometry": { "type": "LineString", "coordinates": [ [ -111.975567753041261, 40.793206093155206 ], [ -111.975227986586063, 40.790365882147611 ] ] } },
{ "type": "Feature", "properties": { "runwayId": "16L - 34R"}, "geometry": { "type": "LineString", "coordinates": [ [ -111.975563066607421, 40.793255764721465 ], [ -111.975778642565203, 40.795041255452645 ] ] } },
{ "type": "Feature", "properties": { "runwayId": "16L - 34R"}, "geometry": { "type": "LineString", "coordinates": [ [ -111.975947354184342, 40.796510058326 ], [ -111.976023508734656, 40.797181474903567 ] ] } },
{ "type": "Feature", "properties": { "runwayId": "16L - 34R"}, "geometry": { "type": "LineString", "coordinates": [ [ -111.976468719951839, 40.800979241093948 ], [ -111.976616256070713, 40.802117886573505 ] ] } },
{ "type": "Feature", "properties": { "runwayId": "16L - 34R"}, "geometry": { "type": "LineString", "coordinates": [ [ -111.977035778449519, 40.805961594978683 ], [ -111.977136536777621, 40.806727804898159 ] ] } },
{ "type": "Feature", "properties": { "runwayId": "16L - 34R"}, "geometry": { "type": "LineString", "coordinates": [ [ -111.977150596079198, 40.806908714282628 ], [ -111.977206833285592, 40.807375174439919 ] ] } },
{ "type": "Feature", "properties": { "runwayId": "16L - 34R"}, "geometry": { "type": "LineString", "coordinates": [ [ -111.975470509538624, 40.797179701024589 ], [ -111.975403727856047, 40.796627135417509 ] ] } },
{ "type": "Feature", "properties": { "runwayId": "16L - 34R"}, "geometry": { "type": "LineString", "coordinates": [ [ -111.974212202045891, 40.786273884238618 ], [ -111.974123159802446, 40.785569534861743 ] ] } },
{ "type": "Feature", "properties": { "runwayId": "16L - 34R"}, "geometry": { "type": "LineString", "coordinates": [ [ -111.972932805600664, 40.775207461692958 ], [ -111.972869538743495, 40.774694639041655 ] ] } },
{ "type": "Feature", "properties": { "runwayId": "14 - 32"}, "geometry": { "type": "LineString", "coordinates": [ [ -111.970994965197562, 40.784872274846286 ], [ -111.971501100054979, 40.785620986328595 ] ] } },
{ "type": "Feature", "properties": { "runwayId": "14 - 32"}, "geometry": { "type": "LineString", "coordinates": [ [ -111.970991450372452, 40.785822356341356 ], [ -111.970494688382772, 40.785047034087214 ] ] } },
{ "type": "Feature", "properties": { "runwayId": "14 - 32"}, "geometry": { "type": "LineString", "coordinates": [ [ -111.965636028073078, 40.776898506262242 ], [ -111.965122863564844, 40.776121305394355 ] ] } },
{ "type": "Feature", "properties": { "runwayId": "14 - 32"}, "geometry": { "type": "LineString", "coordinates": [ [ -111.965652430591604, 40.777838942643129 ], [ -111.964886198654696, 40.776687349848402 ] ] } },
{ "type": "Feature", "properties": { "runwayId": "17 - 35"}, "geometry": { "type": "LineString", "coordinates": [ [ -111.962765587330765, 40.772623788969817 ], [ -111.963173307077014, 40.773196961302496 ] ] } },
{ "type": "Feature", "properties": { "runwayId": "17 - 35"}, "geometry": { "type": "LineString", "coordinates": [ [ -111.961804868388455, 40.772588298260338 ], [ -111.96181189803923, 40.773173892542495 ] ] } },
{ "type": "Feature", "properties": { "runwayId": "17 - 35"}, "geometry": { "type": "LineString", "coordinates": [ [ -111.962353181150661, 40.776784943232329 ], [ -111.962346151499858, 40.777427281563824 ] ] } },
{ "type": "Feature", "properties": { "runwayId": "17 - 35"}, "geometry": { "type": "LineString", "coordinates": [ [ -111.962360210801521, 40.781820567275361 ], [ -111.962360210801521, 40.780256512799596 ] ] } },
{ "type": "Feature", "properties": { "runwayId": "17 - 35"}, "geometry": { "type": "LineString", "coordinates": [ [ -111.961804868388626, 40.782680204901993 ], [ -111.961799010346297, 40.782146148572899 ] ] } },
{ "type": "Feature", "properties": { "runwayId": "17 - 35"}, "geometry": { "type": "LineString", "coordinates": [ [ -111.961793152303954, 40.786201143213098 ], [ -111.961802525171677, 40.787712720831259 ] ] } },
{ "type": "Feature", "properties": { "runwayId": "17 - 35"}, "geometry": { "type": "LineString", "coordinates": [ [ -111.961800181954757, 40.791801969044201 ], [ -111.961795495520889, 40.791152673565428 ] ] } },
{ "type": "Feature", "properties": { "runwayId": "17 - 35"}, "geometry": { "type": "LineString", "coordinates": [ [ -111.962355524367695, 40.790505145794654 ], [ -111.9623695836693, 40.792935559865292 ] ] } },
{ "type": "Feature", "properties": { "runwayId": "17 - 35"}, "geometry": { "type": "LineString", "coordinates": [ [ -111.961790809086978, 40.797684367680802 ], [ -111.961795495520832, 40.798922514260632 ] ] } },
{ "type": "Feature", "properties": { "runwayId": "17 - 35"}, "geometry": { "type": "LineString", "coordinates": [ [ -111.962357867584643, 40.798803667381726 ], [ -111.9623695836693, 40.798000114990849 ] ] } },
{ "type": "Feature", "properties": { "id": "16R - 34L" }, "geometry": { "type": "Polygon", "coordinates": [ [ [ -111.999019545860108, 40.807803599250647 ], [ -111.999585713992019, 40.807770124014056 ], [ -111.995750616234659, 40.774960025819375 ], [ -111.995212101559062, 40.774999322836244 ], [ -111.999019545860108, 40.807803599250647 ] ] ] } },
{ "type": "Feature", "properties": { "id": "16L - 34R" }, "geometry": { "type": "Polygon", "coordinates": [ [ [ -111.976668275932539, 40.8074732132199 ], [ -111.977212612388414, 40.807442648873447 ], [ -111.973408078977585, 40.774631095233694 ], [ -111.972866653411842, 40.774667481360424 ], [ -111.976668275932539, 40.8074732132199 ] ] ] } },
{ "type": "Feature", "properties": { "id": "14 - 32" }, "geometry": { "type": "Polygon", "coordinates": [ [ [ -111.971006594613442, 40.785820556925628 ], [ -111.971495624156688, 40.785629893621568 ], [ -111.963474848311051, 40.773666499014119 ], [ -111.962990912825546, 40.773855706873107 ], [ -111.971006594613442, 40.785820556925628 ] ] ] } },
{ "type": "Feature", "properties": { "id": "17 - 35" }, "geometry": { "type": "Polygon", "coordinates": [ [ [ -111.961804725094126, 40.798924292744786 ], [ -111.962357794220409, 40.79892283729972 ], [ -111.962351972440104, 40.772586558772751 ], [ -111.96180618053917, 40.772588014217817 ], [ -111.961804725094126, 40.798924292744786 ] ] ] } },
{ "type": "Feature", "properties": { "runwayId": "17 - 35"}, "geometry": { "type": "LineString", "coordinates": [ [ -111.96235435275922, 40.787264751004848 ], [ -111.962363725626943, 40.786173643536372 ] ] } },
{ "type": "Feature", "properties": { "runwayId": "17 - 35", "crossRunwayId": "14 - 32"}, "geometry": { "type": "LineString", "coordinates": [ [ -111.963664796828837, 40.773952015140807 ], [ -111.963183265749223, 40.774140111824209 ] ] } },
{ "type": "Feature", "properties": { "runwayId": "14 - 32", "crossRunwayId": "17 - 35"}, "geometry": { "type": "LineString", "coordinates": [ [ -111.962348494716963, 40.773711126393586 ], [ -111.961808383214048, 40.773712457273035 ] ] } }
]
}
