{
"type": "FeatureCollection",
"features": [
{ "type": "Feature", "properties": { "id": "1L - 19R" }, "geometry": { "type": "MultiPolygon", "coordinates": [ [ [ [ -82.542590800793732, 27.963305923878945 ], [ -82.541564047004627, 27.993553491695991 ], [ -82.541096700316615, 27.993540061275457 ], [ -82.542124574841168, 27.963292348278888 ], [ -82.542590800793732, 27.963305923878945 ] ] ] ] } },{ "type": "Feature", "properties": { "id": "1R - 19L" }, "geometry": { "type": "MultiPolygon", "coordinates": [ [ [ [ -82.529228271869414, 27.964321543615604 ], [ -82.528450801668271, 27.987141477265261 ], [ -82.527983615085319, 27.987128470189667 ], [ -82.528760765076328, 27.964307685320954 ], [ -82.529228271869414, 27.964321543615604 ] ] ] ] } },{ "type": "Feature", "properties": { "id": "10 - 28" }, "geometry": { "type": "MultiPolygon", "coordinates": [ [ [ [ -82.53607948785924, 27.971043455196316 ], [ -82.514405744846997, 27.970457906467775 ], [ -82.514419193672538, 27.970044160147015 ], [ -82.536094537735451, 27.970628579897898 ], [ -82.53607948785924, 27.971043455196316 ] ] ] ] } },
{ "type": "Feature", "properties": { "id": null, "runwayId": "1L - 19R", "crossRunwayId": null, "taxiwayId": null }, "geometry": { "type": "MultiLineString", "coordinates": [ [ [ -82.542124574841168, 27.963292348278888 ], [ -82.542074622060554, 27.964759846618833 ] ] ] } },
{ "type": "Feature", "properties": { "id": null, "runwayId": "1L - 19R", "crossRunwayId": null, "taxiwayId": null }, "geometry": { "type": "MultiLineString", "coordinates": [ [ [ -82.541937572123928, 27.968791669944252 ], [ -82.541909553737383, 27.969616908137517 ] ] ] } },
{ "type": "Feature", "properties": { "id": null, "runwayId": "1L - 19R", "crossRunwayId": null, "taxiwayId": null }, "geometry": { "type": "MultiLineString", "coordinates": [ [ [ -82.541786432941535, 27.973238068079226 ], [ -82.541696053631682, 27.975897264540951 ] ] ] } },
{ "type": "Feature", "properties": { "id": null, "runwayId": "1L - 19R", "crossRunwayId": null, "taxiwayId": null }, "geometry": { "type": "MultiLineString", "coordinates": [ [ [ -82.541684526066888, 27.976232655307719 ], [ -82.541582298982092, 27.9792425710882 ] ] ] } },
{ "type": "Feature", "properties": { "id": null, "runwayId": "1L - 19R", "crossRunwayId": null, "taxiwayId": null }, "geometry": { "type": "MultiLineString", "coordinates": [ [ [ -82.541522980055106, 27.980992560780102 ], [ -82.541428197855964, 27.983778601150874 ] ] ] } },
{ "type": "Feature", "properties": { "id": null, "runwayId": "1L - 19R", "crossRunwayId": null, "taxiwayId": null }, "geometry": { "type": "MultiLineString", "coordinates": [ [ [ -82.541362634831387, 27.985710972309793 ], [ -82.541303876272096, 27.987437458502452 ] ] ] } },
{ "type": "Feature", "properties": { "id": null, "runwayId": "1L - 19R", "crossRunwayId": null, "taxiwayId": null }, "geometry": { "type": "MultiLineString", "coordinates": [ [ [ -82.541142730523021, 27.992181176814615 ], [ -82.541096700316615, 27.993540061275457 ] ] ] } },
{ "type": "Feature", "properties": { "id": null, "runwayId": "1R - 19L", "crossRunwayId": null, "taxiwayId": null }, "geometry": { "type": "MultiLineString", "coordinates": [ [ [ -82.529228271869414, 27.964321543615604 ], [ -82.529181521189514, 27.965697748258766 ] ] ] } },
{ "type": "Feature", "properties": { "id": null, "runwayId": "1R - 19L", "crossRunwayId": null, "taxiwayId": null }, "geometry": { "type": "MultiLineString", "coordinates": [ [ [ -82.529093783613277, 27.968265853043256 ], [ -82.52903630589455, 27.96995903510923 ] ] ] } },
{ "type": "Feature", "properties": { "id": null, "runwayId": "1R - 19L", "crossRunwayId": null, "taxiwayId": null }, "geometry": { "type": "MultiLineString", "coordinates": [ [ [ -82.5289858727987, 27.971441360681261 ], [ -82.528912384573331, 27.973593616474606 ] ] ] } },
{ "type": "Feature", "properties": { "id": null, "runwayId": "1R - 19L", "crossRunwayId": null, "taxiwayId": null }, "geometry": { "type": "MultiLineString", "coordinates": [ [ [ -82.528881804505716, 27.974502101285541 ], [ -82.528839056453037, 27.975750919592009 ] ] ] } },
{ "type": "Feature", "properties": { "id": null, "runwayId": "1R - 19L", "crossRunwayId": null, "taxiwayId": null }, "geometry": { "type": "MultiLineString", "coordinates": [ [ [ -82.5286818332781, 27.980369668374614 ], [ -82.528655255837151, 27.9811518357205 ] ] ] } },
{ "type": "Feature", "properties": { "id": null, "runwayId": "1R - 19L", "crossRunwayId": null, "taxiwayId": null }, "geometry": { "type": "MultiLineString", "coordinates": [ [ [ -82.528511961802948, 27.985356665619527 ], [ -82.528483703258743, 27.986181706392667 ] ] ] } },
{ "type": "Feature", "properties": { "id": null, "runwayId": "1R - 19L", "crossRunwayId": null, "taxiwayId": null }, "geometry": { "type": "MultiLineString", "coordinates": [ [ [ -82.528469053645196, 27.986607408279308 ], [ -82.528450801668271, 27.987141477265261 ] ] ] } },
{ "type": "Feature", "properties": { "id": null, "runwayId": "1R - 19L", "crossRunwayId": null, "taxiwayId": null }, "geometry": { "type": "MultiLineString", "coordinates": [ [ [ -82.527983615085319, 27.987128470189667 ], [ -82.527995542912109, 27.986774097467453 ] ] ] } },
{ "type": "Feature", "properties": { "id": null, "runwayId": "1R - 19L", "crossRunwayId": null, "taxiwayId": null }, "geometry": { "type": "MultiLineString", "coordinates": [ [ [ -82.528202558762601, 27.980695642819647 ], [ -82.52821985010975, 27.980184800625189 ] ] ] } },
{ "type": "Feature", "properties": { "id": null, "runwayId": "1R - 19L", "crossRunwayId": null, "taxiwayId": null }, "geometry": { "type": "MultiLineString", "coordinates": [ [ [ -82.528455204556977, 27.973281053511158 ], [ -82.528472656009185, 27.97276437879599 ] ] ] } },
{ "type": "Feature", "properties": { "id": null, "runwayId": "1R - 19L", "crossRunwayId": null, "taxiwayId": null }, "geometry": { "type": "MultiLineString", "coordinates": [ [ [ -82.528489547093685, 27.972269053121014 ], [ -82.528516524797311, 27.971473388191061 ] ] ] } },
{ "type": "Feature", "properties": { "id": null, "runwayId": "1R - 19L", "crossRunwayId": null, "taxiwayId": null }, "geometry": { "type": "MultiLineString", "coordinates": [ [ [ -82.528568398838743, 27.969947227893456 ], [ -82.528624835874595, 27.968296043218309 ] ] ] } },
{ "type": "Feature", "properties": { "id": null, "runwayId": "1R - 19L", "crossRunwayId": null, "taxiwayId": null }, "geometry": { "type": "MultiLineString", "coordinates": [ [ [ -82.52871377423881, 27.965683183093869 ], [ -82.528760765076328, 27.964307685320954 ] ] ] } },
{ "type": "Feature", "properties": { "id": null, "runwayId": "10 - 28", "crossRunwayId": null, "taxiwayId": null }, "geometry": { "type": "MultiLineString", "coordinates": [ [ [ -82.536079487859226, 27.971043455196316 ], [ -82.535597491557397, 27.971030446179267 ] ] ] } },
{ "type": "Feature", "properties": { "id": null, "runwayId": "10 - 28", "crossRunwayId": null, "taxiwayId": null }, "geometry": { "type": "MultiLineString", "coordinates": [ [ [ -82.530526003482436, 27.970893710001736 ], [ -82.529491564650129, 27.970865570890961 ] ] ] } },
{ "type": "Feature", "properties": { "id": null, "runwayId": "10 - 28", "crossRunwayId": null, "taxiwayId": null }, "geometry": { "type": "MultiLineString", "coordinates": [ [ [ -82.527952314544294, 27.970823998522935 ], [ -82.526302111627643, 27.970779456682248 ] ] ] } },
{ "type": "Feature", "properties": { "id": null, "runwayId": "10 - 28", "crossRunwayId": null, "taxiwayId": null }, "geometry": { "type": "MultiLineString", "coordinates": [ [ [ -82.522579508734893, 27.97067891931713 ], [ -82.521737516192076, 27.970656224160567 ] ] ] } },
{ "type": "Feature", "properties": { "id": null, "runwayId": "10 - 28", "crossRunwayId": null, "taxiwayId": null }, "geometry": { "type": "MultiLineString", "coordinates": [ [ [ -82.517038032238247, 27.970529244317998 ], [ -82.516150249646486, 27.970505347203954 ] ] ] } },
{ "type": "Feature", "properties": { "id": null, "runwayId": "10 - 28", "crossRunwayId": null, "taxiwayId": null }, "geometry": { "type": "MultiLineString", "coordinates": [ [ [ -82.514973637515453, 27.970473460809856 ], [ -82.514405744846997, 27.970457906467775 ] ] ] } },
{ "type": "Feature", "properties": { "id": null, "runwayId": "10 - 28", "crossRunwayId": null, "taxiwayId": null }, "geometry": { "type": "MultiLineString", "coordinates": [ [ [ -82.514419193672538, 27.970044160147015 ], [ -82.514987486603673, 27.970059290337808 ] ] ] } },
{ "type": "Feature", "properties": { "id": null, "runwayId": "10 - 28", "crossRunwayId": null, "taxiwayId": null }, "geometry": { "type": "MultiLineString", "coordinates": [ [ [ -82.522511544134289, 27.97026220437305 ], [ -82.521733913828072, 27.970241064566267 ] ] ] } },
{ "type": "Feature", "properties": { "id": null, "runwayId": "10 - 28", "crossRunwayId": null, "taxiwayId": null }, "geometry": { "type": "MultiLineString", "coordinates": [ [ [ -82.526217255942598, 27.970362176513476 ], [ -82.528053981261294, 27.97041152623467 ] ] ] } },
{ "type": "Feature", "properties": { "id": null, "runwayId": "10 - 28", "crossRunwayId": null, "taxiwayId": null }, "geometry": { "type": "MultiLineString", "coordinates": [ [ [ -82.529661916440546, 27.970455078405386 ], [ -82.530387192390165, 27.970474450631514 ] ] ] } },
{ "type": "Feature", "properties": { "id": null, "runwayId": "1R - 19L", "crossRunwayId": "10 - 28", "taxiwayId": null }, "geometry": { "type": "MultiLineString", "coordinates": [ [ [ -82.529005785590783, 27.970852348877294 ], [ -82.529019907443839, 27.97043783104456 ] ] ] } },
{ "type": "Feature", "properties": { "id": null, "runwayId": "1R - 19L", "crossRunwayId": "10 - 28", "taxiwayId": null }, "geometry": { "type": "MultiLineString", "coordinates": [ [ [ -82.528538336793062, 27.970839720056841 ], [ -82.528552451468641, 27.970425227346638 ] ] ] } },
{ "type": "Feature", "properties": { "id": null, "runwayId": "10 - 28", "crossRunwayId": "1R - 19L", "taxiwayId": null }, "geometry": { "type": "MultiLineString", "coordinates": [ [ [ -82.529019907443839, 27.97043783104456 ], [ -82.528552451468641, 27.970425227346638 ] ] ] } },
{ "type": "Feature", "properties": { "id": null, "runwayId": "10 - 28", "crossRunwayId": "1R - 19L", "taxiwayId": null }, "geometry": { "type": "MultiLineString", "coordinates": [ [ [ -82.528538336793048, 27.970839720056833 ], [ -82.529005785590783, 27.970852348877294 ] ] ] } }]}
