{
"type": "FeatureCollection",
"name": "HNL Safety Logic",
"crs": { "type": "name", "properties": { "name": "urn:ogc:def:crs:OGC:1.3:CRS84" } },
"features": [
{ "type": "Feature", "properties": { "id": "8R - 26L" }, "geometry": { "type": "Polygon", "coordinates": [ [ [ -157.945882530591689, 21.307082998266996 ], [ -157.945886959592116, 21.30653479387059 ], [ -157.910630217832988, 21.306528309720338 ], [ -157.910630850547278, 21.307082998266988 ], [ -157.945882530591689, 21.307082998266996 ] ] ] } },
{ "type": "Feature", "properties": { "id": "4R - 22L" }, "geometry": { "type": "Polygon", "coordinates": [ [ [ -157.927302873685903, 21.314073898577746 ], [ -157.927034602801228, 21.313741455205143 ], [ -157.90590700520562, 21.328651153905668 ], [ -157.906167683518106, 21.328985921026472 ], [ -157.927302873685903, 21.314073898577746 ] ] ] } },
{ "type": "Feature", "properties": { "id": "4L - 22R" }, "geometry": { "type": "Polygon", "coordinates": [ [ [ -157.923486340723002, 21.318489901195676 ], [ -157.923221866124464, 21.318162183193383 ], [ -157.906897835878624, 21.329681385490918 ], [ -157.90716610676327, 21.330013792765591 ], [ -157.923486340723002, 21.318489901195676 ] ] ] } },
{ "type": "Feature", "properties": { "id": "8L - 26R" }, "geometry": { "type": "Polygon", "coordinates": [ [ [ -157.943256133322194, 21.325440179771821 ], [ -157.943266256751798, 21.325034677307798 ], [ -157.90709777361343, 21.324954519711362 ], [ -157.907092711898599, 21.325517979535086 ], [ -157.943256133322194, 21.325440179771821 ] ] ] } },
{ "type": "Feature", "properties": { "runwayId": "8L - 26R" }, "geometry": { "type": "LineString", "coordinates": [ [ -157.943261195037024, 21.32544253737996 ], [ -157.942742369269553, 21.32544489493937 ], [ -157.942317817940051, 21.325444894910156 ] ] } },
{ "type": "Feature", "properties": { "runwayId": "8L - 26R" }, "geometry": { "type": "LineString", "coordinates": [ [ -157.942155210352098, 21.325447251817586 ], [ -157.939829985113448, 21.325454325186385 ] ] } },
{ "type": "Feature", "properties": { "runwayId": "8L - 26R" }, "geometry": { "type": "LineString", "coordinates": [ [ -157.929078270153667, 21.325482616019933 ], [ -157.927109263094565, 21.325484973579954 ] ] } },
{ "type": "Feature", "properties": { "runwayId": "8L - 26R" }, "geometry": { "type": "LineString", "coordinates": [ [ -157.923264890700011, 21.32548556297202 ], [ -157.922090572865272, 21.325497350813936 ] ] } },
{ "type": "Feature", "properties": { "runwayId": "8L - 26R" }, "geometry": { "type": "LineString", "coordinates": [ [ -157.920121565806141, 21.325497350813936 ], [ -157.919395209731647, 21.32549970838221 ] ] } },
{ "type": "Feature", "properties": { "runwayId": "8L - 26R" }, "geometry": { "type": "LineString", "coordinates": [ [ -157.918856137104967, 21.325497350813944 ], [ -157.91768688098503, 21.325506781086798 ] ] } },
{ "type": "Feature", "properties": { "runwayId": "8L - 26R" }, "geometry": { "type": "LineString", "coordinates": [ [ -157.913559052561595, 21.325520337102972 ], [ -157.913166769664485, 21.325777311841318 ] ] } },
{ "type": "Feature", "properties": { "runwayId": "8L - 26R" }, "geometry": { "type": "LineString", "coordinates": [ [ -157.908514421044146, 21.325520926494971 ], [ -157.907729855249414, 21.325535071901758 ] ] } },
{ "type": "Feature", "properties": { "runwayId": "8L - 26R" }, "geometry": { "type": "LineString", "coordinates": [ [ -157.90996460233572, 21.324957466682566 ], [ -157.908866842937726, 21.324955698574382 ] ] } },
{ "type": "Feature", "properties": { "runwayId": "8L - 26R" }, "geometry": { "type": "LineString", "coordinates": [ [ -157.913567277848273, 21.324963950368687 ], [ -157.913276861961293, 21.324962771230641 ] ] } },
{ "type": "Feature", "properties": { "runwayId": "8L - 26R" }, "geometry": { "type": "LineString", "coordinates": [ [ -157.917745090705239, 21.324972790931994 ], [ -157.916687192311031, 21.324968075778486 ] ] } },
{ "type": "Feature", "properties": { "runwayId": "8L - 26R" }, "geometry": { "type": "LineString", "coordinates": [ [ -157.922513226051478, 21.324984578815105 ], [ -157.921616037102325, 21.324981042450275 ] ] } },
{ "type": "Feature", "properties": { "runwayId": "8L - 26R" }, "geometry": { "type": "LineString", "coordinates": [ [ -157.92327754498703, 21.324989293968084 ], [ -157.922616991204961, 21.324986936391614 ] ] } },
{ "type": "Feature", "properties": { "runwayId": "8L - 26R" }, "geometry": { "type": "LineString", "coordinates": [ [ -157.927689462153893, 21.324989883362228 ], [ -157.926869464355519, 21.324994598515033 ] ] } },
{ "type": "Feature", "properties": { "runwayId": "8L - 26R" }, "geometry": { "type": "LineString", "coordinates": [ [ -157.94326372589444, 21.325029962165221 ], [ -157.941680041874662, 21.325025247004593 ] ] } },
{ "type": "Feature", "properties": { "runwayId": "8R - 26L" }, "geometry": { "type": "LineString", "coordinates": [ [ -157.94590341016513, 21.307090071869691 ], [ -157.945274492100509, 21.307090661324636 ] ] } },
{ "type": "Feature", "properties": { "runwayId": "8R - 26L" }, "geometry": { "type": "LineString", "coordinates": [ [ -157.944978381784495, 21.30708594559686 ], [ -157.944021717686326, 21.307090661324636 ] ] } },
{ "type": "Feature", "properties": { "runwayId": "8R - 26L" }, "geometry": { "type": "LineString", "coordinates": [ [ -157.935495259097507, 21.30708830346077 ], [ -157.933673041767719, 21.307093019188464 ] ] } },
{ "type": "Feature", "properties": { "runwayId": "8R - 26L" }, "geometry": { "type": "LineString", "coordinates": [ [ -157.922914366949954, 21.30709066132464 ], [ -157.921018754755522, 21.30708594559686 ] ] } },
{ "type": "Feature", "properties": { "runwayId": "8R - 26L" }, "geometry": { "type": "LineString", "coordinates": [ [ -157.912460660449199, 21.30708771400591 ], [ -157.911578656644423, 21.307090661324636 ] ] } },
{ "type": "Feature", "properties": { "runwayId": "8R - 26L" }, "geometry": { "type": "LineString", "coordinates": [ [ -157.911274953756106, 21.307093019188461 ], [ -157.910639708548103, 21.307088303460766 ] ] } },
{ "type": "Feature", "properties": { "runwayId": "4R - 22L" }, "geometry": { "type": "LineString", "coordinates": [ [ -157.927032071943614, 21.313749117915407 ], [ -157.92639935759297, 21.314180586805474 ] ] } },
{ "type": "Feature", "properties": { "runwayId": "4R - 22L" }, "geometry": { "type": "LineString", "coordinates": [ [ -157.922567639485692, 21.316896689724771 ], [ -157.921815974837187, 21.317422457315622 ] ] } },
{ "type": "Feature", "properties": { "runwayId": "4R - 22L" }, "geometry": { "type": "LineString", "coordinates": [ [ -157.91928195386285, 21.319214886263399 ], [ -157.918489795495901, 21.319759506837453 ] ] } },
{ "type": "Feature", "properties": { "runwayId": "4R - 22L" }, "geometry": { "type": "LineString", "coordinates": [ [ -157.915550204622946, 21.321846021507234 ], [ -157.914835237406777, 21.322349373995756 ] ] } },
{ "type": "Feature", "properties": { "runwayId": "4R - 22L" }, "geometry": { "type": "LineString", "coordinates": [ [ -157.91247141659295, 21.324017969256104 ], [ -157.912190491421285, 21.324214828060558 ] ] } },
{ "type": "Feature", "properties": { "runwayId": "4R - 22L" }, "geometry": { "type": "LineString", "coordinates": [ [ -157.906487204264835, 21.328232104549542 ], [ -157.906001279643561, 21.328583375258273 ] ] } },
{ "type": "Feature", "properties": { "runwayId": "4R - 22L" }, "geometry": { "type": "LineString", "coordinates": [ [ -157.906880119876519, 21.328488485099381 ], [ -157.906290430101762, 21.328915195642004 ] ] } },
{ "type": "Feature", "properties": { "runwayId": "4R - 22L" }, "geometry": { "type": "LineString", "coordinates": [ [ -157.91474602468341, 21.322943492744834 ], [ -157.913388219686993, 21.323897142613621 ] ] } },
{ "type": "Feature", "properties": { "runwayId": "4R - 22L" }, "geometry": { "type": "LineString", "coordinates": [ [ -157.915826068079895, 21.322177267718487 ], [ -157.915119958864636, 21.322680619071125 ] ] } },
{ "type": "Feature", "properties": { "runwayId": "4R - 22L" }, "geometry": { "type": "LineString", "coordinates": [ [ -157.919396475160625, 21.319664610973703 ], [ -157.918665057371328, 21.320180938037929 ] ] } },
{ "type": "Feature", "properties": { "runwayId": "4R - 22L" }, "geometry": { "type": "LineString", "coordinates": [ [ -157.92258535548757, 21.31741125863611 ], [ -157.922104492581212, 21.317750176969078 ] ] } },
{ "type": "Feature", "properties": { "runwayId": "4L - 22R" }, "geometry": { "type": "LineString", "coordinates": [ [ -157.923156063831868, 21.318192832964051 ], [ -157.922875138660117, 21.318387342294628 ] ] } },
{ "type": "Feature", "properties": { "runwayId": "4R - 22L" }, "geometry": { "type": "LineString", "coordinates": [ [ -157.919955794646569, 21.320466213856204 ], [ -157.919267401433103, 21.320944815843305 ] ] } },
{ "type": "Feature", "properties": { "runwayId": "4R - 22L" }, "geometry": { "type": "LineString", "coordinates": [ [ -157.916542300724785, 21.322869228032712 ], [ -157.915550204623031, 21.323562363884623 ] ] } },
{ "type": "Feature", "properties": { "runwayId": "4L - 22R" }, "geometry": { "type": "LineString", "coordinates": [ [ -157.90725468677212, 21.329414987627889 ], [ -157.906890243306151, 21.329671955486294 ] ] } },
{ "type": "Feature", "properties": { "runwayId": "4L - 22R" }, "geometry": { "type": "LineString", "coordinates": [ [ -157.907524855799807, 21.329769202379556 ], [ -157.907173066620885, 21.330016739635202 ] ] } },
{ "type": "Feature", "properties": { "runwayId": "4R - 22L" }, "geometry": { "type": "LineString", "coordinates": [ [ -157.916847269041767, 21.323183968697688 ], [ -157.916007024384157, 21.323775726472689 ] ] } },
{ "type": "Feature", "properties": { "runwayId": "4R - 22L" }, "geometry": { "type": "LineString", "coordinates": [ [ -157.92012219852046, 21.320881748921945 ], [ -157.919499607599477, 21.321320269758253 ] ] } },
{ "type": "Feature", "properties": { "runwayId": "4R - 22L" }, "geometry": { "type": "LineString", "coordinates": [ [ -157.923461664863083, 21.318510530901502 ], [ -157.923047869677788, 21.318804061831212 ] ] } },
{ "type": "Feature", "properties": { "runwayId": "4L - 22R", "crossRunwayId": "8L - 26R" }, "geometry": { "type": "LineString", "coordinates": [ [ -157.913558419847305, 21.325511496222983 ], [ -157.914322738782829, 21.324973969720332 ] ] } },
{ "type": "Feature", "properties": { "runwayId": "4R - 22L", "crossRunwayId": "8L - 26R" }, "geometry": { "type": "LineString", "coordinates": [ [ -157.91110348816693, 21.325518568927006 ], [ -157.911867807102453, 21.324966896990066 ] ] } },
{ "type": "Feature", "properties": { "runwayId": "8L - 26R", "crossRunwayId": "4L - 22R" }, "geometry": { "type": "LineString", "coordinates": [ [ -157.914301226494899, 21.324971023254385 ], [ -157.9136071388522, 21.324959234865258 ] ] } },
{ "type": "Feature", "properties": { "runwayId": "8L - 26R", "crossRunwayId": "4R - 22L" }, "geometry": { "type": "LineString", "coordinates": [ [ -157.911867174388163, 21.324964539413244 ], [ -157.911146512742846, 21.324959824259466 ] ] } },
{ "type": "Feature", "properties": { "runwayId": "4L - 22R", "crossRunwayId": "8L - 26R" }, "geometry": { "type": "LineString", "coordinates": [ [ -157.912806755198773, 21.325506781086787 ], [ -157.913578666706542, 21.324969254566867 ] ] } },
{ "type": "Feature", "properties": { "runwayId": "8L - 26R", "crossRunwayId": "4L - 22R" }, "geometry": { "type": "LineString", "coordinates": [ [ -157.913550827275117, 21.325516211359034 ], [ -157.912824471200594, 21.325511496222983 ] ] } },
{ "type": "Feature", "properties": { "runwayId": "4R - 22L", "crossRunwayId": "8L - 26R" }, "geometry": { "type": "LineString", "coordinates": [ [ -157.910329045801802, 21.325513853778908 ], [ -157.911141451028044, 21.324969254566867 ] ] } },
{ "type": "Feature", "properties": { "runwayId": "8L - 26R", "crossRunwayId": "4R - 22L" }, "geometry": { "type": "LineString", "coordinates": [ [ -157.911095895594656, 21.325520926521857 ], [ -157.910346761803538, 21.32551149621446 ] ] } }
]
}
