{
"type": "FeatureCollection",
"name": "ATL ASDE-X Safety Logic",
"crs": { "type": "name", "properties": { "name": "urn:ogc:def:crs:OGC:1.3:CRS84" } },
"features": [
{ "type": "Feature", "properties": { "id": "10 - 28", "runwayId": null }, "geometry": { "type": "Polygon", "coordinates": [ [ [ -84.447883082079287, 33.620483323637245 ], [ -84.447883297214773, 33.620071468207726 ], [ -84.41831210319144, 33.620082784335764 ], [ -84.418313049787656, 33.620491154569983 ], [ -84.447883082079287, 33.620483323637245 ] ] ] } },
{ "type": "Feature", "properties": { "id": "9R - 27L", "runwayId": null }, "geometry": { "type": "Polygon", "coordinates": [ [ [ -84.447967544282506, 33.632022697839183 ], [ -84.447974815862935, 33.631610842409671 ], [ -84.418403578812402, 33.631622330646174 ], [ -84.418395876960915, 33.63203418607565 ], [ -84.447967544282506, 33.632022697839183 ] ] ] } },
{ "type": "Feature", "properties": { "id": "9L - 27R", "runwayId": null }, "geometry": { "type": "Polygon", "coordinates": [ [ [ -84.447975074025365, 33.634914183698584 ], [ -84.447974815862764, 33.634506351303237 ], [ -84.407264485749252, 33.6345022422149 ], [ -84.407264292127294, 33.634910569421955 ], [ -84.447975074025365, 33.634914183698584 ] ] ] } },
{ "type": "Feature", "properties": { "id": "8R - 26L", "runwayId": null }, "geometry": { "type": "Polygon", "coordinates": [ [ [ -84.438369617507092, 33.646998926430619 ], [ -84.438368240639718, 33.646588619976789 ], [ -84.405509818977336, 33.646595160096425 ], [ -84.405517563855796, 33.647006843417515 ], [ -84.438369617507092, 33.646998926430619 ] ] ] } },
{ "type": "Feature", "properties": { "id": "8L - 26R", "runwayId": null }, "geometry": { "type": "Polygon", "coordinates": [ [ [ -84.43904153, 33.64974647 ], [ -84.439043683265695, 33.649346926328477 ], [ -84.409456873265697, 33.649359316328479 ], [ -84.40945472, 33.64975335 ], [ -84.43904153, 33.64974647 ] ] ] } },
{ "type": "Feature", "properties": { "id": null, "runwayId": "8L - 26R" }, "geometry": { "type": "LineString", "coordinates": [ [ -84.409468571376721, 33.649348199353447 ], [ -84.410158395417113, 33.649347792497629 ] ] } },
{ "type": "Feature", "properties": { "id": null, "runwayId": "8L - 26R" }, "geometry": { "type": "LineString", "coordinates": [ [ -84.410421224275922, 33.649347385641796 ], [ -84.411237783903772, 33.649347589069698 ] ] } },
{ "type": "Feature", "properties": { "id": null, "runwayId": "8L - 26R" }, "geometry": { "type": "LineString", "coordinates": [ [ -84.41677081960826, 33.649345453076634 ], [ -84.418896234404428, 33.64934463936499 ] ] } },
{ "type": "Feature", "properties": { "id": null, "runwayId": "8L - 26R" }, "geometry": { "type": "LineString", "coordinates": [ [ -84.409454738278896, 33.649754648316183 ], [ -84.410156564565952, 33.649753834604567 ] ] } },
{ "type": "Feature", "properties": { "id": null, "runwayId": "8L - 26R" }, "geometry": { "type": "LineString", "coordinates": [ [ -84.421891913796614, 33.649749969474264 ], [ -84.422867554049517, 33.649749562618439 ] ] } },
{ "type": "Feature", "properties": { "id": null, "runwayId": "8L - 26R" }, "geometry": { "type": "LineString", "coordinates": [ [ -84.422945670366659, 33.649749562618439 ], [ -84.423910732368327, 33.64975037633009 ] ] } },
{ "type": "Feature", "properties": { "id": null, "runwayId": "8L - 26R" }, "geometry": { "type": "LineString", "coordinates": [ [ -84.428266123906084, 33.649748952334704 ], [ -84.429268413215141, 33.649749155762635 ] ] } },
{ "type": "Feature", "properties": { "id": null, "runwayId": "8L - 26R" }, "geometry": { "type": "LineString", "coordinates": [ [ -84.438309563215299, 33.649744680348654 ], [ -84.439041700260802, 33.64974651119983 ] ] } },
{ "type": "Feature", "properties": { "id": null, "runwayId": "8L - 26R" }, "geometry": { "type": "LineString", "coordinates": [ [ -84.42159694332814, 33.649343927367347 ], [ -84.422862671779711, 33.64934514793481 ] ] } },
{ "type": "Feature", "properties": { "id": null, "runwayId": "8L - 26R" }, "geometry": { "type": "LineString", "coordinates": [ [ -84.422942415520126, 33.649340672520808 ], [ -84.423956707075789, 33.649342706799906 ] ] } },
{ "type": "Feature", "properties": { "id": null, "runwayId": "8L - 26R" }, "geometry": { "type": "LineString", "coordinates": [ [ -84.425335948300827, 33.649342096516143 ], [ -84.427333203514152, 33.649341689660339 ] ] } },
{ "type": "Feature", "properties": { "id": null, "runwayId": "8L - 26R" }, "geometry": { "type": "LineString", "coordinates": [ [ -84.430413305488585, 33.649339451953338 ], [ -84.432444000144358, 33.649338578071628 ] ] } },
{ "type": "Feature", "properties": { "id": null, "runwayId": "8L - 26R" }, "geometry": { "type": "LineString", "coordinates": [ [ -84.436866496483901, 33.649335993678896 ], [ -84.437561914791758, 33.649336705676596 ] ] } },
{ "type": "Feature", "properties": { "id": null, "runwayId": "8L - 26R" }, "geometry": { "type": "LineString", "coordinates": [ [ -84.438357368773978, 33.649337214246358 ], [ -84.439031122009524, 33.649336400534722 ] ] } },
{ "type": "Feature", "properties": { "id": null, "runwayId": "8L - 26R" }, "geometry": { "type": "LineString", "coordinates": [ [ -84.418117308939841, 33.649751291755663 ], [ -84.41713201, 33.649751495183587 ] ] } },
{ "type": "Feature", "properties": { "id": null, "runwayId": "8R - 26L" }, "geometry": { "type": "LineString", "coordinates": [ [ -84.438369634841351, 33.646998953464454 ], [ -84.437619748710389, 33.646999048821286 ] ] } },
{ "type": "Feature", "properties": { "id": null, "runwayId": "8R - 26L" }, "geometry": { "type": "LineString", "coordinates": [ [ -84.435811706880415, 33.646999315820423 ], [ -84.436597447180361, 33.646999697247743 ] ] } },
{ "type": "Feature", "properties": { "id": null, "runwayId": "8R - 26L" }, "geometry": { "type": "LineString", "coordinates": [ [ -84.4367870165634, 33.646589281440605 ], [ -84.435976864914281, 33.646588900013263 ] ] } },
{ "type": "Feature", "properties": { "id": null, "runwayId": "8R - 26L" }, "geometry": { "type": "LineString", "coordinates": [ [ -84.405509796703726, 33.646595181644649 ], [ -84.40634079574032, 33.646595038609405 ] ] } },
{ "type": "Feature", "properties": { "id": null, "runwayId": "8R - 26L" }, "geometry": { "type": "LineString", "coordinates": [ [ -84.406259265648515, 33.647006980125873 ], [ -84.405517484848389, 33.647007266196383 ] ] } },
{ "type": "Feature", "properties": { "id": null, "runwayId": "8R - 26L" }, "geometry": { "type": "LineString", "coordinates": [ [ -84.407417279022596, 33.646595324679907 ], [ -84.408657108558984, 33.646594180397926 ] ] } },
{ "type": "Feature", "properties": { "id": null, "runwayId": "8R - 26L" }, "geometry": { "type": "LineString", "coordinates": [ [ -84.416039157748287, 33.647004405491423 ], [ -84.41720575323734, 33.647004119420934 ] ] } },
{ "type": "Feature", "properties": { "id": null, "runwayId": "8R - 26L" }, "geometry": { "type": "LineString", "coordinates": [ [ -84.415985376494746, 33.646593107633585 ], [ -84.417930941948555, 33.646592678527824 ] ] } },
{ "type": "Feature", "properties": { "id": null, "runwayId": "8R - 26L" }, "geometry": { "type": "LineString", "coordinates": [ [ -84.421826077843164, 33.647002546033178 ], [ -84.422803294662828, 33.6470025460332 ] ] } },
{ "type": "Feature", "properties": { "id": null, "runwayId": "8R - 26L" }, "geometry": { "type": "LineString", "coordinates": [ [ -84.43836825216728, 33.646588699764081 ], [ -84.437548793691732, 33.646588496336172 ] ] } },
{ "type": "Feature", "properties": { "id": null, "runwayId": "8R - 26L" }, "geometry": { "type": "LineString", "coordinates": [ [ -84.42282846886657, 33.647002546033178 ], [ -84.423898944668423, 33.647002546033185 ] ] } },
{ "type": "Feature", "properties": { "id": null, "runwayId": "8R - 26L" }, "geometry": { "type": "LineString", "coordinates": [ [ -84.422868661771489, 33.646592320939689 ], [ -84.42374661212844, 33.64659103362245 ] ] } },
{ "type": "Feature", "properties": { "id": null, "runwayId": "8R - 26L" }, "geometry": { "type": "LineString", "coordinates": [ [ -84.425829276868271, 33.646591677281073 ], [ -84.423747684892888, 33.64659146272821 ] ] } },
{ "type": "Feature", "properties": { "id": null, "runwayId": "8R - 26L" }, "geometry": { "type": "LineString", "coordinates": [ [ -84.422837551604928, 33.646592320939703 ], [ -84.421924414576736, 33.646591891833964 ] ] } },
{ "type": "Feature", "properties": { "id": null, "runwayId": "8R - 26L" }, "geometry": { "type": "LineString", "coordinates": [ [ -84.428098709884225, 33.646590711793152 ], [ -84.429101530013384, 33.646590604516717 ] ] } },
{ "type": "Feature", "properties": { "id": null, "runwayId": "8R - 26L" }, "geometry": { "type": "LineString", "coordinates": [ [ -84.429272099547589, 33.647000829610199 ], [ -84.428256728075326, 33.647001419630612 ] ] } },
{ "type": "Feature", "properties": { "id": null, "runwayId": "8R - 26L" }, "geometry": { "type": "LineString", "coordinates": [ [ -84.43084155381554, 33.646999756845844 ], [ -84.431861538174857, 33.647000400504467 ] ] } },
{ "type": "Feature", "properties": { "id": null, "runwayId": "8R - 26L" }, "geometry": { "type": "LineString", "coordinates": [ [ -84.430041593427646, 33.646589853581538 ], [ -84.432419268368776, 33.646589424475785 ] ] } },
{ "type": "Feature", "properties": { "id": null, "runwayId": "9L - 27R" }, "geometry": { "type": "LineString", "coordinates": [ [ -84.407263995136887, 33.634910642216859 ], [ -84.407775100309621, 33.634910642216845 ] ] } },
{ "type": "Feature", "properties": { "id": null, "runwayId": "9L - 27R" }, "geometry": { "type": "LineString", "coordinates": [ [ -84.407914462457995, 33.634910642216859 ], [ -84.40859021349425, 33.634910762902862 ] ] } },
{ "type": "Feature", "properties": { "id": null, "runwayId": "9L - 27R" }, "geometry": { "type": "LineString", "coordinates": [ [ -84.4087912009268, 33.634910702559864 ], [ -84.409594758427758, 33.634910913760372 ] ] } },
{ "type": "Feature", "properties": { "id": null, "runwayId": "9L - 27R" }, "geometry": { "type": "LineString", "coordinates": [ [ -84.410173568441593, 33.634911396504329 ], [ -84.410916028659472, 33.634910913760365 ] ] } },
{ "type": "Feature", "properties": { "id": null, "runwayId": "9L - 27R" }, "geometry": { "type": "LineString", "coordinates": [ [ -84.415457683880362, 33.634910913760358 ], [ -84.416457446631455, 33.634910913760386 ] ] } },
{ "type": "Feature", "properties": { "id": null, "runwayId": "9L - 27R" }, "geometry": { "type": "LineString", "coordinates": [ [ -84.417282938811255, 33.63491115513235 ], [ -84.418159119107372, 33.63491139650435 ] ] } },
{ "type": "Feature", "properties": { "id": null, "runwayId": "9L - 27R" }, "geometry": { "type": "LineString", "coordinates": [ [ -84.417487169679859, 33.634503296825102 ], [ -84.418432895278414, 33.634503372253853 ] ] } },
{ "type": "Feature", "properties": { "id": null, "runwayId": "9R - 27L" }, "geometry": { "type": "LineString", "coordinates": [ [ -84.418395905022123, 33.632034257559908 ], [ -84.419537956556908, 33.632033774815973 ] ] } },
{ "type": "Feature", "properties": { "id": null, "runwayId": "9R - 27L" }, "geometry": { "type": "LineString", "coordinates": [ [ -84.419663047586809, 33.632034076530964 ], [ -84.420910457991894, 33.632033352415036 ] ] } },
{ "type": "Feature", "properties": { "id": null, "runwayId": "9L - 27R" }, "geometry": { "type": "LineString", "coordinates": [ [ -84.419668478456501, 33.634503492939913 ], [ -84.420619604753171, 33.63450361362591 ] ] } },
{ "type": "Feature", "properties": { "id": null, "runwayId": "9L - 27R" }, "geometry": { "type": "LineString", "coordinates": [ [ -84.42087739003037, 33.634503553282926 ], [ -84.421958133081574, 33.634503673968915 ] ] } },
{ "type": "Feature", "properties": { "id": null, "runwayId": "9L - 27R" }, "geometry": { "type": "LineString", "coordinates": [ [ -84.42196283983526, 33.634503915340893 ], [ -84.422817538024916, 33.634503794654897 ] ] } },
{ "type": "Feature", "properties": { "id": null, "runwayId": "9L - 27R" }, "geometry": { "type": "LineString", "coordinates": [ [ -84.420347940587078, 33.634911833991147 ], [ -84.421304015009412, 33.634911592619176 ] ] } },
{ "type": "Feature", "properties": { "id": null, "runwayId": "9L - 27R" }, "geometry": { "type": "LineString", "coordinates": [ [ -84.421471044421253, 33.634911592619183 ], [ -84.422881622286383, 33.634912075363175 ] ] } },
{ "type": "Feature", "properties": { "id": null, "runwayId": "9R - 27L" }, "geometry": { "type": "LineString", "coordinates": [ [ -84.418403568582931, 33.631622416615059 ], [ -84.419144580568897, 33.631622175243081 ] ] } },
{ "type": "Feature", "properties": { "id": null, "runwayId": "9R - 27L" }, "geometry": { "type": "LineString", "coordinates": [ [ -84.42515341538477, 33.631619761523233 ], [ -84.426188659817285, 33.63161927877924 ] ] } },
{ "type": "Feature", "properties": { "id": null, "runwayId": "9R - 27L" }, "geometry": { "type": "LineString", "coordinates": [ [ -84.425197707143568, 33.632031180067258 ], [ -84.427616978523147, 33.632030214579331 ] ] } },
{ "type": "Feature", "properties": { "id": null, "runwayId": "9L - 27R" }, "geometry": { "type": "LineString", "coordinates": [ [ -84.42539695971503, 33.634912316735168 ], [ -84.427756129471049, 33.634912316735189 ] ] } },
{ "type": "Feature", "properties": { "id": null, "runwayId": "9L - 27R" }, "geometry": { "type": "LineString", "coordinates": [ [ -84.427991225781923, 33.634911833991239 ], [ -84.428966368590821, 33.63491231673521 ] ] } },
{ "type": "Feature", "properties": { "id": null, "runwayId": "9L - 27R" }, "geometry": { "type": "LineString", "coordinates": [ [ -84.428952851759817, 33.634504639456942 ], [ -84.427996535965576, 33.634504398084943 ] ] } },
{ "type": "Feature", "properties": { "id": null, "runwayId": "9L - 27R" }, "geometry": { "type": "LineString", "coordinates": [ [ -84.4290526590746, 33.634912558107182 ], [ -84.430826743145261, 33.634912075363211 ] ] } },
{ "type": "Feature", "properties": { "id": null, "runwayId": "9L - 27R" }, "geometry": { "type": "LineString", "coordinates": [ [ -84.432783575978078, 33.634504820485944 ], [ -84.433424509105876, 33.634504941171912 ] ] } },
{ "type": "Feature", "properties": { "id": null, "runwayId": "9L - 27R" }, "geometry": { "type": "LineString", "coordinates": [ [ -84.432790998166567, 33.634912829650716 ], [ -84.433469736181053, 33.634912724050508 ] ] } },
{ "type": "Feature", "properties": { "id": null, "runwayId": "9L - 27R" }, "geometry": { "type": "LineString", "coordinates": [ [ -84.435648963124166, 33.634913086108483 ], [ -84.436462899620338, 33.634913146451474 ] ] } },
{ "type": "Feature", "properties": { "id": null, "runwayId": "9L - 27R" }, "geometry": { "type": "LineString", "coordinates": [ [ -84.435652070788493, 33.63450512220097 ], [ -84.436458615267682, 33.634505182543961 ] ] } },
{ "type": "Feature", "properties": { "id": null, "runwayId": "9L - 27R" }, "geometry": { "type": "LineString", "coordinates": [ [ -84.439860632673557, 33.634913342566229 ], [ -84.440641471036628, 33.63491273913629 ] ] } },
{ "type": "Feature", "properties": { "id": null, "runwayId": "9L - 27R" }, "geometry": { "type": "LineString", "coordinates": [ [ -84.441437998578593, 33.634913221880268 ], [ -84.442448502382902, 33.634913704624246 ] ] } },
{ "type": "Feature", "properties": { "id": null, "runwayId": "9L - 27R" }, "geometry": { "type": "LineString", "coordinates": [ [ -84.441456584221285, 33.634505785974014 ], [ -84.4424697431174, 33.634505906660017 ] ] } },
{ "type": "Feature", "properties": { "id": null, "runwayId": "9L - 27R" }, "geometry": { "type": "LineString", "coordinates": [ [ -84.444340466495532, 33.634913915824789 ], [ -84.445374255153283, 33.634913878110417 ] ] } },
{ "type": "Feature", "properties": { "id": null, "runwayId": "9L - 27R" }, "geometry": { "type": "LineString", "coordinates": [ [ -84.447216149664413, 33.634914179825401 ], [ -84.447975071262576, 33.634914179825415 ] ] } },
{ "type": "Feature", "properties": { "id": null, "runwayId": "9L - 27R" }, "geometry": { "type": "LineString", "coordinates": [ [ -84.447974769547557, 33.63450643560676 ], [ -84.447187896890085, 33.63450628474925 ] ] } },
{ "type": "Feature", "properties": { "id": null, "runwayId": "9R - 27L" }, "geometry": { "type": "LineString", "coordinates": [ [ -84.43131866972422, 33.632029129367226 ], [ -84.433738046688291, 33.632027997936063 ] ] } },
{ "type": "Feature", "properties": { "id": null, "runwayId": "9R - 27L" }, "geometry": { "type": "LineString", "coordinates": [ [ -84.431306324553077, 33.631617464425339 ], [ -84.432401851631298, 33.631616559280403 ] ] } },
{ "type": "Feature", "properties": { "id": null, "runwayId": "9R - 27L" }, "geometry": { "type": "LineString", "coordinates": [ [ -84.433904794498929, 33.631616961567033 ], [ -84.434536987945521, 33.631616358137094 ] ] } },
{ "type": "Feature", "properties": { "id": null, "runwayId": "9R - 27L" }, "geometry": { "type": "LineString", "coordinates": [ [ -84.433940296294452, 33.632028199079478 ], [ -84.434593609789374, 33.632028098507824 ] ] } },
{ "type": "Feature", "properties": { "id": null, "runwayId": "9R - 27L" }, "geometry": { "type": "LineString", "coordinates": [ [ -84.434593685218132, 33.632028098507824 ], [ -84.436707525479349, 33.632027055076868 ] ] } },
{ "type": "Feature", "properties": { "id": null, "runwayId": "9R - 27L" }, "geometry": { "type": "LineString", "coordinates": [ [ -84.439577941184638, 33.632025948788652 ], [ -84.442019770767232, 33.632024943072047 ] ] } },
{ "type": "Feature", "properties": { "id": null, "runwayId": "9R - 27L" }, "geometry": { "type": "LineString", "coordinates": [ [ -84.441002941013906, 33.631613705560454 ], [ -84.442107720682529, 33.631613202702148 ] ] } },
{ "type": "Feature", "properties": { "id": null, "runwayId": "9R - 27L" }, "geometry": { "type": "LineString", "coordinates": [ [ -84.447967528365197, 33.632022629923902 ], [ -84.447215654646229, 33.632023233353834 ] ] } },
{ "type": "Feature", "properties": { "id": null, "runwayId": "9R - 27L" }, "geometry": { "type": "LineString", "coordinates": [ [ -84.44797507123954, 33.631610889553976 ], [ -84.447219149511298, 33.631611140983111 ] ] } },
{ "type": "Feature", "properties": { "id": null, "runwayId": "10 - 28" }, "geometry": { "type": "LineString", "coordinates": [ [ -84.41831196342217, 33.620491209274419 ], [ -84.419098006362105, 33.620490932702367 ] ] } },
{ "type": "Feature", "properties": { "id": null, "runwayId": "10 - 28" }, "geometry": { "type": "LineString", "coordinates": [ [ -84.419338259482785, 33.620490945273808 ], [ -84.420274644480727, 33.620490630987362 ] ] } },
{ "type": "Feature", "properties": { "id": null, "runwayId": "10 - 28" }, "geometry": { "type": "LineString", "coordinates": [ [ -84.424262059315438, 33.620489688128067 ], [ -84.42675824788212, 33.620488682411491 ] ] } },
{ "type": "Feature", "properties": { "id": null, "runwayId": "10 - 28" }, "geometry": { "type": "LineString", "coordinates": [ [ -84.43144576717529, 33.620487802409514 ], [ -84.433842264085357, 33.620487048122094 ] ] } },
{ "type": "Feature", "properties": { "id": null, "runwayId": "10 - 28" }, "geometry": { "type": "LineString", "coordinates": [ [ -84.435256364462731, 33.620486686692693 ], [ -84.43763006774924, 33.620486014905396 ] ] } },
{ "type": "Feature", "properties": { "id": null, "runwayId": "10 - 28" }, "geometry": { "type": "LineString", "coordinates": [ [ -84.439542769800525, 33.620485537582887 ], [ -84.4419034301973, 33.620484918831465 ] ] } },
{ "type": "Feature", "properties": { "id": null, "runwayId": "10 - 28" }, "geometry": { "type": "LineString", "coordinates": [ [ -84.445939952282473, 33.620483645971404 ], [ -84.446843965777731, 33.620483363113614 ] ] } },
{ "type": "Feature", "properties": { "id": null, "runwayId": "10 - 28" }, "geometry": { "type": "LineString", "coordinates": [ [ -84.447102214939576, 33.620483532828295 ], [ -84.447883015581809, 33.620483419685179 ] ] } }
]
}
