{
"type": "FeatureCollection",
"name": "BDL ASDE-X Hold Bars",
"crs": { "type": "name", "properties": { "name": "urn:ogc:def:crs:OGC:1.3:CRS84" } },
"features": [
{ "type": "Feature", "properties": { "id": "6 - 24" }, "geometry": { "type": "Polygon", "coordinates": [ [ [ -72.696856908023463, 41.932227760795001 ], [ -72.696339244280907, 41.931837302286553 ], [ -72.671884185968437, 41.950490257321 ], [ -72.672413353349697, 41.950877660684846 ], [ -72.696856908023463, 41.932227760795001 ] ] ] } },
{ "type": "Feature", "properties": { "id": "15 - 33" }, "geometry": { "type": "Polygon", "coordinates": [ [ [ -72.693081557589935, 41.942562809827564 ], [ -72.693466809657565, 41.942271306030555 ], [ -72.675474879034624, 41.929128764887317 ], [ -72.675088548500838, 41.929421710576889 ], [ -72.693081557589935, 41.942562809827564 ] ] ] } },
{ "type": "Feature", "properties": { "id": "6 - 24" }, "geometry": { "type": "Polygon", "coordinates": [ [ [ -72.696856908023463, 41.932227760795001 ], [ -72.696339244280907, 41.931837302286553 ], [ -72.671884185968437, 41.950490257321 ], [ -72.672413353349697, 41.950877660684846 ], [ -72.696856908023463, 41.932227760795001 ] ] ] } },
{ "type": "Feature", "properties": { "id": "15 - 33" }, "geometry": { "type": "Polygon", "coordinates": [ [ [ -72.693081557589935, 41.942562809827564 ], [ -72.693466809657565, 41.942271306030555 ], [ -72.675474879034624, 41.929128764887317 ], [ -72.675088548500838, 41.929421710576889 ], [ -72.693081557589935, 41.942562809827564 ] ] ] } },
{ "type": "Feature", "properties": { "id": "", "runwayId": "6 - 24", "crossRunwayId": null }, "geometry": { "type": "LineString", "coordinates": [ [ -72.696339124451342, 41.931837614297727 ], [ -72.696035955639175, 41.932068591296627 ] ] } },
{ "type": "Feature", "properties": { "id": "", "runwayId": "6 - 24", "crossRunwayId": null }, "geometry": { "type": "LineString", "coordinates": [ [ -72.6968572675122, 41.932228161949773 ], [ -72.69655793324624, 41.932455036855934 ] ] } },
{ "type": "Feature", "properties": { "id": "", "runwayId": "6 - 24", "crossRunwayId": null }, "geometry": { "type": "LineString", "coordinates": [ [ -72.690866028669433, 41.936012543792515 ], [ -72.690460525404418, 41.936321057332329 ] ] } },
{ "type": "Feature", "properties": { "id": "", "runwayId": "6 - 24", "crossRunwayId": null }, "geometry": { "type": "LineString", "coordinates": [ [ -72.688975597372519, 41.9374541922042 ], [ -72.688582556382784, 41.937753695854717 ] ] } },
{ "type": "Feature", "properties": { "id": "", "runwayId": "6 - 24", "crossRunwayId": null }, "geometry": { "type": "LineString", "coordinates": [ [ -72.689862815509073, 41.937563653820533 ], [ -72.689228198106122, 41.938048830367677 ] ] } },
{ "type": "Feature", "properties": { "id": "", "runwayId": "6 - 24", "crossRunwayId": "15 - 33" }, "geometry": { "type": "LineString", "coordinates": [ [ -72.688474230451462, 41.938624655174181 ], [ -72.688090056849902, 41.938917067003658 ] ] } },
{ "type": "Feature", "properties": { "id": "", "runwayId": "6 - 24", "crossRunwayId": "15 - 33" }, "geometry": { "type": "LineString", "coordinates": [ [ -72.68794650102501, 41.938239004661682 ], [ -72.687562117721711, 41.938531897369224 ] ] } },
{ "type": "Feature", "properties": { "id": "", "runwayId": "6 - 24", "crossRunwayId": null }, "geometry": { "type": "LineString", "coordinates": [ [ -72.685839687482172, 41.939846427217681 ], [ -72.685257555430965, 41.940289782453817 ] ] } },
{ "type": "Feature", "properties": { "id": "", "runwayId": "6 - 24", "crossRunwayId": null }, "geometry": { "type": "LineString", "coordinates": [ [ -72.679165659749927, 41.944936359190699 ], [ -72.677848013797899, 41.945941088305759 ] ] } },
{ "type": "Feature", "properties": { "id": "", "runwayId": "6 - 24", "crossRunwayId": null }, "geometry": { "type": "LineString", "coordinates": [ [ -72.672365451480388, 41.950123159936616 ], [ -72.671908541329884, 41.95047166466194 ] ] } },
{ "type": "Feature", "properties": { "id": "", "runwayId": "15 - 33", "crossRunwayId": null }, "geometry": { "type": "LineString", "coordinates": [ [ -72.693463392681579, 41.942268767612475 ], [ -72.692992442792317, 41.941924465488682 ] ] } },
{ "type": "Feature", "properties": { "id": "", "runwayId": "15 - 33", "crossRunwayId": null }, "geometry": { "type": "LineString", "coordinates": [ [ -72.693080701411361, 41.942562420030669 ], [ -72.692706432670661, 41.942288973906933 ] ] } },
{ "type": "Feature", "properties": { "id": "", "runwayId": "15 - 33", "crossRunwayId": null }, "geometry": { "type": "LineString", "coordinates": [ [ -72.690235665846032, 41.939910763784653 ], [ -72.689168021260741, 41.93913115534378 ] ] } },
{ "type": "Feature", "properties": { "id": "", "runwayId": "15 - 33", "crossRunwayId": "6 - 24" }, "geometry": { "type": "LineString", "coordinates": [ [ -72.688473340517262, 41.938624294443443 ], [ -72.687946517228013, 41.938238939806226 ] ] } },
{ "type": "Feature", "properties": { "id": "", "runwayId": "15 - 33", "crossRunwayId": "6 - 24" }, "geometry": { "type": "LineString", "coordinates": [ [ -72.688089700229625, 41.938917081227927 ], [ -72.687562224490932, 41.938531794541689 ] ] } },
{ "type": "Feature", "properties": { "id": "", "runwayId": "15 - 33", "crossRunwayId": null }, "geometry": { "type": "LineString", "coordinates": [ [ -72.686834802646857, 41.938000750296325 ], [ -72.6859006136348, 41.937319422347997 ] ] } },
{ "type": "Feature", "properties": { "id": "", "runwayId": "15 - 33", "crossRunwayId": null }, "geometry": { "type": "LineString", "coordinates": [ [ -72.687044179612784, 41.93757974148825 ], [ -72.686491495599185, 41.937175716902964 ] ] } },
{ "type": "Feature", "properties": { "id": "", "runwayId": "15 - 33", "crossRunwayId": null }, "geometry": { "type": "LineString", "coordinates": [ [ -72.682472881380249, 41.93424064876028 ], [ -72.681925298335202, 41.933840618340582 ] ] } },
{ "type": "Feature", "properties": { "id": "", "runwayId": "15 - 33", "crossRunwayId": null }, "geometry": { "type": "LineString", "coordinates": [ [ -72.682110831238688, 41.934551193477994 ], [ -72.681565146228436, 41.934152400482766 ] ] } },
{ "type": "Feature", "properties": { "id": "", "runwayId": "15 - 33", "crossRunwayId": null }, "geometry": { "type": "LineString", "coordinates": [ [ -72.679656079082818, 41.932757708491629 ], [ -72.678692233276678, 41.932054261724332 ] ] } },
{ "type": "Feature", "properties": { "id": "", "runwayId": "15 - 33", "crossRunwayId": null }, "geometry": { "type": "LineString", "coordinates": [ [ -72.679837697289457, 41.932315661366133 ], [ -72.67928904659982, 41.931915398244627 ] ] } },
{ "type": "Feature", "properties": { "id": "", "runwayId": "15 - 33", "crossRunwayId": null }, "geometry": { "type": "LineString", "coordinates": [ [ -72.6756960666889, 41.929865637512897 ], [ -72.675153940493928, 41.929469639376173 ] ] } },
{ "type": "Feature", "properties": { "id": "", "runwayId": "15 - 33", "crossRunwayId": null }, "geometry": { "type": "LineString", "coordinates": [ [ -72.675844350659077, 41.929398329443828 ], [ -72.675478978956562, 41.929131975550987 ] ] } },
{ "type": "Feature", "properties": { "id": "", "runwayId": "6 - 24", "crossRunwayId": null }, "geometry": { "type": "LineString", "coordinates": [ [ -72.696339124451342, 41.931837614297727 ], [ -72.696035955639175, 41.932068591296627 ] ] } },
{ "type": "Feature", "properties": { "id": "", "runwayId": "6 - 24", "crossRunwayId": null }, "geometry": { "type": "LineString", "coordinates": [ [ -72.6968572675122, 41.932228161949773 ], [ -72.69655793324624, 41.932455036855934 ] ] } },
{ "type": "Feature", "properties": { "id": "", "runwayId": "6 - 24", "crossRunwayId": null }, "geometry": { "type": "LineString", "coordinates": [ [ -72.690866028669433, 41.936012543792515 ], [ -72.690460525404418, 41.936321057332329 ] ] } },
{ "type": "Feature", "properties": { "id": "", "runwayId": "6 - 24", "crossRunwayId": null }, "geometry": { "type": "LineString", "coordinates": [ [ -72.688975597372519, 41.9374541922042 ], [ -72.688582556382784, 41.937753695854717 ] ] } },
{ "type": "Feature", "properties": { "id": "", "runwayId": "6 - 24", "crossRunwayId": null }, "geometry": { "type": "LineString", "coordinates": [ [ -72.689862815509073, 41.937563653820533 ], [ -72.689228198106122, 41.938048830367677 ] ] } },
{ "type": "Feature", "properties": { "id": "", "runwayId": "6 - 24", "crossRunwayId": "15 - 33" }, "geometry": { "type": "LineString", "coordinates": [ [ -72.688474230451462, 41.938624655174181 ], [ -72.688090056849902, 41.938917067003658 ] ] } },
{ "type": "Feature", "properties": { "id": "", "runwayId": "6 - 24", "crossRunwayId": "15 - 33" }, "geometry": { "type": "LineString", "coordinates": [ [ -72.68794650102501, 41.938239004661682 ], [ -72.687562117721711, 41.938531897369224 ] ] } },
{ "type": "Feature", "properties": { "id": "", "runwayId": "6 - 24", "crossRunwayId": null }, "geometry": { "type": "LineString", "coordinates": [ [ -72.685839687482172, 41.939846427217681 ], [ -72.685257555430965, 41.940289782453817 ] ] } },
{ "type": "Feature", "properties": { "id": "", "runwayId": "6 - 24", "crossRunwayId": null }, "geometry": { "type": "LineString", "coordinates": [ [ -72.679165659749927, 41.944936359190699 ], [ -72.677848013797899, 41.945941088305759 ] ] } },
{ "type": "Feature", "properties": { "id": "", "runwayId": "6 - 24", "crossRunwayId": null }, "geometry": { "type": "LineString", "coordinates": [ [ -72.672365451480388, 41.950123159936616 ], [ -72.671908541329884, 41.95047166466194 ] ] } },
{ "type": "Feature", "properties": { "id": "", "runwayId": "15 - 33", "crossRunwayId": null }, "geometry": { "type": "LineString", "coordinates": [ [ -72.693463392681579, 41.942268767612475 ], [ -72.692992442792317, 41.941924465488682 ] ] } },
{ "type": "Feature", "properties": { "id": "", "runwayId": "15 - 33", "crossRunwayId": null }, "geometry": { "type": "LineString", "coordinates": [ [ -72.693080701411361, 41.942562420030669 ], [ -72.692706432670661, 41.942288973906933 ] ] } },
{ "type": "Feature", "properties": { "id": "", "runwayId": "15 - 33", "crossRunwayId": null }, "geometry": { "type": "LineString", "coordinates": [ [ -72.690235665846032, 41.939910763784653 ], [ -72.689168021260741, 41.93913115534378 ] ] } },
{ "type": "Feature", "properties": { "id": "", "runwayId": "15 - 33", "crossRunwayId": "6 - 24" }, "geometry": { "type": "LineString", "coordinates": [ [ -72.688473340517262, 41.938624294443443 ], [ -72.687946517228013, 41.938238939806226 ] ] } },
{ "type": "Feature", "properties": { "id": "", "runwayId": "15 - 33", "crossRunwayId": "6 - 24" }, "geometry": { "type": "LineString", "coordinates": [ [ -72.688089700229625, 41.938917081227927 ], [ -72.687562224490932, 41.938531794541689 ] ] } },
{ "type": "Feature", "properties": { "id": "", "runwayId": "15 - 33", "crossRunwayId": null }, "geometry": { "type": "LineString", "coordinates": [ [ -72.686834802646857, 41.938000750296325 ], [ -72.6859006136348, 41.937319422347997 ] ] } },
{ "type": "Feature", "properties": { "id": "", "runwayId": "15 - 33", "crossRunwayId": null }, "geometry": { "type": "LineString", "coordinates": [ [ -72.687044179612784, 41.93757974148825 ], [ -72.686491495599185, 41.937175716902964 ] ] } },
{ "type": "Feature", "properties": { "id": "", "runwayId": "15 - 33", "crossRunwayId": null }, "geometry": { "type": "LineString", "coordinates": [ [ -72.682472881380249, 41.93424064876028 ], [ -72.681925298335202, 41.933840618340582 ] ] } },
{ "type": "Feature", "properties": { "id": "", "runwayId": "15 - 33", "crossRunwayId": null }, "geometry": { "type": "LineString", "coordinates": [ [ -72.682110831238688, 41.934551193477994 ], [ -72.681565146228436, 41.934152400482766 ] ] } },
{ "type": "Feature", "properties": { "id": "", "runwayId": "15 - 33", "crossRunwayId": null }, "geometry": { "type": "LineString", "coordinates": [ [ -72.679656079082818, 41.932757708491629 ], [ -72.678692233276678, 41.932054261724332 ] ] } },
{ "type": "Feature", "properties": { "id": "", "runwayId": "15 - 33", "crossRunwayId": null }, "geometry": { "type": "LineString", "coordinates": [ [ -72.679837697289457, 41.932315661366133 ], [ -72.67928904659982, 41.931915398244627 ] ] } },
{ "type": "Feature", "properties": { "id": "", "runwayId": "15 - 33", "crossRunwayId": null }, "geometry": { "type": "LineString", "coordinates": [ [ -72.6756960666889, 41.929865637512897 ], [ -72.675153940493928, 41.929469639376173 ] ] } },
{ "type": "Feature", "properties": { "id": "", "runwayId": "15 - 33", "crossRunwayId": null }, "geometry": { "type": "LineString", "coordinates": [ [ -72.675844350659077, 41.929398329443828 ], [ -72.675478978956562, 41.929131975550987 ] ] } }
]
}
