{
"type": "FeatureCollection",
"name": "BOS ASDE-X Hold Bars",
"crs": { "type": "name", "properties": { "name": "urn:ogc:def:crs:OGC:1.3:CRS84" } },
"features": [
{ "type": "Feature", "properties": { "id": "4L - 22R", "runwayId": null, "crossRunwayId": null }, "geometry": { "type": "Polygon", "coordinates": [ [ [ -71.014771268658336, 42.357699024466648 ], [ -71.01424353010627, 42.357570788930637 ], [ -71.004253591257751, 42.378226945537094 ], [ -71.004778143103835, 42.378376817493127 ], [ -71.014771268658336, 42.357699024466648 ] ] ] } },
{ "type": "Feature", "properties": { "id": "4R - 22L", "runwayId": null, "crossRunwayId": null }, "geometry": { "type": "Polygon", "coordinates": [ [ [ -71.012301843664019, 42.350589056831119 ], [ -71.01184678831865, 42.35034661993771 ], [ -70.999026806791335, 42.376834385279018 ], [ -70.999551358637419, 42.37697489023779 ], [ -71.012301843664019, 42.350589056831119 ] ] ] } },
{ "type": "Feature", "properties": { "id": "9 - 27", "runwayId": null, "crossRunwayId": null }, "geometry": { "type": "Polygon", "coordinates": [ [ [ -71.01336388888889, 42.355872222222224 ], [ -71.013554880617221, 42.355418528083426 ], [ -70.98763341580073, 42.360014380547327 ], [ -70.987765334345355, 42.360417161429147 ], [ -71.01336388888889, 42.355872222222224 ] ] ] } },
{ "type": "Feature", "properties": { "id": "14 - 32", "runwayId": null, "crossRunwayId": null }, "geometry": { "type": "Polygon", "coordinates": [ [ [ -71.023171803373771, 42.356714075182353 ], [ -71.023380999645738, 42.356487706082106 ], [ -71.008354774887792, 42.348486729262945 ], [ -71.008136211618577, 42.348711537196984 ], [ -71.023171803373771, 42.356714075182353 ] ] ] } },
{ "type": "Feature", "properties": { "id": "15R - 33L", "runwayId": null, "crossRunwayId": null }, "geometry": { "type": "Polygon", "coordinates": [ [ [ -71.0177014769788, 42.374427066985326 ], [ -71.018101135528198, 42.374124200740859 ], [ -70.991792362580597, 42.354509708495797 ], [ -70.991386459366367, 42.354796963078179 ], [ -71.0177014769788, 42.374427066985326 ] ] ] } },
{ "type": "Feature", "properties": { "id": "15L - 33R", "runwayId": null, "crossRunwayId": null }, "geometry": { "type": "Polygon", "coordinates": [ [ [ -71.008931311375235, 42.373636759564519 ], [ -71.009070644217246, 42.373344530506493 ], [ -71.002078886729151, 42.368126200167382 ], [ -71.001811927307486, 42.368319784777249 ], [ -71.008931311375235, 42.373636759564519 ] ] ] } },
{ "type": "Feature", "properties": { "id": null, "runwayId": "9 - 27", "crossRunwayId": null }, "geometry": { "type": "LineString", "coordinates": [ [ -71.01336388888889, 42.355872222222224 ], [ -71.012203333333332, 42.356074722222225 ] ] } },
{ "type": "Feature", "properties": { "id": null, "runwayId": "9 - 27", "crossRunwayId": null }, "geometry": { "type": "LineString", "coordinates": [ [ -71.011263227534371, 42.356254311733878 ], [ -71.009442907735121, 42.356577473139062 ] ] } },
{ "type": "Feature", "properties": { "id": null, "runwayId": "9 - 27", "crossRunwayId": "4R - 22L" }, "geometry": { "type": "LineString", "coordinates": [ [ -71.008769264516161, 42.356696121770902 ], [ -71.009415587326515, 42.356582156637678 ] ] } },
{ "type": "Feature", "properties": { "id": null, "runwayId": "9 - 27", "crossRunwayId": "4R - 22L" }, "geometry": { "type": "LineString", "coordinates": [ [ -71.009634931178837, 42.356117709690629 ], [ -71.008994853033315, 42.356233235990068 ] ] } },
{ "type": "Feature", "properties": { "id": null, "runwayId": "9 - 27", "crossRunwayId": null }, "geometry": { "type": "LineString", "coordinates": [ [ -71.005277716290635, 42.357318246505045 ], [ -71.003479252818309, 42.357630479746767 ] ] } },
{ "type": "Feature", "properties": { "id": null, "runwayId": "9 - 27", "crossRunwayId": null }, "geometry": { "type": "LineString", "coordinates": [ [ -70.999723086920369, 42.358295536551637 ], [ -70.99880824352212, 42.358461020169749 ] ] } },
{ "type": "Feature", "properties": { "id": null, "runwayId": "9 - 27", "crossRunwayId": null }, "geometry": { "type": "LineString", "coordinates": [ [ -70.998277447011191, 42.358133175265941 ], [ -70.999042418453413, 42.357992670307169 ] ] } },
{ "type": "Feature", "properties": { "id": null, "runwayId": "9 - 27", "crossRunwayId": null }, "geometry": { "type": "LineString", "coordinates": [ [ -70.996778727450931, 42.358823210730151 ], [ -70.997409438599206, 42.358707684430712 ] ] } },
{ "type": "Feature", "properties": { "id": null, "runwayId": "9 - 27", "crossRunwayId": null }, "geometry": { "type": "LineString", "coordinates": [ [ -70.996950455733867, 42.358361105532403 ], [ -70.996310377588344, 42.358473509499419 ] ] } },
{ "type": "Feature", "properties": { "id": null, "runwayId": "9 - 27", "crossRunwayId": null }, "geometry": { "type": "LineString", "coordinates": [ [ -70.987942526710142, 42.360387499271184 ], [ -70.989728500852792, 42.360069021364623 ] ] } },
{ "type": "Feature", "properties": { "id": null, "runwayId": "9 - 27", "crossRunwayId": null }, "geometry": { "type": "LineString", "coordinates": [ [ -70.990724524893892, 42.359897293081673 ], [ -70.992014048182213, 42.359666240482802 ] ] } },
{ "type": "Feature", "properties": { "id": "", "runwayId": "14 - 32", "crossRunwayId": null }, "geometry": { "type": "LineString", "coordinates": [ [ -71.015353483001007, 42.352558250735079 ], [ -71.014516697913194, 42.352107073700779 ] ] } },
{ "type": "Feature", "properties": { "id": "", "runwayId": "14 - 32", "crossRunwayId": null }, "geometry": { "type": "LineString", "coordinates": [ [ -71.023168681041341, 42.356709391683793 ], [ -71.022909527450722, 42.356578253722269 ] ] } },
{ "type": "Feature", "properties": { "id": "", "runwayId": "14 - 32", "crossRunwayId": null }, "geometry": { "type": "LineString", "coordinates": [ [ -71.022684719516676, 42.35646272742283 ], [ -71.02033048087408, 42.355195060461433 ] ] } },
{ "type": "Feature", "properties": { "id": "", "runwayId": "14 - 32", "crossRunwayId": null }, "geometry": { "type": "LineString", "coordinates": [ [ -71.020303941048539, 42.355188815796602 ], [ -71.01948588995522, 42.354748566925778 ] ] } },
{ "type": "Feature", "properties": { "id": "", "runwayId": "4R - 22L", "crossRunwayId": null }, "geometry": { "type": "LineString", "coordinates": [ [ -71.011865837691019, 42.351525539288083 ], [ -71.011500524798208, 42.352290510730306 ] ] } },
{ "type": "Feature", "properties": { "id": "", "runwayId": "4R - 22L", "crossRunwayId": null }, "geometry": { "type": "LineString", "coordinates": [ [ -71.010970508870372, 42.35336303191562 ], [ -71.010627052304471, 42.354093657701256 ] ] } },
{ "type": "Feature", "properties": { "id": "", "runwayId": "4R - 22L", "crossRunwayId": "9 - 27" }, "geometry": { "type": "LineString", "coordinates": [ [ -71.009644298176141, 42.356116148524507 ], [ -71.009414806743479, 42.356581376054677 ] ] } },
{ "type": "Feature", "properties": { "id": "", "runwayId": "4R - 22L", "crossRunwayId": "9 - 27" }, "geometry": { "type": "LineString", "coordinates": [ [ -71.009000317115081, 42.356230894240845 ], [ -71.008774728597942, 42.356695341187901 ] ] } },
{ "type": "Feature", "properties": { "id": "", "runwayId": "4R - 22L", "crossRunwayId": null }, "geometry": { "type": "LineString", "coordinates": [ [ -71.008915233556706, 42.357627357414458 ], [ -71.008554604162512, 42.358372033695971 ] ] } },
{ "type": "Feature", "properties": { "id": "", "runwayId": "4R - 22L", "crossRunwayId": null }, "geometry": { "type": "LineString", "coordinates": [ [ -71.008240809754582, 42.357788157533946 ], [ -71.008036296981246, 42.358220600573738 ] ] } },
{ "type": "Feature", "properties": { "id": "", "runwayId": "4R - 22L", "crossRunwayId": null }, "geometry": { "type": "LineString", "coordinates": [ [ -71.007482082977191, 42.359354007241194 ], [ -71.007174533234092, 42.360011258215017 ] ] } },
{ "type": "Feature", "properties": { "id": "", "runwayId": "4R - 22L", "crossRunwayId": null }, "geometry": { "type": "LineString", "coordinates": [ [ -71.007995706659827, 42.359525735524137 ], [ -71.007435247990927, 42.360671631521271 ] ] } },
{ "type": "Feature", "properties": { "id": "", "runwayId": "4R - 22L", "crossRunwayId": null }, "geometry": { "type": "LineString", "coordinates": [ [ -71.006784241681942, 42.36081369764625 ], [ -71.006542260919602, 42.361311709666801 ] ] } },
{ "type": "Feature", "properties": { "id": "", "runwayId": "4R - 22L", "crossRunwayId": null }, "geometry": { "type": "LineString", "coordinates": [ [ -71.007404024666769, 42.3607496898317 ], [ -71.006782680515713, 42.362039213120006 ] ] } },
{ "type": "Feature", "properties": { "id": "", "runwayId": "4R - 22L", "crossRunwayId": null }, "geometry": { "type": "LineString", "coordinates": [ [ -71.006713989202581, 42.362174253997061 ], [ -71.006262812168288, 42.363103147891188 ] ] } },
{ "type": "Feature", "properties": { "id": "", "runwayId": "4R - 22L", "crossRunwayId": null }, "geometry": { "type": "LineString", "coordinates": [ [ -71.005661763177969, 42.364354422607406 ], [ -71.006151969367465, 42.363336542239388 ] ] } },
{ "type": "Feature", "properties": { "id": "", "runwayId": "4R - 22L", "crossRunwayId": "15R - 33L" }, "geometry": { "type": "LineString", "coordinates": [ [ -71.005273032792033, 42.365148275624477 ], [ -71.005482229063986, 42.364715832584693 ] ] } },
{ "type": "Feature", "properties": { "id": "", "runwayId": "4R - 22L", "crossRunwayId": "15R - 33L" }, "geometry": { "type": "LineString", "coordinates": [ [ -71.005049786024202, 42.364392671179509 ], [ -71.004839028586034, 42.364828236551716 ] ] } },
{ "type": "Feature", "properties": { "id": "", "runwayId": "4R - 22L", "crossRunwayId": null }, "geometry": { "type": "LineString", "coordinates": [ [ -71.004870251910205, 42.366001062665944 ], [ -71.004080301808642, 42.367599696863572 ] ] } },
{ "type": "Feature", "properties": { "id": "", "runwayId": "4R - 22L", "crossRunwayId": "15L - 33R" }, "geometry": { "type": "LineString", "coordinates": [ [ -71.002934405811516, 42.368762765688992 ], [ -71.002792339686536, 42.36905782610242 ] ] } },
{ "type": "Feature", "properties": { "id": "", "runwayId": "4R - 22L", "crossRunwayId": "15L - 33R" }, "geometry": { "type": "LineString", "coordinates": [ [ -71.003371532349931, 42.369090610592799 ], [ -71.003227905058736, 42.369380987507604 ] ] } },
{ "type": "Feature", "properties": { "id": "", "runwayId": "4R - 22L", "crossRunwayId": null }, "geometry": { "type": "LineString", "coordinates": [ [ -71.002261543175607, 42.37137459675602 ], [ -71.001490327068552, 42.372963863956393 ] ] } },
{ "type": "Feature", "properties": { "id": "", "runwayId": "4R - 22L", "crossRunwayId": null }, "geometry": { "type": "LineString", "coordinates": [ [ -71.000361603899705, 42.375302490936889 ], [ -70.999980679344802, 42.376097124537075 ] ] } },
{ "type": "Feature", "properties": { "id": "", "runwayId": "4R - 22L", "crossRunwayId": null }, "geometry": { "type": "LineString", "coordinates": [ [ -70.999897937535735, 42.376256363490349 ], [ -70.999596632457468, 42.376871462976546 ] ] } },
{ "type": "Feature", "properties": { "id": "", "runwayId": "4L - 22R", "crossRunwayId": null }, "geometry": { "type": "LineString", "coordinates": [ [ -71.014565614454412, 42.358124533095989 ], [ -71.014771268658336, 42.357699024466648 ] ] } },
{ "type": "Feature", "properties": { "id": "", "runwayId": "4L - 22R", "crossRunwayId": null }, "geometry": { "type": "LineString", "coordinates": [ [ -71.01418052678963, 42.358911063500123 ], [ -71.014406524183642, 42.35844122681258 ] ] } },
{ "type": "Feature", "properties": { "id": "", "runwayId": "4L - 22R", "crossRunwayId": null }, "geometry": { "type": "LineString", "coordinates": [ [ -71.013556803718672, 42.359002503235196 ], [ -71.013833353161331, 42.358413720550807 ] ] } },
{ "type": "Feature", "properties": { "id": "", "runwayId": "4L - 22R", "crossRunwayId": null }, "geometry": { "type": "LineString", "coordinates": [ [ -71.012028347659239, 42.363350722832408 ], [ -71.012364370100329, 42.362669757000468 ] ] } },
{ "type": "Feature", "properties": { "id": "", "runwayId": "4L - 22R", "crossRunwayId": null }, "geometry": { "type": "LineString", "coordinates": [ [ -71.011623931269952, 42.36298793754203 ], [ -71.011891559762859, 42.362434838656689 ] ] } },
{ "type": "Feature", "properties": { "id": "", "runwayId": "4L - 22R", "crossRunwayId": null }, "geometry": { "type": "LineString", "coordinates": [ [ -71.010913228938804, 42.365674630245799 ], [ -71.011210593930912, 42.365047190112435 ] ] } },
{ "type": "Feature", "properties": { "id": "", "runwayId": "4L - 22R", "crossRunwayId": null }, "geometry": { "type": "LineString", "coordinates": [ [ -71.010443392251261, 42.36541889635258 ], [ -71.010666415995345, 42.364960954264717 ] ] } },
{ "type": "Feature", "properties": { "id": "", "runwayId": "4L - 22R", "crossRunwayId": null }, "geometry": { "type": "LineString", "coordinates": [ [ -71.010426293764198, 42.366670802969388 ], [ -71.010720685106392, 42.366076072985152 ] ] } },
{ "type": "Feature", "properties": { "id": "", "runwayId": "4L - 22R", "crossRunwayId": "15R - 33L" }, "geometry": { "type": "LineString", "coordinates": [ [ -71.009813721880462, 42.367950215847969 ], [ -71.009596645436218, 42.368387342386384 ] ] } },
{ "type": "Feature", "properties": { "id": "", "runwayId": "4L - 22R", "crossRunwayId": "15R - 33L" }, "geometry": { "type": "LineString", "coordinates": [ [ -71.009376595342047, 42.367632035306407 ], [ -71.009174387147411, 42.368060240895055 ] ] } },
{ "type": "Feature", "properties": { "id": "", "runwayId": "4L - 22R", "crossRunwayId": "15L - 33R" }, "geometry": { "type": "LineString", "coordinates": [ [ -71.007696483136627, 42.372330402181838 ], [ -71.007559695240246, 42.372615872574265 ] ] } },
{ "type": "Feature", "properties": { "id": "", "runwayId": "4L - 22R", "crossRunwayId": "15L - 33R" }, "geometry": { "type": "LineString", "coordinates": [ [ -71.007265303898052, 42.372003300690508 ], [ -71.007125542351758, 42.372282823783095 ] ] } },
{ "type": "Feature", "properties": { "id": "", "runwayId": "4L - 22R", "crossRunwayId": null }, "geometry": { "type": "LineString", "coordinates": [ [ -71.006037186480626, 42.375756046891034 ], [ -71.005882556684725, 42.376074227432596 ] ] } },
{ "type": "Feature", "properties": { "id": "", "runwayId": "4L - 22R", "crossRunwayId": null }, "geometry": { "type": "LineString", "coordinates": [ [ -71.004823937312793, 42.378261346949607 ], [ -71.005058855656571, 42.377773668362536 ] ] } },
{ "type": "Feature", "properties": { "id": "", "runwayId": "4L - 22R", "crossRunwayId": "" }, "geometry": { "type": "LineString", "coordinates": [ [ -71.00537554937317, 42.377125412679725 ], [ -71.005073723906165, 42.377748392338205 ] ] } },
{ "type": "Feature", "properties": { "id": "", "runwayId": "15L - 33R", "crossRunwayId": null }, "geometry": { "type": "LineString", "coordinates": [ [ -71.008329832796775, 42.372791803501521 ], [ -71.009070644217246, 42.373344530506493 ] ] } },
{ "type": "Feature", "properties": { "id": "", "runwayId": "15L - 33R", "crossRunwayId": null }, "geometry": { "type": "LineString", "coordinates": [ [ -71.006747888811788, 42.372003300690523 ], [ -71.005237274651833, 42.370891155620008 ] ] } },
{ "type": "Feature", "properties": { "id": "", "runwayId": "15L - 33R", "crossRunwayId": null }, "geometry": { "type": "LineString", "coordinates": [ [ -71.006649758364389, 42.371533464002979 ], [ -71.004651465617371, 42.370049612692327 ] ] } },
{ "type": "Feature", "properties": { "id": "", "runwayId": "15L - 33R", "crossRunwayId": "4L - 22R" }, "geometry": { "type": "LineString", "coordinates": [ [ -71.007693509486742, 42.372324454882005 ], [ -71.007265303898095, 42.372003300690523 ] ] } },
{ "type": "Feature", "properties": { "id": "", "runwayId": "15L - 33R", "crossRunwayId": "4L - 22R" }, "geometry": { "type": "LineString", "coordinates": [ [ -71.007553747940449, 42.372621819874119 ], [ -71.007125542351801, 42.37228282378311 ] ] } },
{ "type": "Feature", "properties": { "id": "", "runwayId": "15L - 33R", "crossRunwayId": "4R - 22L" }, "geometry": { "type": "LineString", "coordinates": [ [ -71.00337130932634, 42.369087636942815 ], [ -71.002929722313041, 42.368764995926369 ] ] } },
{ "type": "Feature", "properties": { "id": "", "runwayId": "15L - 33R", "crossRunwayId": "4R - 22L" }, "geometry": { "type": "LineString", "coordinates": [ [ -71.003216679530439, 42.369377567810126 ], [ -71.002789960766748, 42.36905492679368 ] ] } },
{ "type": "Feature", "properties": { "id": "", "runwayId": "15R - 33L", "crossRunwayId": null }, "geometry": { "type": "LineString", "coordinates": [ [ -71.018090876436105, 42.374120539434387 ], [ -71.017570487699899, 42.373738425419518 ] ] } },
{ "type": "Feature", "properties": { "id": "", "runwayId": "15R - 33L", "crossRunwayId": null }, "geometry": { "type": "LineString", "coordinates": [ [ -71.015758048072954, 42.372380954230501 ], [ -71.015112766040062, 42.371914091192878 ] ] } },
{ "type": "Feature", "properties": { "id": "", "runwayId": "15R - 33L", "crossRunwayId": null }, "geometry": { "type": "LineString", "coordinates": [ [ -71.012088564070268, 42.3696541172528 ], [ -71.011315415090763, 42.369074255518171 ] ] } },
{ "type": "Feature", "properties": { "id": "", "runwayId": "15R - 33L", "crossRunwayId": null }, "geometry": { "type": "LineString", "coordinates": [ [ -71.011586017233597, 42.369856325447437 ], [ -71.011047786597857, 42.369463803657844 ] ] } },
{ "type": "Feature", "properties": { "id": "", "runwayId": "15R - 33L", "crossRunwayId": null }, "geometry": { "type": "LineString", "coordinates": [ [ -71.008374475318789, 42.367468484560767 ], [ -71.007684588537074, 42.366939174874801 ] ] } },
{ "type": "Feature", "properties": { "id": "", "runwayId": "15R - 33L", "crossRunwayId": null }, "geometry": { "type": "LineString", "coordinates": [ [ -71.008569925333035, 42.367034979473303 ], [ -71.00772621963597, 42.366403917888995 ] ] } },
{ "type": "Feature", "properties": { "id": "", "runwayId": "15R - 33L", "crossRunwayId": "4L - 22R" }, "geometry": { "type": "LineString", "coordinates": [ [ -71.009810748230706, 42.367944268548158 ], [ -71.009382542642072, 42.367635008956356 ] ] } },
{ "type": "Feature", "properties": { "id": "", "runwayId": "15R - 33L", "crossRunwayId": "4L - 22R" }, "geometry": { "type": "LineString", "coordinates": [ [ -71.009596645436389, 42.368390316036333 ], [ -71.009174387147581, 42.368063214545003 ] ] } },
{ "type": "Feature", "properties": { "id": "", "runwayId": "15R - 33L", "crossRunwayId": "4R - 22L" }, "geometry": { "type": "LineString", "coordinates": [ [ -71.00547814029558, 42.364714884733765 ], [ -71.005043987407092, 42.364393730542282 ] ] } },
{ "type": "Feature", "properties": { "id": "", "runwayId": "15R - 33L", "crossRunwayId": "4R - 22L" }, "geometry": { "type": "LineString", "coordinates": [ [ -71.00527295845103, 42.36515201127218 ], [ -71.004838805562528, 42.36482490978085 ] ] } },
{ "type": "Feature", "properties": { "id": "", "runwayId": "15R - 33L", "crossRunwayId": null }, "geometry": { "type": "LineString", "coordinates": [ [ -70.999269159260209, 42.36008788545643 ], [ -70.998454379181808, 42.359493155472194 ] ] } },
{ "type": "Feature", "properties": { "id": "", "runwayId": "15R - 33L", "crossRunwayId": null }, "geometry": { "type": "LineString", "coordinates": [ [ -70.998226894962841, 42.359897571861467 ], [ -70.997913174896155, 42.359662653517695 ] ] } },
{ "type": "Feature", "properties": { "id": "", "runwayId": "15R - 33L", "crossRunwayId": "9 - 27" }, "geometry": { "type": "LineString", "coordinates": [ [ -70.997410628059512, 42.358705138243074 ], [ -70.996940791371969, 42.358360194852224 ] ] } },
{ "type": "Feature", "properties": { "id": "", "runwayId": "15R - 33L", "crossRunwayId": "9 - 27" }, "geometry": { "type": "LineString", "coordinates": [ [ -70.996756425076853, 42.358830031539767 ], [ -70.99628658838931, 42.358473193549223 ] ] } },
{ "type": "Feature", "properties": { "id": "", "runwayId": "15R - 33L", "crossRunwayId": null }, "geometry": { "type": "LineString", "coordinates": [ [ -70.994680817431899, 42.356665214397154 ], [ -70.993883879253033, 42.356064537113085 ] ] } },
{ "type": "Feature", "properties": { "id": "", "runwayId": "15R - 33L", "crossRunwayId": null }, "geometry": { "type": "LineString", "coordinates": [ [ -70.993211834370854, 42.355582805825854 ], [ -70.992373265093079, 42.35496428664225 ] ] } },
{ "type": "Feature", "properties": { "id": "", "runwayId": "15R - 33L", "crossRunwayId": null }, "geometry": { "type": "LineString", "coordinates": [ [ -71.006764338641261, 42.365683999957128 ], [ -71.005927161433746, 42.36505685447468 ] ] } },
{ "type": "Feature", "properties": { "id": "", "runwayId": "15R - 33L", "crossRunwayId": null }, "geometry": { "type": "LineString", "coordinates": [ [ -71.00256991067279, 42.362560475365861 ], [ -71.001648079197224, 42.361876535883994 ] ] } },
{ "type": "Feature", "properties": { "id": "", "runwayId": "14 - 32", "crossRunwayId": null }, "geometry": { "type": "LineString", "coordinates": [ [ -71.009899957728436, 42.349309891317183 ], [ -71.008365554369121, 42.348492137588863 ] ] } },
{ "type": "Feature", "properties": { "id": null, "runwayId": "9 - 27", "crossRunwayId": null }, "geometry": { "type": "LineString", "coordinates": [ [ -71.013554880617221, 42.355418528083426 ], [ -71.012938055555551, 42.355525833333331 ] ] } },
{ "type": "Feature", "properties": { "id": null, "runwayId": "4R - 22L", "crossRunwayId": "14 - 32" }, "geometry": { "type": "LineString", "coordinates": [ [ -71.012172198266541, 42.350859367485057 ], [ -71.012301843664019, 42.350589056831119 ] ] } },
{ "type": "Feature", "properties": { "id": null, "runwayId": "4R - 22L", "crossRunwayId": "14 - 32" }, "geometry": { "type": "LineString", "coordinates": [ [ -71.011714550013252, 42.350618875272609 ], [ -71.01184678831865, 42.35034661993771 ] ] } },
{ "type": "Feature", "properties": { "id": null, "runwayId": "14 - 32", "crossRunwayId": "4R - 22L" }, "geometry": { "type": "LineString", "coordinates": [ [ -71.012172198266541, 42.350859367485057 ], [ -71.011714550013252, 42.350618875272609 ] ] } },
{ "type": "Feature", "properties": { "id": null, "runwayId": "15L - 33R", "crossRunwayId": null }, "geometry": { "type": "LineString", "coordinates": [ [ -71.008931311375235, 42.373636759564519 ], [ -71.008619185118434, 42.373403648749573 ] ] } },
{ "type": "Feature", "properties": { "id": null, "runwayId": "4L - 22R", "crossRunwayId": null }, "geometry": { "type": "LineString", "coordinates": [ [ -71.01424353010627, 42.357570788930637 ], [ -71.014075, 42.3579175 ] ] } }
]
}
