{
"type": "FeatureCollection",
"name": "DCA Runways",
"crs": { "type": "name", "properties": { "name": "urn:ogc:def:crs:OGC:1.3:CRS84" } },
"features": [
{ "type": "Feature", "properties": { "id": "1 - 19" }, "geometry": { "type": "Polygon", "coordinates": [ [ [ -77.037033655600325, 38.84155341942914 ], [ -77.036498578076817, 38.841585519963026 ], [ -77.038476129603026, 38.8612147319851 ], [ -77.039007015918799, 38.861185903869433 ], [ -77.037033655600325, 38.84155341942914 ] ] ] } },
{ "type": "Feature", "properties": { "id": "4 - 22" }, "geometry": { "type": "Polygon", "coordinates": [ [ [ -77.041717330267701, 38.84121228235233 ], [ -77.041237262345959, 38.841034776169067 ], [ -77.033663051396189, 38.853425412462123 ], [ -77.034137705674581, 38.853603295720539 ], [ -77.041717330267701, 38.84121228235233 ] ] ] } },
{ "type": "Feature", "properties": { "id": "15 - 33" }, "geometry": { "type": "Polygon", "coordinates": [ [ [ -77.043104096133931, 38.861293465316891 ], [ -77.043529154453864, 38.861043530881481 ], [ -77.032440965068005, 38.849680513017013 ], [ -77.032012064807645, 38.84993293544597 ], [ -77.043104096133931, 38.861293465316891 ] ] ] } }, 
{ "type": "Feature", "properties": { "runwayId": "1 - 19", "crossRunwayId": "4 - 22" }, "geometry": { "type": "LineString", "coordinates": [ [ -77.037581830648065, 38.84701207027377 ], [ -77.037664956268586, 38.847836550883251 ] ] } },
{ "type": "Feature", "properties": { "runwayId": "1 - 19", "crossRunwayId": "4 - 22" }, "geometry": { "type": "LineString", "coordinates": [ [ -77.037121496329505, 38.847766915147098 ], [ -77.037202875613431, 38.848591659019959 ] ] } },
{ "type": "Feature", "properties": { "runwayId": "4 - 22", "crossRunwayId": "1 - 19" }, "geometry": { "type": "LineString", "coordinates": [ [ -77.037582179915375, 38.847012342291372 ], [ -77.037121147062194, 38.847766371117643 ] ] } },
{ "type": "Feature", "properties": { "runwayId": "4 - 22", "crossRunwayId": "1 - 19" }, "geometry": { "type": "LineString", "coordinates": [ [ -77.037665654803206, 38.847837638941066 ], [ -77.037203224880784, 38.848591659019945 ] ] } },
{ "type": "Feature", "properties": { "runwayId": "15 - 33", "crossRunwayId": "4 - 22" }, "geometry": { "type": "LineString", "coordinates": [ [ -77.034599087795044, 38.851891354891379 ], [ -77.034960928731309, 38.852260184519892 ] ] } },
{ "type": "Feature", "properties": { "runwayId": "15 - 33", "crossRunwayId": "4 - 22" }, "geometry": { "type": "LineString", "coordinates": [ [ -77.034697581177284, 38.852686675393279 ], [ -77.034336438775668, 38.852315128002964 ] ] } },
{ "type": "Feature", "properties": { "runwayId": "4 - 22", "crossRunwayId": "15 - 33" }, "geometry": { "type": "LineString", "coordinates": [ [ -77.034598389260438, 38.851891354891379 ], [ -77.034338534379572, 38.852317303981614 ] ] } },
{ "type": "Feature", "properties": { "runwayId": "4 - 22", "crossRunwayId": "15 - 33" }, "geometry": { "type": "LineString", "coordinates": [ [ -77.034960928731337, 38.852263448490397 ], [ -77.03470037531585, 38.852687763376927 ] ] } },
{ "type": "Feature", "properties": { "runwayId": "1 - 19", "crossRunwayId": "15 - 33" }, "geometry": { "type": "LineString", "coordinates": [ [ -77.03787416738912, 38.855249374735962 ], [ -77.037951704732578, 38.8560163714439 ] ] } },
{ "type": "Feature", "properties": { "runwayId": "1 - 19", "crossRunwayId": "15 - 33" }, "geometry": { "type": "LineString", "coordinates": [ [ -77.038471763761663, 38.855860524910106 ], [ -77.038547904035923, 38.856625067199431 ] ] } },
{ "type": "Feature", "properties": { "runwayId": "15 - 33", "crossRunwayId": "1 - 19" }, "geometry": { "type": "LineString", "coordinates": [ [ -77.038471763761621, 38.855860796893879 ], [ -77.037871023983271, 38.855247198847024 ] ] } },
{ "type": "Feature", "properties": { "runwayId": "15 - 33", "crossRunwayId": "1 - 19" }, "geometry": { "type": "LineString", "coordinates": [ [ -77.03854720550126, 38.856628874931296 ], [ -77.037952228633515, 38.856016643427104 ] ] } },
{ "type": "Feature", "properties": { "runwayId": "1 - 19" }, "geometry": { "type": "LineString", "coordinates": [ [ -77.037033306333029, 38.841553147390655 ], [ -77.037108748072626, 38.842292544151604 ] ] } },
{ "type": "Feature", "properties": { "runwayId": "1 - 19" }, "geometry": { "type": "LineString", "coordinates": [ [ -77.037123068032457, 38.842442979711613 ], [ -77.037169869852391, 38.842906798016664 ] ] } },
{ "type": "Feature", "properties": { "runwayId": "1 - 19" }, "geometry": { "type": "LineString", "coordinates": [ [ -77.037247756463216, 38.84368263278656 ], [ -77.037340661568436, 38.844617322907787 ] ] } },
{ "type": "Feature", "properties": { "runwayId": "1 - 19" }, "geometry": { "type": "LineString", "coordinates": [ [ -77.037729046820473, 38.848483262325217 ], [ -77.037835922618214, 38.849532676835864 ] ] } },
{ "type": "Feature", "properties": { "runwayId": "1 - 19" }, "geometry": { "type": "LineString", "coordinates": [ [ -77.037455221247043, 38.851064609259041 ], [ -77.037528567382793, 38.851809891157352 ] ] } },
{ "type": "Feature", "properties": { "runwayId": "1 - 19" }, "geometry": { "type": "LineString", "coordinates": [ [ -77.038009508472783, 38.851263170527886 ], [ -77.038208241573926, 38.853242768867716 ] ] } },
{ "type": "Feature", "properties": { "runwayId": "1 - 19" }, "geometry": { "type": "LineString", "coordinates": [ [ -77.037632649042081, 38.852848648776309 ], [ -77.037687484010249, 38.853399709110498 ] ] } },
{ "type": "Feature", "properties": { "runwayId": "1 - 19" }, "geometry": { "type": "LineString", "coordinates": [ [ -77.038323849054549, 38.854406076787498 ], [ -77.038425136575285, 38.855397743006876 ] ] } },
{ "type": "Feature", "properties": { "runwayId": "1 - 19" }, "geometry": { "type": "LineString", "coordinates": [ [ -77.038725855731755, 38.858386801357852 ], [ -77.038823650579374, 38.859371340842472 ] ] } },
{ "type": "Feature", "properties": { "runwayId": "1 - 19" }, "geometry": { "type": "LineString", "coordinates": [ [ -77.039004571047542, 38.861159251450204 ], [ -77.038920746892444, 38.860329213965798 ] ] } },
{ "type": "Feature", "properties": { "runwayId": "4 - 22" }, "geometry": { "type": "LineString", "coordinates": [ [ -77.041711392723329, 38.841220987625043 ], [ -77.041530122987865, 38.841516422185684 ] ] } },
{ "type": "Feature", "properties": { "runwayId": "4 - 22" }, "geometry": { "type": "LineString", "coordinates": [ [ -77.039865165706772, 38.843276218292445 ], [ -77.03930354386749, 38.844195680164916 ] ] } },
{ "type": "Feature", "properties": { "runwayId": "4 - 22" }, "geometry": { "type": "LineString", "coordinates": [ [ -77.040354838479615, 38.843439437243731 ], [ -77.03948586140487, 38.844862146579544 ] ] } },
{ "type": "Feature", "properties": { "runwayId": "4 - 22" }, "geometry": { "type": "LineString", "coordinates": [ [ -77.038801646738662, 38.845018561262101 ], [ -77.038443298475542, 38.845603141092404 ] ] } },
{ "type": "Feature", "properties": { "runwayId": "4 - 22" }, "geometry": { "type": "LineString", "coordinates": [ [ -77.038755543453348, 38.846053609755593 ], [ -77.038165281694376, 38.847019278740177 ] ] } },
{ "type": "Feature", "properties": { "runwayId": "4 - 22" }, "geometry": { "type": "LineString", "coordinates": [ [ -77.036455268929885, 38.84885618978376 ], [ -77.036021478927154, 38.84956450176189 ] ] } },
{ "type": "Feature", "properties": { "runwayId": "4 - 22" }, "geometry": { "type": "LineString", "coordinates": [ [ -77.035719013434104, 38.850063362416876 ], [ -77.035471033641898, 38.85046593007845 ] ] } },
{ "type": "Feature", "properties": { "runwayId": "4 - 22" }, "geometry": { "type": "LineString", "coordinates": [ [ -77.036212877414712, 38.850211877508578 ], [ -77.035862213032445, 38.850784174522815 ] ] } },
{ "type": "Feature", "properties": { "runwayId": "4 - 22" }, "geometry": { "type": "LineString", "coordinates": [ [ -77.034254186323395, 38.853415484713651 ], [ -77.034137531040841, 38.853603703709162 ] ] } },
{ "type": "Feature", "properties": { "runwayId": "15 - 33" }, "geometry": { "type": "LineString", "coordinates": [ [ -77.032442886038169, 38.849681465042956 ], [ -77.032748145669743, 38.849993184848081 ] ] } },
{ "type": "Feature", "properties": { "runwayId": "15 - 33" }, "geometry": { "type": "LineString", "coordinates": [ [ -77.036729094503315, 38.854073433047041 ], [ -77.036053262252679, 38.853378765631923 ] ] } },
{ "type": "Feature", "properties": { "runwayId": "15 - 33" }, "geometry": { "type": "LineString", "coordinates": [ [ -77.036030210610036, 38.854052217776136 ], [ -77.035581052845529, 38.853590920064867 ] ] } },
{ "type": "Feature", "properties": { "runwayId": "15 - 33" }, "geometry": { "type": "LineString", "coordinates": [ [ -77.03902622562093, 38.856432640485139 ], [ -77.039976931246912, 38.857401976264491 ] ] } },
{ "type": "Feature", "properties": { "runwayId": "15 - 33" }, "geometry": { "type": "LineString", "coordinates": [ [ -77.040355537014207, 38.857791447525742 ], [ -77.040805393313349, 38.858251086144449 ] ] } },
{ "type": "Feature", "properties": { "runwayId": "15 - 33" }, "geometry": { "type": "LineString", "coordinates": [ [ -77.039664337001753, 38.857771865222745 ], [ -77.040018494057165, 38.858133864980125 ] ] } },
{ "type": "Feature", "properties": { "runwayId": "15 - 33" }, "geometry": { "type": "LineString", "coordinates": [ [ -77.040505721958795, 38.858634297372767 ], [ -77.04082914349064, 38.858966103865434 ] ] } },
{ "type": "Feature", "properties": { "runwayId": "15 - 33" }, "geometry": { "type": "LineString", "coordinates": [ [ -77.041044990690068, 38.85918368105294 ], [ -77.041283889532181, 38.859428454593186 ] ] } },
{ "type": "Feature", "properties": { "runwayId": "15 - 33" }, "geometry": { "type": "LineString", "coordinates": [ [ -77.0413816843798, 38.858842628515426 ], [ -77.042045292274537, 38.859525275894306 ] ] } },
{ "type": "Feature", "properties": { "runwayId": "15 - 33" }, "geometry": { "type": "LineString", "coordinates": [ [ -77.043523391543161, 38.861036867764319 ], [ -77.043164344745392, 38.860668627581234 ] ] } }
]
}
