{
"type": "FeatureCollection",
"name": "DEN ASDE-X Hold Bars",
"crs": { "type": "name", "properties": { "name": "urn:ogc:def:crs:OGC:1.3:CRS84" } },
"features": [
{ "type": "Feature", "properties": { "id": "16L - 34R", "runwayId": null }, "geometry": { "type": "Polygon", "coordinates": [ [ [ -104.686559137745846, 39.897045307519647 ], [ -104.687096312561962, 39.897046259296928 ], [ -104.687477793522575, 39.864113043255678 ], [ -104.68693937811797, 39.864111614903919 ], [ -104.686559137745846, 39.897045307519647 ] ] ] } },
{ "type": "Feature", "properties": { "id": "16R - 34L", "runwayId": null }, "geometry": { "type": "Polygon", "coordinates": [ [ [ -104.695749858565563, 39.895800224941404 ], [ -104.696460024827061, 39.895804765342895 ], [ -104.696966018288435, 39.851892972813019 ], [ -104.696248454461696, 39.851891836985729 ], [ -104.695749858565563, 39.895800224941404 ] ] ] } },
{ "type": "Feature", "properties": { "id": "17L - 35R", "runwayId": null }, "geometry": { "type": "Polygon", "coordinates": [ [ [ -104.641059624438697, 39.864962431172565 ], [ -104.641587804988262, 39.864966240063318 ], [ -104.641998439778448, 39.832034766629839 ], [ -104.641459093932468, 39.832031194081424 ], [ -104.641059624438697, 39.864962431172565 ] ] ] } },
{ "type": "Feature", "properties": { "id": "17R - 35L", "runwayId": null }, "geometry": { "type": "Polygon", "coordinates": [ [ [ -104.659909746247905, 39.861256280284138 ], [ -104.660446921063993, 39.861258184832408 ], [ -104.660838326732545, 39.828326837752599 ], [ -104.660300531622227, 39.828322550463085 ], [ -104.659909746247905, 39.861256280284138 ] ] ] } },
{ "type": "Feature", "properties": { "id": "7 - 25", "runwayId": null }, "geometry": { "type": "Polygon", "coordinates": [ [ [ -104.726675117300815, 39.841157020172808 ], [ -104.726681010096172, 39.84074646859429 ], [ -104.683957623682417, 39.840454985009131 ], [ -104.683950800445686, 39.840872206229442 ], [ -104.726675117300815, 39.841157020172808 ] ] ] } },
{ "type": "Feature", "properties": { "id": "8 - 26", "runwayId": null }, "geometry": { "type": "Polygon", "coordinates": [ [ [ -104.662247945404076, 39.877773391473234 ], [ -104.662252287463787, 39.877360678772185 ], [ -104.619510912516901, 39.877047929431065 ], [ -104.619502542343923, 39.877460780811802 ], [ -104.662247945404076, 39.877773391473234 ] ] ] } },
{ "type": "Feature", "properties": { "id": null, "runwayId": "16L - 34R" }, "geometry": { "type": "LineString", "coordinates": [ [ -104.686436939779739, 39.89704625929626 ], [ -104.686440661545234, 39.896653174152277 ] ] } },
{ "type": "Feature", "properties": { "id": null, "runwayId": "16L - 34R" }, "geometry": { "type": "LineString", "coordinates": [ [ -104.687230916413213, 39.895748022789959 ], [ -104.687234638178694, 39.895529109519082 ] ] } },
{ "type": "Feature", "properties": { "id": null, "runwayId": "16L - 34R" }, "geometry": { "type": "LineString", "coordinates": [ [ -104.686440661545234, 39.895824166372442 ], [ -104.686438180368242, 39.895363496406091 ] ] } },
{ "type": "Feature", "properties": { "id": null, "runwayId": "16L - 34R" }, "geometry": { "type": "LineString", "coordinates": [ [ -104.686484082142357, 39.89325808103068 ], [ -104.68649028508483, 39.892673654987661 ] ] } },
{ "type": "Feature", "properties": { "id": null, "runwayId": "16L - 34R" }, "geometry": { "type": "LineString", "coordinates": [ [ -104.686539908624397, 39.888201774177247 ], [ -104.686587050987029, 39.886401707453572 ] ] } },
{ "type": "Feature", "properties": { "id": null, "runwayId": "16L - 34R" }, "geometry": { "type": "LineString", "coordinates": [ [ -104.686584569810023, 39.885211790757999 ], [ -104.686606900402793, 39.883669627994216 ] ] } },
{ "type": "Feature", "properties": { "id": null, "runwayId": "16L - 34R" }, "geometry": { "type": "LineString", "coordinates": [ [ -104.687358697027634, 39.884776752058677 ], [ -104.687358697027634, 39.884551140092618 ] ] } },
{ "type": "Feature", "properties": { "id": null, "runwayId": "16L - 34R" }, "geometry": { "type": "LineString", "coordinates": [ [ -104.686652802176908, 39.877270233903708 ], [ -104.686640396292034, 39.878819204808806 ] ] } },
{ "type": "Feature", "properties": { "id": null, "runwayId": "16L - 34R" }, "geometry": { "type": "LineString", "coordinates": [ [ -104.68677686102582, 39.868525079948064 ], [ -104.68677810161428, 39.867959486696904 ] ] } },
{ "type": "Feature", "properties": { "id": null, "runwayId": "16L - 34R" }, "geometry": { "type": "LineString", "coordinates": [ [ -104.687488958819031, 39.875102377525316 ], [ -104.687496402349993, 39.874890062917899 ] ] } },
{ "type": "Feature", "properties": { "id": null, "runwayId": "16L - 34R" }, "geometry": { "type": "LineString", "coordinates": [ [ -104.686711109835898, 39.873160102810395 ], [ -104.686680095123606, 39.875278512463169 ] ] } },
{ "type": "Feature", "properties": { "id": null, "runwayId": "16L - 34R" }, "geometry": { "type": "LineString", "coordinates": [ [ -104.68680663514948, 39.86522000693278 ], [ -104.686799191618519, 39.865697067062051 ] ] } },
{ "type": "Feature", "properties": { "id": null, "runwayId": "16L - 34R" }, "geometry": { "type": "LineString", "coordinates": [ [ -104.686821522211389, 39.864108758200302 ], [ -104.686807875737983, 39.864572494863879 ] ] } },
{ "type": "Feature", "properties": { "id": null, "runwayId": "16R - 34L" }, "geometry": { "type": "LineString", "coordinates": [ [ -104.695617294604205, 39.895804178690206 ], [ -104.695613572838724, 39.895335894181663 ] ] } },
{ "type": "Feature", "properties": { "id": null, "runwayId": "16R - 34L" }, "geometry": { "type": "LineString", "coordinates": [ [ -104.695633422254545, 39.894998955787671 ], [ -104.695635903431537, 39.894434532676101 ] ] } },
{ "type": "Feature", "properties": { "id": null, "runwayId": "16R - 34L" }, "geometry": { "type": "LineString", "coordinates": [ [ -104.695684286382587, 39.89202925762973 ], [ -104.695688008148068, 39.891345828110602 ] ] } },
{ "type": "Feature", "properties": { "id": null, "runwayId": "16R - 34L" }, "geometry": { "type": "LineString", "coordinates": [ [ -104.69577112757689, 39.885075662971545 ], [ -104.695781052284815, 39.884365509437224 ] ] } },
{ "type": "Feature", "properties": { "id": null, "runwayId": "16R - 34L" }, "geometry": { "type": "LineString", "coordinates": [ [ -104.695763684046, 39.883006106552244 ], [ -104.695803382877642, 39.881389638632101 ] ] } },
{ "type": "Feature", "properties": { "id": null, "runwayId": "16R - 34L" }, "geometry": { "type": "LineString", "coordinates": [ [ -104.69582571347047, 39.87687513123803 ], [ -104.695823232293449, 39.878434583460724 ] ] } },
{ "type": "Feature", "properties": { "id": null, "runwayId": "16R - 34L" }, "geometry": { "type": "LineString", "coordinates": [ [ -104.695845562886291, 39.875384193208745 ], [ -104.695851765828735, 39.87472820829133 ] ] } },
{ "type": "Feature", "properties": { "id": null, "runwayId": "16R - 34L" }, "geometry": { "type": "LineString", "coordinates": [ [ -104.695884021129459, 39.873222941970923 ], [ -104.695923719961129, 39.871558636896211 ] ] } },
{ "type": "Feature", "properties": { "id": null, "runwayId": "16R - 34L" }, "geometry": { "type": "LineString", "coordinates": [ [ -104.695936125846018, 39.867096805182143 ], [ -104.695936125846018, 39.868650766703951 ] ] } },
{ "type": "Feature", "properties": { "id": null, "runwayId": "16R - 34L" }, "geometry": { "type": "LineString", "coordinates": [ [ -104.696024207628852, 39.860077830908409 ], [ -104.696019245274883, 39.860730146801039 ] ] } },
{ "type": "Feature", "properties": { "id": null, "runwayId": "16R - 34L" }, "geometry": { "type": "LineString", "coordinates": [ [ -104.696075071756951, 39.85633713187169 ], [ -104.696077552933914, 39.855679060111662 ] ] } },
{ "type": "Feature", "properties": { "id": null, "runwayId": "16R - 34L" }, "geometry": { "type": "LineString", "coordinates": [ [ -104.696113530000162, 39.853252425487476 ], [ -104.696117251765642, 39.852687658733039 ] ] } },
{ "type": "Feature", "properties": { "id": null, "runwayId": "16R - 34L" }, "geometry": { "type": "LineString", "coordinates": [ [ -104.696117251765642, 39.852354320356611 ], [ -104.696117251765656, 39.851891453526534 ] ] } },
{ "type": "Feature", "properties": { "id": null, "runwayId": "17L - 35R" }, "geometry": { "type": "LineString", "coordinates": [ [ -104.641705040601579, 39.864964811729358 ], [ -104.64171248413254, 39.864572494863893 ] ] } },
{ "type": "Feature", "properties": { "id": null, "runwayId": "17L - 35R" }, "geometry": { "type": "LineString", "coordinates": [ [ -104.641742258256258, 39.864163035548756 ], [ -104.641749701787219, 39.863699296117694 ] ] } },
{ "type": "Feature", "properties": { "id": null, "runwayId": "17L - 35R" }, "geometry": { "type": "LineString", "coordinates": [ [ -104.64178319767646, 39.861112010599321 ], [ -104.641785678853438, 39.860575877032979 ] ] } },
{ "type": "Feature", "properties": { "id": null, "runwayId": "17L - 35R" }, "geometry": { "type": "LineString", "coordinates": [ [ -104.641825377685151, 39.855806675099529 ], [ -104.641831580627553, 39.854117185812804 ] ] } },
{ "type": "Feature", "properties": { "id": null, "runwayId": "17L - 35R" }, "geometry": { "type": "LineString", "coordinates": [ [ -104.64188864769811, 39.852014313544963 ], [ -104.641891128875102, 39.850366637632966 ] ] } },
{ "type": "Feature", "properties": { "id": null, "runwayId": "17L - 35R" }, "geometry": { "type": "LineString", "coordinates": [ [ -104.642012706547064, 39.840876016457827 ], [ -104.641990375954194, 39.842522015082551 ] ] } },
{ "type": "Feature", "properties": { "id": null, "runwayId": "17L - 35R" }, "geometry": { "type": "LineString", "coordinates": [ [ -104.642075976559966, 39.836432194662223 ], [ -104.642077217148483, 39.83587681579754 ] ] } },
{ "type": "Feature", "properties": { "id": null, "runwayId": "17L - 35R" }, "geometry": { "type": "LineString", "coordinates": [ [ -104.642115675391651, 39.833297055434905 ], [ -104.642118156568614, 39.832828344110979 ] ] } },
{ "type": "Feature", "properties": { "id": null, "runwayId": "17L - 35R" }, "geometry": { "type": "LineString", "coordinates": [ [ -104.64213056245346, 39.832413932044709 ], [ -104.642131803041963, 39.832033813951035 ] ] } },
{ "type": "Feature", "properties": { "id": null, "runwayId": "17R - 35L" }, "geometry": { "type": "LineString", "coordinates": [ [ -104.660530970934929, 39.861260089380465 ], [ -104.660537173877373, 39.860730622941496 ] ] } },
{ "type": "Feature", "properties": { "id": null, "runwayId": "17R - 35L" }, "geometry": { "type": "LineString", "coordinates": [ [ -104.660537173877358, 39.860382087048656 ], [ -104.66054585799678, 39.859830711078217 ] ] } },
{ "type": "Feature", "properties": { "id": null, "runwayId": "17R - 35L" }, "geometry": { "type": "LineString", "coordinates": [ [ -104.660589278593932, 39.857081383429119 ], [ -104.660596722124865, 39.8564633171247 ] ] } },
{ "type": "Feature", "properties": { "id": null, "runwayId": "17R - 35L" }, "geometry": { "type": "LineString", "coordinates": [ [ -104.659849887854008, 39.856879488730726 ], [ -104.659851128442483, 39.856647118625702 ] ] } },
{ "type": "Feature", "properties": { "id": null, "runwayId": "17R - 35L" }, "geometry": { "type": "LineString", "coordinates": [ [ -104.660655029783896, 39.852106220313935 ], [ -104.660671157434237, 39.85027853824031 ] ] } },
{ "type": "Feature", "properties": { "id": null, "runwayId": "17R - 35L" }, "geometry": { "type": "LineString", "coordinates": [ [ -104.66069845038102, 39.848147927152716 ], [ -104.660689766261598, 39.84709640763694 ] ] } },
{ "type": "Feature", "properties": { "id": null, "runwayId": "17R - 35L" }, "geometry": { "type": "LineString", "coordinates": [ [ -104.66078281039826, 39.841288948639523 ], [ -104.660760479805475, 39.843077816470675 ] ] } },
{ "type": "Feature", "properties": { "id": null, "runwayId": "17R - 35L" }, "geometry": { "type": "LineString", "coordinates": [ [ -104.660831193349381, 39.837173804205115 ], [ -104.660807622168065, 39.838967542154542 ] ] } },
{ "type": "Feature", "properties": { "id": null, "runwayId": "17R - 35L" }, "geometry": { "type": "LineString", "coordinates": [ [ -104.66088950100837, 39.832569694114348 ], [ -104.66088950100837, 39.831959028564405 ] ] } },
{ "type": "Feature", "properties": { "id": null, "runwayId": "17R - 35L" }, "geometry": { "type": "LineString", "coordinates": [ [ -104.660143907325988, 39.83238106477355 ], [ -104.660143907325988, 39.832152422453895 ] ] } },
{ "type": "Feature", "properties": { "id": null, "runwayId": "17R - 35L" }, "geometry": { "type": "LineString", "coordinates": [ [ -104.66093044042853, 39.82961634702292 ], [ -104.660932921605536, 39.829164759534024 ] ] } },
{ "type": "Feature", "properties": { "id": null, "runwayId": "17R - 35L" }, "geometry": { "type": "LineString", "coordinates": [ [ -104.66094284631339, 39.82872174360655 ], [ -104.660941605724901, 39.828325408656717 ] ] } },
{ "type": "Feature", "properties": { "id": null, "runwayId": "7 - 25" }, "geometry": { "type": "LineString", "coordinates": [ [ -104.726671705681412, 39.84126656368317 ], [ -104.726191597935852, 39.841264658580151 ] ] } },
{ "type": "Feature", "properties": { "id": null, "runwayId": "7 - 25" }, "geometry": { "type": "LineString", "coordinates": [ [ -104.725519198974325, 39.841265611131654 ], [ -104.725037850640277, 39.841264658580123 ] ] } },
{ "type": "Feature", "properties": { "id": null, "runwayId": "7 - 25" }, "geometry": { "type": "LineString", "coordinates": [ [ -104.721677096421331, 39.841235129476473 ], [ -104.720991050986456, 39.84123417692453 ] ] } },
{ "type": "Feature", "properties": { "id": null, "runwayId": "7 - 25" }, "geometry": { "type": "LineString", "coordinates": [ [ -104.715206186858381, 39.84118083399467 ], [ -104.713067412301839, 39.841157972726329 ] ] } },
{ "type": "Feature", "properties": { "id": null, "runwayId": "7 - 25" }, "geometry": { "type": "LineString", "coordinates": [ [ -104.697666746789082, 39.84105319181576 ], [ -104.699835295469313, 39.841068432685411 ] ] } },
{ "type": "Feature", "properties": { "id": null, "runwayId": "7 - 25" }, "geometry": { "type": "LineString", "coordinates": [ [ -104.68963765808293, 39.841020804956486 ], [ -104.688959056178987, 39.841023662621168 ] ] } },
{ "type": "Feature", "properties": { "id": null, "runwayId": "7 - 25" }, "geometry": { "type": "LineString", "coordinates": [ [ -104.68568266197731, 39.840994133413879 ], [ -104.685090901267657, 39.840992228303293 ] ] } },
{ "type": "Feature", "properties": { "id": null, "runwayId": "7 - 25" }, "geometry": { "type": "LineString", "coordinates": [ [ -104.684537598801199, 39.840980797638679 ], [ -104.6839731310383, 39.840979845083197 ] ] } },
{ "type": "Feature", "properties": { "id": null, "runwayId": "8 - 26" }, "geometry": { "type": "LineString", "coordinates": [ [ -104.662254148346832, 39.877270233903623 ], [ -104.661747988242979, 39.877264521592139 ] ] } },
{ "type": "Feature", "properties": { "id": null, "runwayId": "8 - 26" }, "geometry": { "type": "LineString", "coordinates": [ [ -104.661224459900254, 39.877261665436222 ], [ -104.660604165655357, 39.877255001071944 ] ] } },
{ "type": "Feature", "properties": { "id": null, "runwayId": "8 - 26" }, "geometry": { "type": "LineString", "coordinates": [ [ -104.657264501440721, 39.877221679240876 ], [ -104.656558606590011, 39.877213110767414 ] ] } },
{ "type": "Feature", "properties": { "id": null, "runwayId": "8 - 26" }, "geometry": { "type": "LineString", "coordinates": [ [ -104.650776223638914, 39.877187405340585 ], [ -104.648536961414763, 39.877176932756527 ] ] } },
{ "type": "Feature", "properties": { "id": null, "runwayId": "8 - 26" }, "geometry": { "type": "LineString", "coordinates": [ [ -104.645426806070716, 39.877145514994766 ], [ -104.643328970934434, 39.877130282135397 ] ] } },
{ "type": "Feature", "properties": { "id": null, "runwayId": "8 - 26" }, "geometry": { "type": "LineString", "coordinates": [ [ -104.630986356049092, 39.877040789018267 ], [ -104.632920433504722, 39.877043645183377 ] ] } },
{ "type": "Feature", "properties": { "id": null, "runwayId": "8 - 26" }, "geometry": { "type": "LineString", "coordinates": [ [ -104.625215138394339, 39.876998898582869 ], [ -104.624496837658754, 39.876992234193061 ] ] } },
{ "type": "Feature", "properties": { "id": null, "runwayId": "8 - 26" }, "geometry": { "type": "LineString", "coordinates": [ [ -104.62116833874056, 39.876964624571258 ], [ -104.620659697459715, 39.876962720459005 ] ] } },
{ "type": "Feature", "properties": { "id": null, "runwayId": "8 - 26" }, "geometry": { "type": "LineString", "coordinates": [ [ -104.619983576732736, 39.876949391671708 ], [ -104.619512153106612, 39.876947487559029 ] ] } }
]
}