{
"type": "FeatureCollection",
"name": "DTW_SL",
"crs": { "type": "name", "properties": { "name": "urn:ogc:def:crs:OGC:1.3:CRS84" } },
"features": [
{ "type": "Feature", "properties": { "id": "4L - 22R" }, "geometry": { "type": "Polygon", "coordinates": [ [ [ -83.384265840001675, 42.202292013776798 ], [ -83.383782027872641, 42.202094096005602 ], [ -83.366067724418059, 42.226166802203032 ], [ -83.366551690627347, 42.226365443221248 ], [ -83.384265840001675, 42.202292013776798 ] ] ] } },
{ "type": "Feature", "properties": { "id": "4R - 22L" }, "geometry": { "type": "Polygon", "coordinates": [ [ [ -83.37162663333217, 42.20247372320312 ], [ -83.370979187928924, 42.202213600062741 ], [ -83.349694227697981, 42.231109594542581 ], [ -83.350339515977041, 42.231373135374234 ], [ -83.37162663333217, 42.20247372320312 ] ] ] } },
{ "type": "Feature", "properties": { "id": "3L - 21R" }, "geometry": { "type": "Polygon", "coordinates": [ [ [ -83.351477244881664, 42.207954550671765 ], [ -83.350999904125104, 42.207759846261538 ], [ -83.335929310386931, 42.228214908282858 ], [ -83.336412814355299, 42.228407610069574 ], [ -83.351477244881664, 42.207954550671765 ] ] ] } },
{ "type": "Feature", "properties": { "id": "3R - 21L" }, "geometry": { "type": "Polygon", "coordinates": [ [ [ -83.352070454020762, 42.195743049027449 ], [ -83.351586025570583, 42.195538261656722 ], [ -83.333854465122826, 42.219601256462347 ], [ -83.334342283339566, 42.219795011510108 ], [ -83.352070454020762, 42.195743049027449 ] ] ] } },
{ "type": "Feature", "properties": { "id": "9R - 27L" }, "geometry": { "type": "Polygon", "coordinates": [ [ [ -83.361770039765773, 42.199237059943016 ], [ -83.361748468524354, 42.19882979009288 ], [ -83.330392203834748, 42.199347551983315 ], [ -83.330406071061404, 42.199761210550832 ], [ -83.361770039765773, 42.199237059943016 ] ] ] } },
{ "type": "Feature", "properties": { "id": "9L - 27R" }, "geometry": { "type": "Polygon", "coordinates": [ [ [ -83.363192971298048, 42.217192334065686 ], [ -83.363185575443865, 42.216781756567435 ], [ -83.331064610245889, 42.217316031710325 ], [ -83.331069540815363, 42.217727803904275 ], [ -83.363192971298048, 42.217192334065686 ] ] ] } },
{ "type": "Feature", "properties": { "id": "A" }, "geometry": { "type": "Polygon", "coordinates": [ [ [ -83.382324197153679, 42.201493033968255 ], [ -83.381926361829784, 42.201326388334792 ], [ -83.364223460317064, 42.225419240052169 ], [ -83.364590171421199, 42.225569392134794 ], [ -83.382324197153679, 42.201493033968255 ] ] ] } },
{ "type": "Feature", "properties": { "id": "W" }, "geometry": { "type": "Polygon", "coordinates": [ [ [ -83.354064638042871, 42.196560251070288 ], [ -83.353604862434295, 42.196381264234397 ], [ -83.336097642678141, 42.219989450639417 ], [ -83.336497018810007, 42.220162893462224 ], [ -83.354064638042871, 42.196560251070288 ] ] ] } },
{ "type": "Feature", "properties": { "runwayId": "9L - 27R"}, "geometry": { "type": "LineString", "coordinates": [ [ -83.363185459883866, 42.217187883686044 ], [ -83.362348495716873, 42.21720249006362 ] ] } },
{ "type": "Feature", "properties": { "runwayId": "9L - 27R"}, "geometry": { "type": "LineString", "coordinates": [ [ -83.358782461350131, 42.21726000264254 ], [ -83.356672177618393, 42.217296518538468 ] ] } },
{ "type": "Feature", "properties": { "runwayId": "9L - 27R"}, "geometry": { "type": "LineString", "coordinates": [ [ -83.355826584954812, 42.217303821715113 ], [ -83.354596407872862, 42.217331208620045 ] ] } },
{ "type": "Feature", "properties": { "runwayId": "9L - 27R"}, "geometry": { "type": "LineString", "coordinates": [ [ -83.353748349924601, 42.217342163378675 ], [ -83.352646367648802, 42.217362247097924 ] ] } },
{ "type": "Feature", "properties": { "runwayId": "9L - 27R"}, "geometry": { "type": "LineString", "coordinates": [ [ -83.351078446558404, 42.217393285560561 ], [ -83.349315767974062, 42.217415195054393 ] ] } },
{ "type": "Feature", "properties": { "runwayId": "9L - 27R"}, "geometry": { "type": "LineString", "coordinates": [ [ -83.348963232257177, 42.217422498217331 ], [ -83.347518575403441, 42.217444407701059 ] ] } },
{ "type": "Feature", "properties": { "runwayId": "9L - 27R"}, "geometry": { "type": "LineString", "coordinates": [ [ -83.346374683287138, 42.217464491387787 ], [ -83.34562030615875, 42.217477271912358 ] ] } },
{ "type": "Feature", "properties": { "runwayId": "9L - 27R"}, "geometry": { "type": "LineString", "coordinates": [ [ -83.341917448489198, 42.217533871347328 ], [ -83.341096508673019, 42.217548477644883 ] ] } },
{ "type": "Feature", "properties": { "runwayId": "9L - 27R"}, "geometry": { "type": "LineString", "coordinates": [ [ -83.338510424987689, 42.217594122302984 ], [ -83.337889173234913, 42.217608728586605 ] ] } },
{ "type": "Feature", "properties": { "runwayId": "9L - 27R"}, "geometry": { "type": "LineString", "coordinates": [ [ -83.331847992995833, 42.21770823380389 ], [ -83.331068963020101, 42.217723752952075 ] ] } },
{ "type": "Feature", "properties": { "runwayId": "9L - 27R"}, "geometry": { "type": "LineString", "coordinates": [ [ -83.33107635887427, 42.217318428065894 ], [ -83.331811013724831, 42.217305647509157 ] ] } },
{ "type": "Feature", "properties": { "runwayId": "9L - 27R"}, "geometry": { "type": "LineString", "coordinates": [ [ -83.338314434851398, 42.217200664266649 ], [ -83.339480514530266, 42.2171796675972 ] ] } },
{ "type": "Feature", "properties": { "runwayId": "9L - 27R"}, "geometry": { "type": "LineString", "coordinates": [ [ -83.341107602454287, 42.217159583819893 ], [ -83.34188293450292, 42.217143151633707 ] ] } },
{ "type": "Feature", "properties": { "runwayId": "9L - 27R"}, "geometry": { "type": "LineString", "coordinates": [ [ -83.345953119597709, 42.217075597045579 ], [ -83.347072358866626, 42.21705642613577 ] ] } },
{ "type": "Feature", "properties": { "runwayId": "9L - 27R"}, "geometry": { "type": "LineString", "coordinates": [ [ -83.348603300686037, 42.217026300408619 ], [ -83.349568459659153, 42.217013519792744 ] ] } },
{ "type": "Feature", "properties": { "runwayId": "9L - 27R"}, "geometry": { "type": "LineString", "coordinates": [ [ -83.352525568696848, 42.216962397303469 ], [ -83.353565918854329, 42.216944139261535 ] ] } },
{ "type": "Feature", "properties": { "runwayId": "9L - 27R"}, "geometry": { "type": "LineString", "coordinates": [ [ -83.354670366414879, 42.216928619921752 ], [ -83.355739067346789, 42.216914926383467 ] ] } },
{ "type": "Feature", "properties": { "runwayId": "9L - 27R"}, "geometry": { "type": "LineString", "coordinates": [ [ -83.357456754485028, 42.216876013896098 ], [ -83.359682906599289, 42.216839497757022 ] ] } },
{ "type": "Feature", "properties": { "runwayId": "9R - 27L"}, "geometry": { "type": "LineString", "coordinates": [ [ -83.361705056401561, 42.199217655333769 ], [ -83.360829880321234, 42.199250529028944 ] ] } },
{ "type": "Feature", "properties": { "runwayId": "9R - 27L"}, "geometry": { "type": "LineString", "coordinates": [ [ -83.360667171528817, 42.199251442186892 ], [ -83.359529442624378, 42.199271531658567 ] ] } },
{ "type": "Feature", "properties": { "runwayId": "9R - 27L"}, "geometry": { "type": "LineString", "coordinates": [ [ -83.355290385525393, 42.199340018445795 ], [ -83.353177636508889, 42.19937837101422 ] ] } },
{ "type": "Feature", "properties": { "runwayId": "9R - 27L"}, "geometry": { "type": "LineString", "coordinates": [ [ -83.351802007627697, 42.199396634133862 ], [ -83.34987415496623, 42.199431334046643 ] ] } },
{ "type": "Feature", "properties": { "runwayId": "9R - 27L"}, "geometry": { "type": "LineString", "coordinates": [ [ -83.352272877011785, 42.199000323252136 ], [ -83.351634368265863, 42.199007628544337 ] ] } },
{ "type": "Feature", "properties": { "runwayId": "9R - 27L"}, "geometry": { "type": "LineString", "coordinates": [ [ -83.342372293522615, 42.199553696744893 ], [ -83.340557843958877, 42.199584743959015 ] ] } },
{ "type": "Feature", "properties": { "runwayId": "9R - 27L"}, "geometry": { "type": "LineString", "coordinates": [ [ -83.338710113051249, 42.199616704310522 ], [ -83.336874708567251, 42.199650490950283 ] ] } },
{ "type": "Feature", "properties": { "runwayId": "9R - 27L"}, "geometry": { "type": "LineString", "coordinates": [ [ -83.33269481830186, 42.199718064175585 ], [ -83.331516412199306, 42.199738153498899 ] ] } },
{ "type": "Feature", "properties": { "runwayId": "9R - 27L"}, "geometry": { "type": "LineString", "coordinates": [ [ -83.331264953156534, 42.199739979800718 ], [ -83.330387311791455, 42.199754590213246 ] ] } },
{ "type": "Feature", "properties": { "runwayId": "4R - 22L", "crossRunwayId": "9L - 27R" }, "geometry": { "type": "LineString", "coordinates": [ [ -83.361059151801513, 42.216813594108039 ], [ -83.360744827998019, 42.217237180196932 ] ] } },
{ "type": "Feature", "properties": { "runwayId": "4R - 22L", "crossRunwayId": "9L - 27R" }, "geometry": { "type": "LineString", "coordinates": [ [ -83.360218489707449, 42.216831852187696 ], [ -83.359907863831054, 42.217250873665314 ] ] } },
{ "type": "Feature", "properties": { "runwayId": "9L - 27R", "crossRunwayId": "4R - 22L" }, "geometry": { "type": "LineString", "coordinates": [ [ -83.361057919159165, 42.21681541991623 ], [ -83.360211093853238, 42.216830939283838 ] ] } },
{ "type": "Feature", "properties": { "runwayId": "9L - 27R", "crossRunwayId": "4R - 22L" }, "geometry": { "type": "LineString", "coordinates": [ [ -83.360748525925132, 42.217237180196911 ], [ -83.359901700619218, 42.217251786563111 ] ] } },
{ "type": "Feature", "properties": { "runwayId": "3L - 21R", "crossRunwayId": "9L - 27R" }, "geometry": { "type": "LineString", "coordinates": [ [ -83.344752525932776, 42.217084726048235 ], [ -83.34444559798348, 42.217505571636245 ] ] } },
{ "type": "Feature", "properties": { "runwayId": "3L - 21R", "crossRunwayId": "9L - 27R" }, "geometry": { "type": "LineString", "coordinates": [ [ -83.343809554522295, 42.217520177940358 ], [ -83.344123878325789, 42.217097506649701 ] ] } },
{ "type": "Feature", "properties": { "runwayId": "9L - 27R", "crossRunwayId": "3L - 21R" }, "geometry": { "type": "LineString", "coordinates": [ [ -83.34444190005641, 42.217504658742129 ], [ -83.343812019807032, 42.217518352152531 ] ] } },
{ "type": "Feature", "properties": { "runwayId": "9L - 27R", "crossRunwayId": "3L - 21R" }, "geometry": { "type": "LineString", "coordinates": [ [ -83.344751293290471, 42.217090203449189 ], [ -83.344122645683441, 42.21710115824964 ] ] } },
{ "type": "Feature", "properties": { "runwayId": "9L - 27R", "crossRunwayId": "3R - 21L" }, "geometry": { "type": "LineString", "coordinates": [ [ -83.336237432463847, 42.217229877012592 ], [ -83.335590295221323, 42.21724357048258 ] ] } },
{ "type": "Feature", "properties": { "runwayId": "9L - 27R", "crossRunwayId": "3R - 21L" }, "geometry": { "type": "LineString", "coordinates": [ [ -83.335932969799273, 42.217646157173036 ], [ -83.335282134629637, 42.217658024768959 ] ] } },
{ "type": "Feature", "properties": { "runwayId": "3R - 21L", "crossRunwayId": "9L - 27R" }, "geometry": { "type": "LineString", "coordinates": [ [ -83.336233734536748, 42.21723170280876 ], [ -83.335921876017963, 42.217650721633269 ] ] } },
{ "type": "Feature", "properties": { "runwayId": "3R - 21L", "crossRunwayId": "9L - 27R" }, "geometry": { "type": "LineString", "coordinates": [ [ -83.335589062578975, 42.21724265758467 ], [ -83.335278436702566, 42.21766167633649 ] ] } },
{ "type": "Feature", "properties": { "runwayId": "3R - 21L"}, "geometry": { "type": "LineString", "coordinates": [ [ -83.341235797260708, 42.20963319507883 ], [ -83.341797882179918, 42.208837047166796 ] ] } },
{ "type": "Feature", "properties": { "runwayId": "3R - 21L", "crossRunwayId": "9R - 27L" }, "geometry": { "type": "LineString", "coordinates": [ [ -83.349649814055638, 42.199023152287495 ], [ -83.349331792325032, 42.199454162926287 ] ] } },
{ "type": "Feature", "properties": { "runwayId": "3R - 21L", "crossRunwayId": "9R - 27L" }, "geometry": { "type": "LineString", "coordinates": [ [ -83.349016235879134, 42.199028631254748 ], [ -83.348700679433279, 42.199459641856151 ] ] } },
{ "type": "Feature", "properties": { "runwayId": "9R - 27L", "crossRunwayId": "3R - 21L" }, "geometry": { "type": "LineString", "coordinates": [ [ -83.349644883486178, 42.199029544415907 ], [ -83.349003909455533, 42.199040502348808 ] ] } },
{ "type": "Feature", "properties": { "runwayId": "9R - 27L", "crossRunwayId": "3R - 21L" }, "geometry": { "type": "LineString", "coordinates": [ [ -83.349342886106356, 42.1994505103061 ], [ -83.348699446790945, 42.199456902391276 ] ] } },
{ "type": "Feature", "properties": { "runwayId": "4L - 22R"}, "geometry": { "type": "LineString", "coordinates": [ [ -83.383778599582172, 42.202100659036624 ], [ -83.383439314770726, 42.202560183381706 ] ] } },
{ "type": "Feature", "properties": { "runwayId": "4L - 22R"}, "geometry": { "type": "LineString", "coordinates": [ [ -83.379956175603112, 42.207297905938496 ], [ -83.379058811960164, 42.208514978747125 ] ] } },
{ "type": "Feature", "properties": { "runwayId": "4L - 22R"}, "geometry": { "type": "LineString", "coordinates": [ [ -83.377045906975425, 42.211254219817 ], [ -83.376063491009191, 42.212588076053024 ] ] } },
{ "type": "Feature", "properties": { "runwayId": "4L - 22R"}, "geometry": { "type": "LineString", "coordinates": [ [ -83.373661071036551, 42.215858232724798 ], [ -83.372816094694159, 42.216999369822041 ] ] } },
{ "type": "Feature", "properties": { "runwayId": "4L - 22R"}, "geometry": { "type": "LineString", "coordinates": [ [ -83.370784700073926, 42.219768139159036 ], [ -83.369865148868357, 42.221012356993768 ] ] } },
{ "type": "Feature", "properties": { "runwayId": "4L - 22R"}, "geometry": { "type": "LineString", "coordinates": [ [ -83.367148405092166, 42.224708351807081 ], [ -83.366567830537491, 42.22549608464648 ] ] } },
{ "type": "Feature", "properties": { "runwayId": "4L - 22R"}, "geometry": { "type": "LineString", "coordinates": [ [ -83.366406354387465, 42.225713325577608 ], [ -83.366067377736627, 42.226172449960011 ] ] } },
{ "type": "Feature", "properties": { "runwayId": "4R - 22L"}, "geometry": { "type": "LineString", "coordinates": [ [ -83.370975759640714, 42.202228723534347 ], [ -83.370656505267746, 42.202664277851106 ] ] } },
{ "type": "Feature", "properties": { "runwayId": "4R - 22L"}, "geometry": { "type": "LineString", "coordinates": [ [ -83.370154819824535, 42.203343627017965 ], [ -83.369783794472156, 42.203846742459056 ] ] } },
{ "type": "Feature", "properties": { "runwayId": "4R - 22L"}, "geometry": { "type": "LineString", "coordinates": [ [ -83.367376443930198, 42.20711780821437 ], [ -83.366903109261386, 42.207760588105423 ] ] } },
{ "type": "Feature", "properties": { "runwayId": "4R - 22L"}, "geometry": { "type": "LineString", "coordinates": [ [ -83.368045768735286, 42.207323242839536 ], [ -83.367496010239734, 42.208069193172435 ] ] } },
{ "type": "Feature", "properties": { "runwayId": "4R - 22L"}, "geometry": { "type": "LineString", "coordinates": [ [ -83.363912718879831, 42.211837157715337 ], [ -83.363385764268074, 42.212539232396189 ] ] } },
{ "type": "Feature", "properties": { "runwayId": "4R - 22L"}, "geometry": { "type": "LineString", "coordinates": [ [ -83.361807365717539, 42.214681014087752 ], [ -83.360993821755542, 42.215765571487424 ] ] } },
{ "type": "Feature", "properties": { "runwayId": "4R - 22L"}, "geometry": { "type": "LineString", "coordinates": [ [ -83.359559026040884, 42.217750226784197 ], [ -83.359001871691149, 42.218489663821039 ] ] } },
{ "type": "Feature", "properties": { "runwayId": "4R - 22L"}, "geometry": { "type": "LineString", "coordinates": [ [ -83.360412014558634, 42.217682672845498 ], [ -83.359933749320376, 42.218330822521118 ] ] } },
{ "type": "Feature", "properties": { "runwayId": "4R - 22L"}, "geometry": { "type": "LineString", "coordinates": [ [ -83.356583427367752, 42.221779597223687 ], [ -83.355829050239336, 42.222792832973411 ] ] } },
{ "type": "Feature", "properties": { "runwayId": "4R - 22L"}, "geometry": { "type": "LineString", "coordinates": [ [ -83.357221936113689, 42.222011456208307 ], [ -83.356689434611269, 42.222734412615154 ] ] } },
{ "type": "Feature", "properties": { "runwayId": "4R - 22L"}, "geometry": { "type": "LineString", "coordinates": [ [ -83.353713835938137, 42.225682747592678 ], [ -83.35314435516473, 42.226438521508378 ] ] } },
{ "type": "Feature", "properties": { "runwayId": "4R - 22L"}, "geometry": { "type": "LineString", "coordinates": [ [ -83.354290712565742, 42.225993090633587 ], [ -83.353770537486994, 42.226684967568154 ] ] } },
{ "type": "Feature", "properties": { "runwayId": "4R - 22L"}, "geometry": { "type": "LineString", "coordinates": [ [ -83.350735771980283, 42.229731691606595 ], [ -83.350210666332089, 42.230429003810407 ] ] } },
{ "type": "Feature", "properties": { "runwayId": "4R - 22L"}, "geometry": { "type": "LineString", "coordinates": [ [ -83.350060283963359, 42.230638926132805 ], [ -83.349707748246502, 42.231111705154298 ] ] } },
{ "type": "Feature", "properties": { "runwayId": "4R - 22L"}, "geometry": { "type": "LineString", "coordinates": [ [ -83.350762890112378, 42.230795911065456 ], [ -83.350321604145108, 42.231369085295071 ] ] } },
{ "type": "Feature", "properties": { "runwayId": "3L - 21R"}, "geometry": { "type": "LineString", "coordinates": [ [ -83.35146796154612, 42.207970585800183 ], [ -83.35107598127351, 42.20848553371416 ] ] } },
{ "type": "Feature", "properties": { "runwayId": "3L - 21R"}, "geometry": { "type": "LineString", "coordinates": [ [ -83.350994626877309, 42.207775196663356 ], [ -83.350649487014635, 42.208246320843571 ] ] } },
{ "type": "Feature", "properties": { "runwayId": "3L - 21R"}, "geometry": { "type": "LineString", "coordinates": [ [ -83.350898480772685, 42.208724745678893 ], [ -83.350264902596237, 42.209582979623868 ] ] } },
{ "type": "Feature", "properties": { "runwayId": "3L - 21R"}, "geometry": { "type": "LineString", "coordinates": [ [ -83.348243369114854, 42.21150939846288 ], [ -83.347712100254796, 42.212237039959689 ] ] } },
{ "type": "Feature", "properties": { "runwayId": "3L - 21R"}, "geometry": { "type": "LineString", "coordinates": [ [ -83.348717936425999, 42.21169564626905 ], [ -83.348105313169754, 42.212526450872339 ] ] } },
{ "type": "Feature", "properties": { "runwayId": "3L - 21R"}, "geometry": { "type": "LineString", "coordinates": [ [ -83.343927888189214, 42.218200280234186 ], [ -83.343591376823099, 42.218655807741762 ] ] } },
{ "type": "Feature", "properties": { "runwayId": "3L - 21R"}, "geometry": { "type": "LineString", "coordinates": [ [ -83.343259796026487, 42.218281526864089 ], [ -83.343014500195494, 42.218602860825492 ] ] } },
{ "type": "Feature", "properties": { "runwayId": "3L - 21R"}, "geometry": { "type": "LineString", "coordinates": [ [ -83.337567453577179, 42.226810928516088 ], [ -83.336960993532784, 42.227654312735609 ] ] } },
{ "type": "Feature", "properties": { "runwayId": "3L - 21R"}, "geometry": { "type": "LineString", "coordinates": [ [ -83.337099049477857, 42.226652108149139 ], [ -83.336499985287645, 42.227449856989793 ] ] } },
{ "type": "Feature", "properties": { "runwayId": "3L - 21R"}, "geometry": { "type": "LineString", "coordinates": [ [ -83.336803215309885, 42.227867895262897 ], [ -83.336411235037275, 42.228402761156175 ] ] } },
{ "type": "Feature", "properties": { "runwayId": "3L - 21R"}, "geometry": { "type": "LineString", "coordinates": [ [ -83.336321252144515, 42.227695386354696 ], [ -83.335937900368464, 42.228218388100728 ] ] } },
{ "type": "Feature", "properties": { "runwayId": "3R - 21L"}, "geometry": { "type": "LineString", "coordinates": [ [ -83.334787845040339, 42.219174320023932 ], [ -83.334339163218885, 42.219790504259578 ] ] } },
{ "type": "Feature", "properties": { "runwayId": "3R - 21L"}, "geometry": { "type": "LineString", "coordinates": [ [ -83.334540083924679, 42.218693235707541 ], [ -83.334803869391152, 42.218322606580998 ] ] } },
{ "type": "Feature", "properties": { "runwayId": "3R - 21L"}, "geometry": { "type": "LineString", "coordinates": [ [ -83.335040536725543, 42.218833818600267 ], [ -83.335824497270764, 42.217780352166081 ] ] } },
{ "type": "Feature", "properties": { "runwayId": "3R - 21L"}, "geometry": { "type": "LineString", "coordinates": [ [ -83.337276549978739, 42.214952155183816 ], [ -83.337690717813928, 42.214391613047816 ] ] } },
{ "type": "Feature", "properties": { "runwayId": "3R - 21L"}, "geometry": { "type": "LineString", "coordinates": [ [ -83.337719068588385, 42.215198646079166 ], [ -83.338112281503356, 42.214672797672776 ] ] } },
{ "type": "Feature", "properties": { "runwayId": "3R - 21L"}, "geometry": { "type": "LineString", "coordinates": [ [ -83.339269732685651, 42.213098878014939 ], [ -83.340319943982038, 42.21167282181252 ] ] } },
{ "type": "Feature", "properties": { "runwayId": "3R - 21L"}, "geometry": { "type": "LineString", "coordinates": [ [ -83.341626544890758, 42.209894314800394 ], [ -83.342585540651996, 42.208608791900723 ] ] } },
{ "type": "Feature", "properties": { "runwayId": "3R - 21L"}, "geometry": { "type": "LineString", "coordinates": [ [ -83.343433598600299, 42.207409068662933 ], [ -83.344626796411248, 42.205820358993293 ] ] } },
{ "type": "Feature", "properties": { "runwayId": "3R - 21L"}, "geometry": { "type": "LineString", "coordinates": [ [ -83.347267116360683, 42.202246529272905 ], [ -83.347789756724154, 42.201536122069726 ] ] } },
{ "type": "Feature", "properties": { "runwayId": "3R - 21L"}, "geometry": { "type": "LineString", "coordinates": [ [ -83.346692705017801, 42.202180784982808 ], [ -83.347097011714069, 42.201638391979323 ] ] } },
{ "type": "Feature", "properties": { "runwayId": "3R - 21L"}, "geometry": { "type": "LineString", "coordinates": [ [ -83.347940139092884, 42.201338886776668 ], [ -83.348477571164779, 42.200610206604907 ] ] } },
{ "type": "Feature", "properties": { "runwayId": "3R - 21L"}, "geometry": { "type": "LineString", "coordinates": [ [ -83.347395311166821, 42.201231137606513 ], [ -83.347774965015773, 42.200717956833913 ] ] } },
{ "type": "Feature", "properties": { "runwayId": "3R - 21L"}, "geometry": { "type": "LineString", "coordinates": [ [ -83.352062095167057, 42.195742991957005 ], [ -83.351615878630312, 42.196340227590134 ] ] } }
]
}
