{
"type": "FeatureCollection",
"name": "EWR_SLS",
"crs": { "type": "name", "properties": { "name": "urn:ogc:def:crs:OGC:1.3:CRS84" } },
"features": [
{ "type": "Feature", "properties": { "id": "4L - 22R" }, "geometry": { "type": "Polygon", "coordinates": [ [ [ -74.179809601720635, 40.675341978376331 ], [ -74.179317172216244, 40.675161872132705 ], [ -74.161829182139783, 40.702679747552537 ], [ -74.162320267432619, 40.702861308885993 ], [ -74.179809601720635, 40.675341978376331 ] ] ] } },
{ "type": "Feature", "properties": { "id": "4R - 22L" }, "geometry": { "type": "Polygon", "coordinates": [ [ [ -74.17459141341817, 40.677570193943971 ], [ -74.174102568477963, 40.67738397702724 ], [ -74.15814014109462, 40.702507195810412 ], [ -74.158632570599025, 40.702690965836645 ], [ -74.17459141341817, 40.677570193943971 ] ] ] } },
{ "type": "Feature", "properties": { "id": "11 - 29" }, "geometry": { "type": "Polygon", "coordinates": [ [ [ -74.180897713543587, 40.703044828630034 ], [ -74.180943416736881, 40.702629396021685 ], [ -74.156580636901708, 40.701010246629536 ], [ -74.156530453003185, 40.701428067089616 ], [ -74.180897713543587, 40.703044828630034 ] ] ] } },
{ "type": "Feature", "properties": { "runwayId": "4L - 22R", "crossRunwayId": null, "taxiwayId": null }, "geometry": { "type": "LineString", "coordinates": [ [ -74.179692531999905, 40.675478256000098 ], [ -74.17937736, 40.675974079000099 ] ] } },
{ "type": "Feature", "properties": { "runwayId": "4L - 22R", "crossRunwayId": null, "taxiwayId": null }, "geometry": { "type": "LineString", "coordinates": [ [ -74.179107880999894, 40.676398015000103 ], [ -74.178713091, 40.677019081 ] ] } },
{ "type": "Feature", "properties": { "runwayId": "4L - 22R", "crossRunwayId": null, "taxiwayId": null }, "geometry": { "type": "LineString", "coordinates": [ [ -74.178418606, 40.677482348000098 ], [ -74.178034302, 40.6780869090001 ] ] } },
{ "type": "Feature", "properties": { "runwayId": "4L - 22R", "crossRunwayId": null, "taxiwayId": null }, "geometry": { "type": "LineString", "coordinates": [ [ -74.177078175, 40.679590998 ], [ -74.176548963999906, 40.680423488 ] ] } },
{ "type": "Feature", "properties": { "runwayId": "4L - 22R", "crossRunwayId": null, "taxiwayId": null }, "geometry": { "type": "LineString", "coordinates": [ [ -74.179197054, 40.675297126 ], [ -74.178946482, 40.675691244000099 ] ] } },
{ "type": "Feature", "properties": { "runwayId": "4L - 22R", "crossRunwayId": null, "taxiwayId": null }, "geometry": { "type": "LineString", "coordinates": [ [ -74.178567825, 40.676286822000101 ], [ -74.178277972, 40.676742722 ] ] } },
{ "type": "Feature", "properties": { "runwayId": "4L - 22R", "crossRunwayId": null, "taxiwayId": null }, "geometry": { "type": "LineString", "coordinates": [ [ -74.177871261, 40.677382425000097 ], [ -74.177583709, 40.677834706000098 ] ] } },
{ "type": "Feature", "properties": { "runwayId": "4L - 22R", "crossRunwayId": null, "taxiwayId": null }, "geometry": { "type": "LineString", "coordinates": [ [ -74.176576989999901, 40.679418142 ], [ -74.176038285999894, 40.6802654520001 ] ] } },
{ "type": "Feature", "properties": { "runwayId": "4L - 22R", "crossRunwayId": null, "taxiwayId": null }, "geometry": { "type": "LineString", "coordinates": [ [ -74.175681761, 40.681787644000103 ], [ -74.175443539999904, 40.682162374 ] ] } },
{ "type": "Feature", "properties": { "runwayId": "4L - 22R", "crossRunwayId": null, "taxiwayId": null }, "geometry": { "type": "LineString", "coordinates": [ [ -74.174912437, 40.682997808 ], [ -74.174075498, 40.684314306 ] ] } },
{ "type": "Feature", "properties": { "runwayId": "4L - 22R", "crossRunwayId": null, "taxiwayId": null }, "geometry": { "type": "LineString", "coordinates": [ [ -74.173852838, 40.684664544 ], [ -74.173540003, 40.6851566220001 ] ] } },
{ "type": "Feature", "properties": { "runwayId": "4L - 22R", "crossRunwayId": null, "taxiwayId": null }, "geometry": { "type": "LineString", "coordinates": [ [ -74.172754363, 40.686392389 ], [ -74.172296392, 40.687112739 ] ] } },
{ "type": "Feature", "properties": { "runwayId": "4L - 22R", "crossRunwayId": null, "taxiwayId": null }, "geometry": { "type": "LineString", "coordinates": [ [ -74.172118852, 40.687391994000102 ], [ -74.17146782, 40.688415997 ] ] } },
{ "type": "Feature", "properties": { "runwayId": "4L - 22R", "crossRunwayId": null, "taxiwayId": null }, "geometry": { "type": "LineString", "coordinates": [ [ -74.170216673, 40.690383871000101 ], [ -74.169838187, 40.690979163000101 ] ] } },
{ "type": "Feature", "properties": { "runwayId": "4L - 22R", "crossRunwayId": null, "taxiwayId": null }, "geometry": { "type": "LineString", "coordinates": [ [ -74.169038884, 40.692236311 ], [ -74.168281957, 40.693426787000099 ] ] } },
{ "type": "Feature", "properties": { "runwayId": "4L - 22R", "crossRunwayId": null, "taxiwayId": null }, "geometry": { "type": "LineString", "coordinates": [ [ -74.167780509, 40.694215442 ], [ -74.167411605, 40.694795631 ] ] } },
{ "type": "Feature", "properties": { "runwayId": "4L - 22R", "crossRunwayId": null, "taxiwayId": null }, "geometry": { "type": "LineString", "coordinates": [ [ -74.167017685, 40.695415157000099 ], [ -74.166239693, 40.696638705000098 ] ] } },
{ "type": "Feature", "properties": { "runwayId": "4L - 22R", "crossRunwayId": null, "taxiwayId": null }, "geometry": { "type": "LineString", "coordinates": [ [ -74.165802885999895, 40.697339662 ], [ -74.165361050999906, 40.698020519000103 ] ] } },
{ "type": "Feature", "properties": { "runwayId": "4L - 22R", "crossRunwayId": null, "taxiwayId": null }, "geometry": { "type": "LineString", "coordinates": [ [ -74.165022801, 40.698552467000098 ], [ -74.164672993, 40.699102586 ] ] } },
{ "type": "Feature", "properties": { "runwayId": "4L - 22R", "crossRunwayId": null, "taxiwayId": null }, "geometry": { "type": "LineString", "coordinates": [ [ -74.164507724, 40.699362492 ], [ -74.164154438, 40.699918075 ] ] } },
{ "type": "Feature", "properties": { "runwayId": "4L - 22R", "crossRunwayId": null, "taxiwayId": null }, "geometry": { "type": "LineString", "coordinates": [ [ -74.164083932, 40.700028954000103 ], [ -74.163589749, 40.700806104 ] ] } },
{ "type": "Feature", "properties": { "runwayId": "4L - 22R", "crossRunwayId": "11 - 29", "taxiwayId": null }, "geometry": { "type": "LineString", "coordinates": [ [ -74.163182835, 40.701445769 ], [ -74.162925677, 40.701850244000099 ] ] } },
{ "type": "Feature", "properties": { "runwayId": "4L - 22R", "crossRunwayId": null, "taxiwayId": null }, "geometry": { "type": "LineString", "coordinates": [ [ -74.162544861999905, 40.70244926 ], [ -74.161993845592562, 40.703286512880986 ] ] } },
{ "type": "Feature", "properties": { "runwayId": "4L - 22R", "crossRunwayId": null, "taxiwayId": null }, "geometry": { "type": "LineString", "coordinates": [ [ -74.175182113999895, 40.681612098000102 ], [ -74.174941508, 40.681990540000101 ] ] } },
{ "type": "Feature", "properties": { "runwayId": "4L - 22R", "crossRunwayId": null, "taxiwayId": null }, "geometry": { "type": "LineString", "coordinates": [ [ -74.173357847, 40.684481430000098 ], [ -74.173033075, 40.6849922540001 ] ] } },
{ "type": "Feature", "properties": { "runwayId": "4L - 22R", "crossRunwayId": null, "taxiwayId": null }, "geometry": { "type": "LineString", "coordinates": [ [ -74.169706574, 40.690224402000098 ], [ -74.169359057, 40.690771001 ] ] } },
{ "type": "Feature", "properties": { "runwayId": "4L - 22R", "crossRunwayId": null, "taxiwayId": null }, "geometry": { "type": "LineString", "coordinates": [ [ -74.167266008999903, 40.69406309 ], [ -74.166908657, 40.6946251580001 ] ] } },
{ "type": "Feature", "properties": { "runwayId": "4L - 22R", "crossRunwayId": null, "taxiwayId": null }, "geometry": { "type": "LineString", "coordinates": [ [ -74.165983807, 40.696079826000101 ], [ -74.165644337999893, 40.696613765000102 ] ] } },
{ "type": "Feature", "properties": { "runwayId": "4L - 22R", "crossRunwayId": null, "taxiwayId": null }, "geometry": { "type": "LineString", "coordinates": [ [ -74.165178366, 40.697346677 ], [ -74.164851666999894, 40.697860532 ] ] } },
{ "type": "Feature", "properties": { "runwayId": "4L - 22R", "crossRunwayId": null, "taxiwayId": null }, "geometry": { "type": "LineString", "coordinates": [ [ -74.164419167999895, 40.698540796 ], [ -74.164175396, 40.698924217000098 ] ] } },
{ "type": "Feature", "properties": { "runwayId": "4L - 22R", "crossRunwayId": null, "taxiwayId": null }, "geometry": { "type": "LineString", "coordinates": [ [ -74.163819578, 40.699483873000098 ], [ -74.163488996999902, 40.700003833 ] ] } },
{ "type": "Feature", "properties": { "runwayId": "4L - 22R", "crossRunwayId": null, "taxiwayId": null }, "geometry": { "type": "LineString", "coordinates": [ [ -74.163324805999906, 40.700262084 ], [ -74.162985675, 40.700795492000097 ] ] } },
{ "type": "Feature", "properties": { "runwayId": "4L - 22R", "crossRunwayId": "11 - 29", "taxiwayId": null }, "geometry": { "type": "LineString", "coordinates": [ [ -74.162596911, 40.701406967 ], [ -74.162339754, 40.7018114420001 ] ] } },
{ "type": "Feature", "properties": { "runwayId": "4L - 22R", "crossRunwayId": null, "taxiwayId": null }, "geometry": { "type": "LineString", "coordinates": [ [ -74.161917920999898, 40.702474930000101 ], [ -74.161725155665721, 40.702765265654875 ] ] } },
{ "type": "Feature", "properties": { "runwayId": "4R - 22L", "crossRunwayId": null, "taxiwayId": null }, "geometry": { "type": "LineString", "coordinates": [ [ -74.158998357, 40.702046298 ], [ -74.158604218822902, 40.702667074338045 ] ] } },
{ "type": "Feature", "properties": { "runwayId": "4R - 22L", "crossRunwayId": null, "taxiwayId": null }, "geometry": { "type": "LineString", "coordinates": [ [ -74.158282110999906, 40.702203254 ], [ -74.158011503, 40.702656694 ] ] } },
{ "type": "Feature", "properties": { "runwayId": "4R - 22L", "crossRunwayId": null, "taxiwayId": null }, "geometry": { "type": "LineString", "coordinates": [ [ -74.1744849, 40.677686429000097 ], [ -74.174147548, 40.678217149 ] ] } },
{ "type": "Feature", "properties": { "runwayId": "4R - 22L", "crossRunwayId": null, "taxiwayId": null }, "geometry": { "type": "LineString", "coordinates": [ [ -74.173275011, 40.679589803000098 ], [ -74.172750256, 40.680415323 ] ] } },
{ "type": "Feature", "properties": { "runwayId": "4R - 22L", "crossRunwayId": null, "taxiwayId": null }, "geometry": { "type": "LineString", "coordinates": [ [ -74.171434269, 40.6824855240001 ], [ -74.170540818999896, 40.683890987 ] ] } },
{ "type": "Feature", "properties": { "runwayId": "4R - 22L", "crossRunwayId": null, "taxiwayId": null }, "geometry": { "type": "LineString", "coordinates": [ [ -74.169743508, 40.685145194 ], [ -74.169096493, 40.686162961 ] ] } },
{ "type": "Feature", "properties": { "runwayId": "4R - 22L", "crossRunwayId": null, "taxiwayId": null }, "geometry": { "type": "LineString", "coordinates": [ [ -74.168526447, 40.68705964 ], [ -74.167558466999907, 40.688589718000102 ] ] } },
{ "type": "Feature", "properties": { "runwayId": "4R - 22L", "crossRunwayId": null, "taxiwayId": null }, "geometry": { "type": "LineString", "coordinates": [ [ -74.167152631, 40.689220596 ], [ -74.166749513999903, 40.689854669000098 ] ] } },
{ "type": "Feature", "properties": { "runwayId": "4R - 22L", "crossRunwayId": null, "taxiwayId": null }, "geometry": { "type": "LineString", "coordinates": [ [ -74.166263597999901, 40.690618971 ], [ -74.165352646, 40.692051794000101 ] ] } },
{ "type": "Feature", "properties": { "runwayId": "4R - 22L", "crossRunwayId": null, "taxiwayId": null }, "geometry": { "type": "LineString", "coordinates": [ [ -74.164814292999907, 40.692898544000101 ], [ -74.164183784, 40.693890231000097 ] ] } },
{ "type": "Feature", "properties": { "runwayId": "4R - 22L", "crossRunwayId": null, "taxiwayId": null }, "geometry": { "type": "LineString", "coordinates": [ [ -74.1635904729999, 40.694823399 ], [ -74.162570269999904, 40.696434447000101 ] ] } },
{ "type": "Feature", "properties": { "runwayId": "4R - 22L", "crossRunwayId": null, "taxiwayId": null }, "geometry": { "type": "LineString", "coordinates": [ [ -74.16280918, 40.695082544000101 ], [ -74.162639839, 40.695348903 ] ] } },
{ "type": "Feature", "properties": { "runwayId": "4R - 22L", "crossRunwayId": null, "taxiwayId": null }, "geometry": { "type": "LineString", "coordinates": [ [ -74.162022766999897, 40.697289042000101 ], [ -74.161600260999904, 40.697953532 ] ] } },
{ "type": "Feature", "properties": { "runwayId": "4R - 22L", "crossRunwayId": null, "taxiwayId": null }, "geometry": { "type": "LineString", "coordinates": [ [ -74.161338426, 40.697395919 ], [ -74.161099002, 40.6977725140001 ] ] } },
{ "type": "Feature", "properties": { "runwayId": "4R - 22L", "crossRunwayId": null, "taxiwayId": null }, "geometry": { "type": "LineString", "coordinates": [ [ -74.160654484, 40.699443325000097 ], [ -74.160223840999905, 40.700120199 ] ] } },
{ "type": "Feature", "properties": { "runwayId": "4R - 22L", "crossRunwayId": "11 - 29", "taxiwayId": null }, "geometry": { "type": "LineString", "coordinates": [ [ -74.159533291999907, 40.701204084 ], [ -74.1592761429999, 40.701608558 ] ] } },
{ "type": "Feature", "properties": { "runwayId": "4R - 22L", "crossRunwayId": "11 - 29", "taxiwayId": null }, "geometry": { "type": "LineString", "coordinates": [ [ -74.158942228999905, 40.701164942 ], [ -74.158685081, 40.701569415000101 ] ] } },
{ "type": "Feature", "properties": { "runwayId": "11 - 29", "crossRunwayId": null, "taxiwayId": null }, "geometry": { "type": "LineString", "coordinates": [ [ -74.180711351999904, 40.702606564000099 ], [ -74.180055333, 40.70256312 ] ] } },
{ "type": "Feature", "properties": { "runwayId": "11 - 29", "crossRunwayId": null, "taxiwayId": null }, "geometry": { "type": "LineString", "coordinates": [ [ -74.180661383, 40.703024772 ], [ -74.179749488, 40.702964383000101 ] ] } },
{ "type": "Feature", "properties": { "runwayId": "11 - 29", "crossRunwayId": null, "taxiwayId": null }, "geometry": { "type": "LineString", "coordinates": [ [ -74.177445985, 40.702390322 ], [ -74.176060984999907, 40.702298603 ] ] } },
{ "type": "Feature", "properties": { "runwayId": "11 - 29", "crossRunwayId": null, "taxiwayId": null }, "geometry": { "type": "LineString", "coordinates": [ [ -74.173936855, 40.702579448000101 ], [ -74.172932159, 40.702512913000099 ] ] } },
{ "type": "Feature", "properties": { "runwayId": "11 - 29", "crossRunwayId": null, "taxiwayId": null }, "geometry": { "type": "LineString", "coordinates": [ [ -74.173874306999906, 40.702153794 ], [ -74.173095594999893, 40.702102225 ] ] } },
{ "type": "Feature", "properties": { "runwayId": "11 - 29", "crossRunwayId": null, "taxiwayId": null }, "geometry": { "type": "LineString", "coordinates": [ [ -74.171538112, 40.7019990840001 ], [ -74.169903867, 40.701890859000102 ] ] } },
{ "type": "Feature", "properties": { "runwayId": "11 - 29", "crossRunwayId": null, "taxiwayId": null }, "geometry": { "type": "LineString", "coordinates": [ [ -74.168653572, 40.701808061000101 ], [ -74.166953287, 40.701695461 ] ] } },
{ "type": "Feature", "properties": { "runwayId": "11 - 29", "crossRunwayId": null, "taxiwayId": null }, "geometry": { "type": "LineString", "coordinates": [ [ -74.167713945999907, 40.702167341000099 ], [ -74.166781630999907, 40.7021056 ] ] } },
{ "type": "Feature", "properties": { "runwayId": "11 - 29", "crossRunwayId": null, "taxiwayId": null }, "geometry": { "type": "LineString", "coordinates": [ [ -74.166485231, 40.702085971 ], [ -74.165728047999906, 40.702035827 ] ] } },
{ "type": "Feature", "properties": { "runwayId": "11 - 29", "crossRunwayId": null, "taxiwayId": null }, "geometry": { "type": "LineString", "coordinates": [ [ -74.164397519, 40.701947714 ], [ -74.165090678999903, 40.701993618000103 ] ] } },
{ "type": "Feature", "properties": { "runwayId": "11 - 29", "crossRunwayId": null, "taxiwayId": null }, "geometry": { "type": "LineString", "coordinates": [ [ -74.166473332, 40.701663677000099 ], [ -74.165874813, 40.701624041000102 ] ] } },
{ "type": "Feature", "properties": { "runwayId": "11 - 29", "crossRunwayId": null, "taxiwayId": null }, "geometry": { "type": "LineString", "coordinates": [ [ -74.165472883999897, 40.701597424000099 ], [ -74.164442172999898, 40.701529167 ] ] } },
{ "type": "Feature", "properties": { "runwayId": "11 - 29", "crossRunwayId": "4L - 22R", "taxiwayId": null }, "geometry": { "type": "LineString", "coordinates": [ [ -74.163182835, 40.701445769 ], [ -74.162596911, 40.701406967 ] ] } },
{ "type": "Feature", "properties": { "runwayId": "11 - 29", "crossRunwayId": "4L - 22R", "taxiwayId": null }, "geometry": { "type": "LineString", "coordinates": [ [ -74.162925677, 40.701850244000099 ], [ -74.162339754, 40.7018114420001 ] ] } },
{ "type": "Feature", "properties": { "runwayId": "11 - 29", "crossRunwayId": null, "taxiwayId": null }, "geometry": { "type": "LineString", "coordinates": [ [ -74.161373833, 40.701747475 ], [ -74.160778293, 40.701708036000099 ] ] } },
{ "type": "Feature", "properties": { "runwayId": "11 - 29", "crossRunwayId": null, "taxiwayId": null }, "geometry": { "type": "LineString", "coordinates": [ [ -74.162108731, 40.701374638000097 ], [ -74.161108454, 40.701308396000101 ] ] } },
{ "type": "Feature", "properties": { "runwayId": "11 - 29", "crossRunwayId": "4R - 22L", "taxiwayId": null }, "geometry": { "type": "LineString", "coordinates": [ [ -74.159533291999907, 40.701204084 ], [ -74.158942228999905, 40.701164942 ] ] } },
{ "type": "Feature", "properties": { "runwayId": "11 - 29", "crossRunwayId": "4R - 22L", "taxiwayId": null }, "geometry": { "type": "LineString", "coordinates": [ [ -74.1592761429999, 40.701608558 ], [ -74.158685081, 40.701569415000101 ] ] } },
{ "type": "Feature", "properties": { "runwayId": "11 - 29", "crossRunwayId": null, "taxiwayId": null }, "geometry": { "type": "LineString", "coordinates": [ [ -74.157053517, 40.701461367 ], [ -74.156519613999905, 40.701426009 ] ] } },
{ "type": "Feature", "properties": { "runwayId": "11 - 29", "crossRunwayId": null, "taxiwayId": null }, "geometry": { "type": "LineString", "coordinates": [ [ -74.157312829, 40.701057038 ], [ -74.156585117, 40.701008847 ] ] } },
{ "type": "Feature", "properties": { "id": null, "runwayId": "4L - 22R", "crossRunwayId": null, "taxiwayId": null }, "geometry": { "type": "LineString", "coordinates": [ [ -74.172238987999904, 40.686241248 ], [ -74.171934706999906, 40.686719842000102 ] ] } }
]
}
