{
"type": "FeatureCollection",
"name": "HOU_ASDEX_Safety",
"crs": { "type": "name", "properties": { "name": "urn:ogc:def:crs:OGC:1.3:CRS84" } },
"features": [
    { "type": "Feature", "properties": { "id": "4 - 22" }, "geometry": { "type": "Polygon", "coordinates": [ [ [ -95.285503094740747, 29.63926529403199 ], [ -95.28516518169711, 29.638975753676668 ], [ -95.268555883421229, 29.654025315010934 ], [ -95.268895880442045, 29.654311458322972 ], [ -95.285503094740747, 29.63926529403199 ] ] ] } },
    { "type": "Feature", "properties": { "id": "13R - 31L" }, "geometry": { "type": "Polygon", "coordinates": [ [ [ -95.285358579926779, 29.651095910152886 ], [ -95.285692016278631, 29.650798980570269 ], [ -95.268460354935698, 29.636280202142764 ], [ -95.268130211782392, 29.636581110320762 ], [ -95.285358579926779, 29.651095910152886 ] ] ] } },
    { "type": "Feature", "properties": { "id": "13L - 31R" }, "geometry": { "type": "Polygon", "coordinates": [ [ [ -95.283774860168066, 29.652716307422761 ], [ -95.283993857870755, 29.652518476898965 ], [ -95.27232825092112, 29.642692762746009 ], [ -95.272104313420627, 29.642893594040121 ], [ -95.283774860168066, 29.652716307422761 ] ] ] } },
    { "type": "Feature", "properties": { "id": "H" }, "geometry": { "type": "Polygon", "coordinates": [ [ [ -95.286838872390717, 29.640795077333024 ], [ -95.286615110594511, 29.640596994635214 ], [ -95.275489176839841, 29.65086076678946 ], [ -95.275638351370631, 29.650983205474098 ], [ -95.286838872390717, 29.640795077333024 ], [ -95.286838872390717, 29.640795077333024 ] ] ] } },
    { "type": "Feature", "properties": { "id": "M" }, "geometry": { "type": "Polygon", "coordinates": [ [ [ -95.267825335320595, 29.637859812007978 ], [ -95.267663729578899, 29.637996672906368 ], [ -95.28365855426901, 29.651474759282191 ], [ -95.283824303747693, 29.651328913897295 ], [ -95.267825335320595, 29.637859812007978 ], [ -95.267825335320595, 29.637859812007978 ] ] ] } },
    { "type": "Feature", "properties": { "id": "K" }, "geometry": { "type": "Polygon", "coordinates": [ [ [ -95.267636795288638, 29.652857579096725 ], [ -95.267832586860308, 29.653006123063907 ], [ -95.277730938538696, 29.644045378669762 ], [ -95.277503033005516, 29.643847302366289 ], [ -95.267636795288638, 29.652857579096725 ], [ -95.267636795288638, 29.652857579096725 ] ] ] } },
    { "type": "Feature", "properties": { "runwayId": "13L - 31R" }, "geometry": { "type": "LineString", "coordinates": [ [ -95.283768548204179, 29.652717857630279 ], [ -95.283486842512687, 29.652481987320456 ] ] } },
    { "type": "Feature", "properties": { "runwayId": "13L - 31R" }, "geometry": { "type": "LineString", "coordinates": [ [ -95.28265311441649, 29.651777473518312 ], [ -95.282305681970882, 29.651485077377796 ] ] } },
    { "type": "Feature", "properties": { "runwayId": "13L - 31R" }, "geometry": { "type": "LineString", "coordinates": [ [ -95.278635412201751, 29.648399363878667 ], [ -95.278312129878771, 29.648124130239122 ] ] } },
    { "type": "Feature", "properties": { "runwayId": "13L - 31R" }, "geometry": { "type": "LineString", "coordinates": [ [ -95.275747825951541, 29.645966119781257 ], [ -95.275389965043885, 29.645664166352823 ] ] } },
    { "type": "Feature", "properties": { "runwayId": "13L - 31R" }, "geometry": { "type": "LineString", "coordinates": [ [ -95.272984009079664, 29.643638002029018 ], [ -95.272690708585003, 29.643391735016149 ] ] } },
    { "type": "Feature", "properties": { "runwayId": "13L - 31R" }, "geometry": { "type": "LineString", "coordinates": [ [ -95.272335043143045, 29.643090727931487 ], [ -95.272105068111884, 29.64289776808295 ] ] } },
    { "type": "Feature", "properties": { "runwayId": "13L - 31R" }, "geometry": { "type": "LineString", "coordinates": [ [ -95.272622374715354, 29.642935215202382 ], [ -95.272334288451702, 29.642692524228796 ] ] } },
    { "type": "Feature", "properties": { "runwayId": "13L - 31R" }, "geometry": { "type": "LineString", "coordinates": [ [ -95.273209730396033, 29.643430255271479 ], [ -95.272923222123339, 29.643186492168965 ] ] } },
    { "type": "Feature", "properties": { "runwayId": "13L - 31R" }, "geometry": { "type": "LineString", "coordinates": [ [ -95.275969156336558, 29.645753846138604 ], [ -95.275624468223057, 29.645463340585341 ] ] } },
    { "type": "Feature", "properties": { "runwayId": "13L - 31R" }, "geometry": { "type": "LineString", "coordinates": [ [ -95.278894065503579, 29.648218100907776 ], [ -95.278508486841559, 29.647892780757218 ] ] } },
    { "type": "Feature", "properties": { "runwayId": "13L - 31R" }, "geometry": { "type": "LineString", "coordinates": [ [ -95.283161501940612, 29.651811816891797 ], [ -95.282743265726438, 29.651458365779376 ] ] } },
    { "type": "Feature", "properties": { "runwayId": "13L - 31R" }, "geometry": { "type": "LineString", "coordinates": [ [ -95.283994406737193, 29.652512276056481 ], [ -95.283724501673774, 29.652286660528176 ] ] } },
    { "type": "Feature", "properties": { "runwayId": "13R - 31L" }, "geometry": { "type": "LineString", "coordinates": [ [ -95.28575992851934, 29.651395264484616 ], [ -95.285524182495607, 29.651218579043704 ] ] } },
    { "type": "Feature", "properties": { "runwayId": "13R - 31L" }, "geometry": { "type": "LineString", "coordinates": [ [ -95.285749506063553, 29.650839400176132 ], [ -95.285246250341402, 29.650413320257524 ] ] } },
    { "type": "Feature", "properties": { "runwayId": "13R - 31L" }, "geometry": { "type": "LineString", "coordinates": [ [ -95.282656407615036, 29.64882890811564 ], [ -95.281684090747135, 29.64800869406924 ] ] } },
    { "type": "Feature", "properties": { "runwayId": "13R - 31L" }, "geometry": { "type": "LineString", "coordinates": [ [ -95.282805150415655, 29.648348324075126 ], [ -95.282272749985552, 29.647903751981751 ] ] } },
    { "type": "Feature", "properties": { "runwayId": "13R - 31L" }, "geometry": { "type": "LineString", "coordinates": [ [ -95.280705187482127, 29.646589581577526 ], [ -95.280323725318269, 29.646272365461297 ] ] } },
    { "type": "Feature", "properties": { "runwayId": "13R - 31L" }, "geometry": { "type": "LineString", "coordinates": [ [ -95.280379160826996, 29.646903934607348 ], [ -95.279975332356486, 29.646566923316655 ] ] } },
    { "type": "Feature", "properties": { "runwayId": "13R - 31L" }, "geometry": { "type": "LineString", "coordinates": [ [ -95.277758460874864, 29.644110737599586 ], [ -95.277321014335939, 29.64373865529814 ] ] } },
    { "type": "Feature", "properties": { "runwayId": "13R - 31L" }, "geometry": { "type": "LineString", "coordinates": [ [ -95.277429689887668, 29.644433207815169 ], [ -95.277064144850101, 29.644124094374572 ] ] } },
    { "type": "Feature", "properties": { "runwayId": "13R - 31L" }, "geometry": { "type": "LineString", "coordinates": [ [ -95.275010835562469, 29.641792833274774 ], [ -95.274711154495634, 29.641541433570097 ] ] } },
    { "type": "Feature", "properties": { "runwayId": "13R - 31L" }, "geometry": { "type": "LineString", "coordinates": [ [ -95.27472322955694, 29.642138208695634 ], [ -95.27434066966029, 29.641821455592247 ] ] } },
    { "type": "Feature", "properties": { "runwayId": "13R - 31L" }, "geometry": { "type": "LineString", "coordinates": [ [ -95.272038723883185, 29.639891339093033 ], [ -95.270976118488676, 29.638990669005743 ] ] } },
    { "type": "Feature", "properties": { "runwayId": "13R - 31L" }, "geometry": { "type": "LineString", "coordinates": [ [ -95.271835643306744, 29.639111840132678 ], [ -95.271346054457624, 29.638703483311623 ] ] } },
    { "type": "Feature", "properties": { "runwayId": "13R - 31L" }, "geometry": { "type": "LineString", "coordinates": [ [ -95.268647278256807, 29.637034736942823 ], [ -95.26811378009387, 29.63658820663828 ] ] } },
    { "type": "Feature", "properties": { "runwayId": "13R - 31L" }, "geometry": { "type": "LineString", "coordinates": [ [ -95.268901952276991, 29.636643545971538 ], [ -95.268461761405902, 29.636269527817081 ] ] } },
    { "type": "Feature", "properties": { "runwayId": "4 - 22" }, "geometry": { "type": "LineString", "coordinates": [ [ -95.285506259298685, 29.63927260632402 ], [ -95.285276833133977, 29.639474875588906 ] ] } },
    { "type": "Feature", "properties": { "runwayId": "4 - 22" }, "geometry": { "type": "LineString", "coordinates": [ [ -95.285492418820837, 29.638491519762514 ], [ -95.285265110023246, 29.63875754053872 ] ] } },
    { "type": "Feature", "properties": { "runwayId": "4 - 22" }, "geometry": { "type": "LineString", "coordinates": [ [ -95.281405678254174, 29.642989716239814 ], [ -95.28050004865662, 29.643811163751906 ] ] } },
    { "type": "Feature", "properties": { "runwayId": "4 - 22" }, "geometry": { "type": "LineString", "coordinates": [ [ -95.280273092390786, 29.643398055678212 ], [ -95.279962433995493, 29.64367854956657 ] ] } },
    { "type": "Feature", "properties": { "runwayId": "4 - 22" }, "geometry": { "type": "LineString", "coordinates": [ [ -95.277849847134249, 29.646204867466981 ], [ -95.27756224112872, 29.64646865795785 ] ] } },
    { "type": "Feature", "properties": { "runwayId": "4 - 22" }, "geometry": { "type": "LineString", "coordinates": [ [ -95.277505159020734, 29.645906730908319 ], [ -95.27722249281301, 29.646165752000794 ] ] } },
    { "type": "Feature", "properties": { "runwayId": "4 - 22" }, "geometry": { "type": "LineString", "coordinates": [ [ -95.275535826295865, 29.647688858865731 ], [ -95.275098379756912, 29.648091455138339 ] ] } },
    { "type": "Feature", "properties": { "runwayId": "4 - 22" }, "geometry": { "type": "LineString", "coordinates": [ [ -95.275088500161303, 29.648096225226695 ], [ -95.274586012951261, 29.648550336603925 ] ] } },
    { "type": "Feature", "properties": { "runwayId": "4 - 22" }, "geometry": { "type": "LineString", "coordinates": [ [ -95.275325884889185, 29.648491187759063 ], [ -95.274835198307215, 29.648939573296715 ] ] } },
    { "type": "Feature", "properties": { "runwayId": "4 - 22" }, "geometry": { "type": "LineString", "coordinates": [ [ -95.272555207187011, 29.651008798974512 ], [ -95.271488210861108, 29.651971370327384 ] ] } },
    { "type": "Feature", "properties": { "runwayId": "4 - 22" }, "geometry": { "type": "LineString", "coordinates": [ [ -95.268938726327335, 29.653669442042876 ], [ -95.268553970964973, 29.654020023505794 ] ] } },
    { "type": "Feature", "properties": { "runwayId": "4 - 22" }, "geometry": { "type": "LineString", "coordinates": [ [ -95.269310583328732, 29.653940844669915 ], [ -95.268902775576635, 29.654314320199077 ] ] } },
    { "type": "Feature", "properties": { "runwayId": "13R - 31L", "crossRunwayId": "4 - 22" }, "geometry": { "type": "LineString", "coordinates": [ [ -95.278988196095071, 29.645160670114734 ], [ -95.278650094378634, 29.644877318211211 ] ] } },
    { "type": "Feature", "properties": { "runwayId": "13R - 31L", "crossRunwayId": "4 - 22" }, "geometry": { "type": "LineString", "coordinates": [ [ -95.278667109237716, 29.64545451569083 ], [ -95.278329556387732, 29.64516830247819 ] ] } },
    { "type": "Feature", "properties": { "runwayId": "4 - 22", "crossRunwayId": "13R - 31L" }, "geometry": { "type": "LineString", "coordinates": [ [ -95.278988744961481, 29.645161147137454 ], [ -95.278666011504853, 29.645455946754851 ] ] } },
    { "type": "Feature", "properties": { "runwayId": "4 - 22", "crossRunwayId": "13R - 31L" }, "geometry": { "type": "LineString", "coordinates": [ [ -95.278650094378634, 29.644878272259344 ], [ -95.278329007521307, 29.64516830247819 ] ] } },
    { "type": "Feature", "properties": { "runwayId": "13L - 31R", "crossRunwayId": "4 - 22" }, "geometry": { "type": "LineString", "coordinates": [ [ -95.277184621029832, 29.646795413755736 ], [ -95.276848165912668, 29.646512066453397 ] ] } },
    { "type": "Feature", "properties": { "runwayId": "13L - 31R", "crossRunwayId": "4 - 22" }, "geometry": { "type": "LineString", "coordinates": [ [ -95.276974954056328, 29.646988604778304 ], [ -95.276638498939164, 29.646705257475965 ] ] } },
    { "type": "Feature", "properties": { "runwayId": "4 - 22", "crossRunwayId": "13L - 31R" }, "geometry": { "type": "LineString", "coordinates": [ [ -95.277184621029832, 29.646795890770736 ], [ -95.276972758590659, 29.646988604640999 ] ] } },
    { "type": "Feature", "properties": { "runwayId": "4 - 22", "crossRunwayId": "13L - 31R" }, "geometry": { "type": "LineString", "coordinates": [ [ -95.276848714779106, 29.646513497597386 ], [ -95.276636852339934, 29.646706211467649 ] ] } }
]
}
