{
"type": "FeatureCollection",
"name": "IAH_ASDEX_Safety",
"crs": { "type": "name", "properties": { "name": "urn:ogc:def:crs:OGC:1.3:CRS84" } },
"features": [
{ "type": "Feature", "properties": { "crossRunwayId": "8R - 26L", "taxiwayId": "NE" }, "geometry": { "type": "LineString", "coordinates": [ [ -95.353752539219357, 29.993632345549742 ], [ -95.353751684251947, 29.99322067874035 ] ] } },
{ "type": "Feature", "properties": { "id": "15L - 33R" }, "geometry": { "type": "Polygon", "coordinates": [ [ [ -95.357676572468506, 29.987996667541054 ], [ -95.358096788952039, 29.987808574710176 ], [ -95.340282260449143, 29.958674277657892 ], [ -95.339856486677419, 29.958870920162905 ], [ -95.357676572468506, 29.987996667541054 ] ] ] } },
{ "type": "Feature", "properties": { "id": "15R - 33L" }, "geometry": { "type": "Polygon", "coordinates": [ [ [ -95.361204381756835, 29.987913521960131 ], [ -95.36162630817519, 29.987719871841058 ], [ -95.346778089111979, 29.963452904271527 ], [ -95.346354452758789, 29.963649119292835 ], [ -95.361204381756835, 29.987913521960131 ] ] ] } },
{ "type": "Feature", "properties": { "id": "8L - 26R" }, "geometry": { "type": "Polygon", "coordinates": [ [ [ -95.358808335581642, 30.007375145184358 ], [ -95.358810045516464, 30.006961768440128 ], [ -95.330376394259233, 30.006988272429936 ], [ -95.330373829356986, 30.007403359108991 ], [ -95.358808335581642, 30.007375145184358 ] ] ] } },
{ "type": "Feature", "properties": { "id": "8R - 26L" }, "geometry": { "type": "Polygon", "coordinates": [ [ [ -95.354983211375455, 29.993634536404844 ], [ -95.354983425117325, 29.99321880850022 ], [ -95.325281857186454, 29.99324488500632 ], [ -95.325285277056096, 29.993658689234259 ], [ -95.354983211375455, 29.993634536404844 ] ] ] } },
{ "type": "Feature", "properties": { "id": "9 - 27" }, "geometry": { "type": "Polygon", "coordinates": [ [ [ -95.334125640107459, 29.977808448362929 ], [ -95.334125212623761, 29.977398491488344 ], [ -95.302540578965534, 29.977417300771432 ], [ -95.302543571351478, 29.977833242417901 ], [ -95.334125640107459, 29.977808448362929 ] ] ] } },
{ "type": "Feature", "properties": { "id": "FA" }, "geometry": { "type": "Polygon", "coordinates": [ [ [ -95.358801647591804, 30.005675685922807 ], [ -95.358801647591804, 30.005343880421908 ], [ -95.33037859741377, 30.005384755072523 ], [ -95.330381373915728, 30.005642024545743 ], [ -95.358801647591804, 30.005675685922807 ], [ -95.358801647591804, 30.005675685922807 ] ] ] } },
{ "type": "Feature", "properties": { "id": "CC" }, "geometry": { "type": "Polygon", "coordinates": [ [ [ -95.354997839958287, 29.995369935416242 ], [ -95.354997839958287, 29.995038129915343 ], [ -95.325294822394184, 29.995083810600526 ], [ -95.325294822394184, 29.995331488243078 ], [ -95.354997839958287, 29.995369935416242 ], [ -95.354997839958287, 29.995369935416242 ] ] ] } },
{ "type": "Feature", "properties": { "id": "NA" }, "geometry": { "type": "Polygon", "coordinates": [ [ [ -95.355097794027458, 29.991945668972125 ], [ -95.355097794027458, 29.991613863471226 ], [ -95.325394776463355, 29.991659544156409 ], [ -95.325394776463355, 29.991907221798961 ], [ -95.355097794027458, 29.991945668972125 ], [ -95.355097794027458, 29.991945668972125 ] ] ] } },
{ "type": "Feature", "properties": { "id": "SA" }, "geometry": { "type": "Polygon", "coordinates": [ [ [ -95.334174075541384, 29.978877544420975 ], [ -95.334174075541384, 29.978545738920076 ], [ -95.302680214237384, 29.97861306296344 ], [ -95.302674661233553, 29.978834326325845 ], [ -95.334174075541384, 29.978877544420975 ], [ -95.334174075541384, 29.978877544420975 ] ] ] } },
{ "type": "Feature", "properties": { "id": "SB" }, "geometry": { "type": "Polygon", "coordinates": [ [ [ -95.334162969533693, 29.979868415735751 ], [ -95.334162969533693, 29.979536610234852 ], [ -95.302685767241258, 29.979575073995253 ], [ -95.302680214237384, 29.979830005356902 ], [ -95.334162969533693, 29.979868415735751 ], [ -95.334162969533693, 29.979868415735751 ] ] ] } },
{ "type": "Feature", "properties": { "id": "WP" }, "geometry": { "type": "Polygon", "coordinates": [ [ [ -95.345169023153602, 29.964186590246232 ], [ -95.344802524899933, 29.964353764604407 ], [ -95.361042284643219, 29.991030706617973 ], [ -95.361264404796984, 29.990948945475616 ], [ -95.345169023153602, 29.964186590246232 ], [ -95.345169023153602, 29.964186590246232 ] ] ] } },
{ "type": "Feature", "properties": { "id": "WA" }, "geometry": { "type": "Polygon", "coordinates": [ [ [ -95.338569278084393, 29.959593394825845 ], [ -95.338336051922937, 29.959695628507738 ], [ -95.356424961946374, 29.989270422437016 ], [ -95.356605434571335, 29.989186255061828 ], [ -95.338569278084393, 29.959593394825845 ], [ -95.338569278084393, 29.959593394825845 ] ] ] } },
{ "type": "Feature", "properties": { "id": "WB" }, "geometry": { "type": "Polygon", "coordinates": [ [ [ -95.337547525377005, 29.96000232292031 ], [ -95.337314299215549, 29.960104556602204 ], [ -95.356516586509855, 29.991468368058573 ], [ -95.356822001721298, 29.991338512667618 ], [ -95.337547525377005, 29.96000232292031 ], [ -95.337547525377005, 29.96000232292031 ] ] ] } },
{ "type": "Feature", "properties": { "runwayId": "15L - 33R" }, "geometry": { "type": "LineString", "coordinates": [ [ -95.340123503687863, 29.959314594814984 ], [ -95.339854188952756, 29.958876851499493 ] ] } },
{ "type": "Feature", "properties": { "runwayId": "15L - 33R" }, "geometry": { "type": "LineString", "coordinates": [ [ -95.34061083511331, 29.960106294639477 ], [ -95.340321001160291, 29.959638627464532 ] ] } },
{ "type": "Feature", "properties": { "runwayId": "15L - 33R" }, "geometry": { "type": "LineString", "coordinates": [ [ -95.344158949877539, 29.965913660792705 ], [ -95.343684442963294, 29.96514034276759 ] ] } },
{ "type": "Feature", "properties": { "runwayId": "15L - 33R" }, "geometry": { "type": "LineString", "coordinates": [ [ -95.345227659143859, 29.967659504250172 ], [ -95.344665945553473, 29.966745544085608 ] ] } },
{ "type": "Feature", "properties": { "runwayId": "15L - 33R" }, "geometry": { "type": "LineString", "coordinates": [ [ -95.34561324944714, 29.967375655069038 ], [ -95.345130192858761, 29.966590794983844 ] ] } },
{ "type": "Feature", "properties": { "runwayId": "15L - 33R" }, "geometry": { "type": "LineString", "coordinates": [ [ -95.349027561811212, 29.973881102115023 ], [ -95.348276900422533, 29.972653368909867 ] ] } },
{ "type": "Feature", "properties": { "runwayId": "15L - 33R" }, "geometry": { "type": "LineString", "coordinates": [ [ -95.349138280091196, 29.973148395042028 ], [ -95.348744995081191, 29.972505459547406 ] ] } },
{ "type": "Feature", "properties": { "runwayId": "15L - 33R" }, "geometry": { "type": "LineString", "coordinates": [ [ -95.35220462071814, 29.9790630596056 ], [ -95.351372737425237, 29.977703661418829 ] ] } },
{ "type": "Feature", "properties": { "runwayId": "15L - 33R" }, "geometry": { "type": "LineString", "coordinates": [ [ -95.355170502674071, 29.983916282125854 ], [ -95.354398467100069, 29.982653495256763 ] ] } },
{ "type": "Feature", "properties": { "runwayId": "15L - 33R" }, "geometry": { "type": "LineString", "coordinates": [ [ -95.355397924005942, 29.983384492394929 ], [ -95.354863569372782, 29.982511998149899 ] ] } },
{ "type": "Feature", "properties": { "runwayId": "15L - 33R" }, "geometry": { "type": "LineString", "coordinates": [ [ -95.357288256956224, 29.987371205442038 ], [ -95.356944560056164, 29.986809491851655 ] ] } },
{ "type": "Feature", "properties": { "runwayId": "15L - 33R" }, "geometry": { "type": "LineString", "coordinates": [ [ -95.357669572422452, 29.987994476686161 ], [ -95.357350669577372, 29.987474656499018 ] ] } },
{ "type": "Feature", "properties": { "runwayId": "15L - 33R" }, "geometry": { "type": "LineString", "coordinates": [ [ -95.358101330966036, 29.987802536501928 ], [ -95.357771313544603, 29.987265189482819 ] ] } },
{ "type": "Feature", "properties": { "runwayId": "15R - 33L" }, "geometry": { "type": "LineString", "coordinates": [ [ -95.346663363172226, 29.964165252432991 ], [ -95.346348735164213, 29.963654836887393 ] ] } },
{ "type": "Feature", "properties": { "runwayId": "15R - 33L" }, "geometry": { "type": "LineString", "coordinates": [ [ -95.347054029844557, 29.963901334679687 ], [ -95.346778676902062, 29.963452423352344 ] ] } },
{ "type": "Feature", "properties": { "runwayId": "15R - 33L" }, "geometry": { "type": "LineString", "coordinates": [ [ -95.347962058672678, 29.966283434198854 ], [ -95.347512345813399, 29.965548162223619 ] ] } },
{ "type": "Feature", "properties": { "runwayId": "15R - 33L" }, "geometry": { "type": "LineString", "coordinates": [ [ -95.348299770800821, 29.965932470075796 ], [ -95.347997967304025, 29.965435306525098 ] ] } },
{ "type": "Feature", "properties": { "runwayId": "15R - 33L" }, "geometry": { "type": "LineString", "coordinates": [ [ -95.350271325655342, 29.970059825262361 ], [ -95.349658314020175, 29.969056948486841 ] ] } },
{ "type": "Feature", "properties": { "runwayId": "15R - 33L" }, "geometry": { "type": "LineString", "coordinates": [ [ -95.352154818866325, 29.972230587524127 ], [ -95.351794877585434, 29.971638095106872 ] ] } },
{ "type": "Feature", "properties": { "runwayId": "15R - 33L" }, "geometry": { "type": "LineString", "coordinates": [ [ -95.353176504924946, 29.974802329502619 ], [ -95.352637875454718, 29.973925987904231 ] ] } },
{ "type": "Feature", "properties": { "runwayId": "15R - 33L" }, "geometry": { "type": "LineString", "coordinates": [ [ -95.354221275103697, 29.976518249100625 ], [ -95.354918501029047, 29.977652363374052 ] ] } },
{ "type": "Feature", "properties": { "runwayId": "15R - 33L" }, "geometry": { "type": "LineString", "coordinates": [ [ -95.355074532581938, 29.976993610982287 ], [ -95.35472656084481, 29.976424202685187 ] ] } },
{ "type": "Feature", "properties": { "runwayId": "15R - 33L" }, "geometry": { "type": "LineString", "coordinates": [ [ -95.357294241728098, 29.981531778010826 ], [ -95.357882459308286, 29.982500456089824 ] ] } },
{ "type": "Feature", "properties": { "runwayId": "15R - 33L" }, "geometry": { "type": "LineString", "coordinates": [ [ -95.358068200978749, 29.981895994128799 ], [ -95.357759985226352, 29.981394128257328 ] ] } },
{ "type": "Feature", "properties": { "runwayId": "15R - 33L" }, "geometry": { "type": "LineString", "coordinates": [ [ -95.360543972865159, 29.986845827966718 ], [ -95.360144703083265, 29.986193487830551 ] ] } },
{ "type": "Feature", "properties": { "runwayId": "15R - 33L" }, "geometry": { "type": "LineString", "coordinates": [ [ -95.361005655268215, 29.986691078864954 ], [ -95.360546537767405, 29.98593101283474 ] ] } },
{ "type": "Feature", "properties": { "runwayId": "15R - 33L" }, "geometry": { "type": "LineString", "coordinates": [ [ -95.361196740485028, 29.987911544847094 ], [ -95.360934692972933, 29.987478076368671 ] ] } },
{ "type": "Feature", "properties": { "runwayId": "15R - 33L" }, "geometry": { "type": "LineString", "coordinates": [ [ -95.361628499028626, 29.987714474858382 ], [ -95.361327123015528, 29.987225006014405 ] ] } },
{ "type": "Feature", "properties": { "runwayId": "8L - 26R" }, "geometry": { "type": "LineString", "coordinates": [ [ -95.33038179124155, 30.006985012865126 ], [ -95.330913580972464, 30.006984157897715 ] ] } },
{ "type": "Feature", "properties": { "runwayId": "8L - 26R" }, "geometry": { "type": "LineString", "coordinates": [ [ -95.331272453544088, 30.006982447962887 ], [ -95.331993191073309, 30.006983302930301 ] ] } },
{ "type": "Feature", "properties": { "runwayId": "8L - 26R" }, "geometry": { "type": "LineString", "coordinates": [ [ -95.33501635584588, 30.006977318158409 ], [ -95.336515754946532, 30.006979028093237 ] ] } },
{ "type": "Feature", "properties": { "runwayId": "8L - 26R" }, "geometry": { "type": "LineString", "coordinates": [ [ -95.339748386735323, 30.006975608223573 ], [ -95.341294595301832, 30.006974753256159 ] ] } },
{ "type": "Feature", "properties": { "runwayId": "8L - 26R" }, "geometry": { "type": "LineString", "coordinates": [ [ -95.347933417264272, 30.006960218810143 ], [ -95.349415930758525, 30.006960218810143 ] ] } },
{ "type": "Feature", "properties": { "runwayId": "8L - 26R" }, "geometry": { "type": "LineString", "coordinates": [ [ -95.352632318166457, 30.006961928744971 ], [ -95.354171259509968, 30.006962783712382 ] ] } },
{ "type": "Feature", "properties": { "runwayId": "8L - 26R" }, "geometry": { "type": "LineString", "coordinates": [ [ -95.357170271453128, 30.006958508875318 ], [ -95.357871344731848, 30.006959363842732 ] ] } },
{ "type": "Feature", "properties": { "runwayId": "8L - 26R" }, "geometry": { "type": "LineString", "coordinates": [ [ -95.358177209323841, 30.006961073777543 ], [ -95.358809030242099, 30.006956798940479 ] ] } },
{ "type": "Feature", "properties": { "runwayId": "8R - 26L" }, "geometry": { "type": "LineString", "coordinates": [ [ -95.325287895394496, 29.993661200699961 ], [ -95.32591202160603, 29.993662055667372 ] ] } },
{ "type": "Feature", "properties": { "runwayId": "8R - 26L" }, "geometry": { "type": "LineString", "coordinates": [ [ -95.325288750361892, 29.993240556732733 ], [ -95.325901761997059, 29.993242266667558 ] ] } },
{ "type": "Feature", "properties": { "runwayId": "8R - 26L" }, "geometry": { "type": "LineString", "coordinates": [ [ -95.332563668079672, 29.993235854411953 ], [ -95.333571033434126, 29.993234144477135 ] ] } },
{ "type": "Feature", "properties": { "runwayId": "8R - 26L" }, "geometry": { "type": "LineString", "coordinates": [ [ -95.333582789236061, 29.993233289509721 ], [ -95.334579681239688, 29.993230724607482 ] ] } },
{ "type": "Feature", "properties": { "runwayId": "8R - 26L" }, "geometry": { "type": "LineString", "coordinates": [ [ -95.339107588659274, 29.993230724607479 ], [ -95.340108755499969, 29.993228159705236 ] ] } },
{ "type": "Feature", "properties": { "runwayId": "8R - 26L" }, "geometry": { "type": "LineString", "coordinates": [ [ -95.339658615156978, 29.993652223542117 ], [ -95.340611048855138, 29.993649658639878 ] ] } },
{ "type": "Feature", "properties": { "runwayId": "8R - 26L" }, "geometry": { "type": "LineString", "coordinates": [ [ -95.340115595239283, 29.99322901467265 ], [ -95.341142838586066, 29.993227304737825 ] ] } },
{ "type": "Feature", "properties": { "runwayId": "8R - 26L" }, "geometry": { "type": "LineString", "coordinates": [ [ -95.345679295679759, 29.993222174933344 ], [ -95.3466761876834, 29.993223884868168 ] ] } },
{ "type": "Feature", "properties": { "runwayId": "8R - 26L" }, "geometry": { "type": "LineString", "coordinates": [ [ -95.346685592324945, 29.993223029900758 ], [ -95.347723095280671, 29.993223029900758 ] ] } },
{ "type": "Feature", "properties": { "runwayId": "8R - 26L" }, "geometry": { "type": "LineString", "coordinates": [ [ -95.35232538486521, 29.993638544063504 ], [ -95.353252169540966, 29.993638544063504 ] ] } },
{ "type": "Feature", "properties": { "runwayId": "8R - 26L" }, "geometry": { "type": "LineString", "coordinates": [ [ -95.352365568333624, 29.99321790009628 ], [ -95.353204291365827, 29.993216190161451 ] ] } },
{ "type": "Feature", "properties": { "runwayId": "8R - 26L" }, "geometry": { "type": "LineString", "coordinates": [ [ -95.35437901659138, 29.99321790009628 ], [ -95.354981768617591, 29.99321448022663 ] ] } },
{ "type": "Feature", "properties": { "runwayId": "8R - 26L" }, "geometry": { "type": "LineString", "coordinates": [ [ -95.354393551037404, 29.993636406644974 ], [ -95.354976638813113, 29.993638116579802 ] ] } },
{ "type": "Feature", "properties": { "runwayId": "9 - 27" }, "geometry": { "type": "LineString", "coordinates": [ [ -95.303133979787248, 29.977834898916754 ], [ -95.302560296653084, 29.977835753884168 ] ] } },
{ "type": "Feature", "properties": { "runwayId": "9 - 27" }, "geometry": { "type": "LineString", "coordinates": [ [ -95.309613777810853, 29.977835753884168 ], [ -95.307939751616075, 29.977832334014515 ] ] } },
{ "type": "Feature", "properties": { "runwayId": "9 - 27" }, "geometry": { "type": "LineString", "coordinates": [ [ -95.315967040657341, 29.977832334014508 ], [ -95.314246846222261, 29.977828914144855 ] ] } },
{ "type": "Feature", "properties": { "runwayId": "9 - 27" }, "geometry": { "type": "LineString", "coordinates": [ [ -95.322442563843865, 29.977822074405566 ], [ -95.320566765339606, 29.977822074405566 ] ] } },
{ "type": "Feature", "properties": { "runwayId": "9 - 27" }, "geometry": { "type": "LineString", "coordinates": [ [ -95.328783643404691, 29.977820364470734 ], [ -95.327014074601507, 29.977816944601081 ] ] } },
{ "type": "Feature", "properties": { "runwayId": "9 - 27" }, "geometry": { "type": "LineString", "coordinates": [ [ -95.334119067545913, 29.977810959829188 ], [ -95.333514605584881, 29.977810104861774 ] ] } }
]
}
