{
"type": "FeatureCollection",
"name": "KLAS SafetyLogic",
"crs": { "type": "name", "properties": { "name": "urn:ogc:def:crs:OGC:1.3:CRS84" } },
"features": [
{ "type": "Feature", "properties": { "id": "8R - 26L", "runwayId": null, "crossingRunwayId ": null }, "geometry": { "type": "Polygon", "coordinates": [ [ [ -115.161433838016492, 36.073840644412712 ], [ -115.161440367070441, 36.073418704300558 ], [ -115.125827111765744, 36.073444389132504 ], [ -115.12582811152717, 36.073870832543889 ], [ -115.161433838016492, 36.073840644412712 ] ] ] } },
{ "type": "Feature", "properties": { "id": "8L - 26R", "runwayId": null, "crossingRunwayId ": null }, "geometry": { "type": "Polygon", "coordinates": [ [ [ -115.170193690551542, 36.076577652986657 ], [ -115.170196103969673, 36.07616815305331 ], [ -115.121109195504246, 36.076205112162413 ], [ -115.121109224651818, 36.076614545056408 ], [ -115.170193690551542, 36.076577652986657 ] ] ] } },
{ "type": "Feature", "properties": { "id": "1R - 19L", "runwayId": null, "crossingRunwayId ": null }, "geometry": { "type": "Polygon", "coordinates": [ [ [ -115.167714111063432, 36.074328111526079 ], [ -115.167261538688038, 36.074154361450887 ], [ -115.153317997871497, 36.098492529191589 ], [ -115.153778645943348, 36.098661783255331 ], [ -115.167714111063432, 36.074328111526079 ] ] ] } },
{ "type": "Feature", "properties": { "id": "1L - 19R", "runwayId": null, "crossingRunwayId ": null }, "geometry": { "type": "Polygon", "coordinates": [ [ [ -115.170594311748459, 36.075409233954638 ], [ -115.170143527211621, 36.075238545830821 ], [ -115.156204694363922, 36.099578861109244 ], [ -115.156652388900042, 36.09974352778125 ], [ -115.170594311748459, 36.075409233954638 ] ] ] } },
{ "type": "Feature", "properties": { "id": null, "runwayId": "8R - 26L", "crossingRunwayId": null }, "geometry": { "type": "LineString", "coordinates": [ [ -115.161433771127491, 36.073841602653211 ], [ -115.160694215718351, 36.07384202237818 ] ] } },
{ "type": "Feature", "properties": { "id": null, "runwayId": "8R - 26L", "crossingRunwayId": null }, "geometry": { "type": "LineString", "coordinates": [ [ -115.153901386693647, 36.073848737977819 ], [ -115.151777578310984, 36.073852095777632 ] ] } },
{ "type": "Feature", "properties": { "id": null, "runwayId": "8R - 26L", "crossingRunwayId": null }, "geometry": { "type": "LineString", "coordinates": [ [ -115.149291127548366, 36.073852095777646 ], [ -115.147157245766266, 36.073853774677552 ] ] } },
{ "type": "Feature", "properties": { "id": null, "runwayId": "8R - 26L", "crossingRunwayId": null }, "geometry": { "type": "LineString", "coordinates": [ [ -115.144657363804384, 36.073855453577458 ], [ -115.142464720525524, 36.073858811377271 ] ] } },
{ "type": "Feature", "properties": { "id": null, "runwayId": "8R - 26L", "crossingRunwayId": null }, "geometry": { "type": "LineString", "coordinates": [ [ -115.142065142347604, 36.073858811377264 ], [ -115.139751618275426, 36.07386049027717 ] ] } },
{ "type": "Feature", "properties": { "id": null, "runwayId": "8R - 26L", "crossingRunwayId": null }, "geometry": { "type": "LineString", "coordinates": [ [ -115.137930011876065, 36.073862169177083 ], [ -115.135703790599052, 36.073865526976903 ] ] } },
{ "type": "Feature", "properties": { "id": null, "runwayId": "8R - 26L", "crossingRunwayId": null }, "geometry": { "type": "LineString", "coordinates": [ [ -115.126580648503108, 36.073872242576542 ], [ -115.125828501344657, 36.073873921476448 ] ] } },
{ "type": "Feature", "properties": { "id": null, "runwayId": "8L - 26R", "crossingRunwayId": "1L - 19R" }, "geometry": { "type": "LineString", "coordinates": [ [ -115.170161237176472, 36.076169167837712 ], [ -115.169602458626144, 36.07616561984981 ] ] } },
{ "type": "Feature", "properties": { "id": null, "runwayId": "8L - 26R", "crossingRunwayId": null }, "geometry": { "type": "LineString", "coordinates": [ [ -115.169261641945013, 36.076167298749716 ], [ -115.167860599972414, 36.076164780399857 ] ] } },
{ "type": "Feature", "properties": { "id": null, "runwayId": "8L - 26R", "crossingRunwayId": "1R - 19L" }, "geometry": { "type": "LineString", "coordinates": [ [ -115.166670259938186, 36.076164780399864 ], [ -115.166098594519767, 36.076165619849817 ] ] } },
{ "type": "Feature", "properties": { "id": null, "runwayId": "8L - 26R", "crossingRunwayId": null }, "geometry": { "type": "LineString", "coordinates": [ [ -115.164752116794162, 36.076173174899395 ], [ -115.163702804352141, 36.076168138199677 ] ] } },
{ "type": "Feature", "properties": { "id": null, "runwayId": "8L - 26R", "crossingRunwayId": null }, "geometry": { "type": "LineString", "coordinates": [ [ -115.161852656654375, 36.076171495999489 ], [ -115.160689179018661, 36.076169817099583 ] ] } },
{ "type": "Feature", "properties": { "id": null, "runwayId": "8L - 26R", "crossingRunwayId": null }, "geometry": { "type": "LineString", "coordinates": [ [ -115.157559709591538, 36.076173174899402 ], [ -115.155954681280221, 36.076168138199677 ] ] } },
{ "type": "Feature", "properties": { "id": null, "runwayId": "8L - 26R", "crossingRunwayId": null }, "geometry": { "type": "LineString", "coordinates": [ [ -115.152298037282236, 36.076174853799316 ], [ -115.150978421955145, 36.076176532699222 ] ] } },
{ "type": "Feature", "properties": { "id": null, "runwayId": "8L - 26R", "crossingRunwayId": null }, "geometry": { "type": "LineString", "coordinates": [ [ -115.147143814567002, 36.076179051049081 ], [ -115.145948437833042, 36.076184927198753 ] ] } },
{ "type": "Feature", "properties": { "id": null, "runwayId": "8L - 26R", "crossingRunwayId": null }, "geometry": { "type": "LineString", "coordinates": [ [ -115.138472296546126, 36.076181569398933 ], [ -115.137374296006783, 36.076183248298847 ] ] } },
{ "type": "Feature", "properties": { "id": null, "runwayId": "8L - 26R", "crossingRunwayId": null }, "geometry": { "type": "LineString", "coordinates": [ [ -115.134422789969861, 36.076189963898472 ], [ -115.133266027933772, 36.076193321698284 ] ] } },
{ "type": "Feature", "properties": { "id": null, "runwayId": "8L - 26R", "crossingRunwayId": null }, "geometry": { "type": "LineString", "coordinates": [ [ -115.126582327403028, 36.076200037297923 ], [ -115.125373519469818, 36.076196679498103 ] ] } },
{ "type": "Feature", "properties": { "id": null, "runwayId": "8L - 26R", "crossingRunwayId": null }, "geometry": { "type": "LineString", "coordinates": [ [ -115.12111079260535, 36.07661556502498 ], [ -115.122972692602474, 36.076617243924886 ] ] } },
{ "type": "Feature", "properties": { "id": null, "runwayId": "8L - 26R", "crossingRunwayId": null }, "geometry": { "type": "LineString", "coordinates": [ [ -115.125450748865575, 36.076613886125074 ], [ -115.126577290703338, 36.07661556502498 ] ] } },
{ "type": "Feature", "properties": { "id": null, "runwayId": "8L - 26R", "crossingRunwayId": null }, "geometry": { "type": "LineString", "coordinates": [ [ -115.133089743443506, 36.076608849425341 ], [ -115.134684698355358, 36.076608009975395 ] ] } },
{ "type": "Feature", "properties": { "id": null, "runwayId": "8L - 26R", "crossingRunwayId": null }, "geometry": { "type": "LineString", "coordinates": [ [ -115.137098956421994, 36.076608009975416 ], [ -115.138712379232857, 36.076604652175604 ] ] } },
{ "type": "Feature", "properties": { "id": null, "runwayId": "8L - 26R", "crossingRunwayId": null }, "geometry": { "type": "LineString", "coordinates": [ [ -115.145290309069409, 36.076602973275698 ], [ -115.147529961545658, 36.076599615475885 ] ] } },
{ "type": "Feature", "properties": { "id": null, "runwayId": "8L - 26R", "crossingRunwayId": null }, "geometry": { "type": "LineString", "coordinates": [ [ -115.14870854928057, 36.076599615475892 ], [ -115.15255994566779, 36.07659625767608 ] ] } },
{ "type": "Feature", "properties": { "id": null, "runwayId": "8L - 26R", "crossingRunwayId": null }, "geometry": { "type": "LineString", "coordinates": [ [ -115.157066113018828, 36.076589542076455 ], [ -115.158264847552601, 36.076592899876267 ] ] } },
{ "type": "Feature", "properties": { "id": null, "runwayId": "8L - 26R", "crossingRunwayId": null }, "geometry": { "type": "LineString", "coordinates": [ [ -115.16070932581755, 36.076586184276636 ], [ -115.161837546555219, 36.076588702626495 ] ] } },
{ "type": "Feature", "properties": { "id": null, "runwayId": "8L - 26R", "crossingRunwayId": null }, "geometry": { "type": "LineString", "coordinates": [ [ -115.16301361594023, 36.076587863176535 ], [ -115.16425264407178, 36.076586184276628 ] ] } },
{ "type": "Feature", "properties": { "id": null, "runwayId": "8L - 26R", "crossingRunwayId": "1R - 19L" }, "geometry": { "type": "LineString", "coordinates": [ [ -115.165861030182924, 36.076587023726596 ], [ -115.166426819451658, 36.076587863176556 ] ] } },
{ "type": "Feature", "properties": { "id": null, "runwayId": "8L - 26R", "crossingRunwayId": null }, "geometry": { "type": "LineString", "coordinates": [ [ -115.167262911605462, 36.076581147576917 ], [ -115.168538875534978, 36.07658198702687 ] ] } },
{ "type": "Feature", "properties": { "id": null, "runwayId": "8L - 26R", "crossingRunwayId": "1L - 19R" }, "geometry": { "type": "LineString", "coordinates": [ [ -115.1693623759395, 36.076581147576917 ], [ -115.169932362457999, 36.076580308126957 ] ] } },
{ "type": "Feature", "properties": { "id": null, "runwayId": "1R - 19L", "crossingRunwayId": null }, "geometry": { "type": "LineString", "coordinates": [ [ -115.167261232705584, 36.074154297760998 ], [ -115.166416746052235, 36.075618298480101 ] ] } },
{ "type": "Feature", "properties": { "id": null, "runwayId": "1R - 19L", "crossingRunwayId": "8L - 26R" }, "geometry": { "type": "LineString", "coordinates": [ [ -115.166100693144728, 36.076166039574851 ], [ -115.165861030182953, 36.076587023726589 ] ] } },
{ "type": "Feature", "properties": { "id": null, "runwayId": "1R - 19L", "crossingRunwayId": null }, "geometry": { "type": "LineString", "coordinates": [ [ -115.16516284391686, 36.077816398183685 ], [ -115.164602091347831, 36.078783444530259 ] ] } },
{ "type": "Feature", "properties": { "id": null, "runwayId": "1R - 19L", "crossingRunwayId": null }, "geometry": { "type": "LineString", "coordinates": [ [ -115.163116264929982, 36.08138909718631 ], [ -115.162564746310451, 36.0823469095834 ] ] } },
{ "type": "Feature", "properties": { "id": null, "runwayId": "1R - 19L", "crossingRunwayId": null }, "geometry": { "type": "LineString", "coordinates": [ [ -115.161780700053768, 36.083717731357659 ], [ -115.160716277512577, 36.085577952454884 ] ] } },
{ "type": "Feature", "properties": { "id": null, "runwayId": "1R - 19L", "crossingRunwayId": null }, "geometry": { "type": "LineString", "coordinates": [ [ -115.15992047895655, 36.086958008178641 ], [ -115.159047451004781, 36.088479091494605 ] ] } },
{ "type": "Feature", "properties": { "id": null, "runwayId": "1R - 19L", "crossingRunwayId": null }, "geometry": { "type": "LineString", "coordinates": [ [ -115.159047477237593, 36.088479091494598 ], [ -115.157985835374348, 36.090344060730622 ] ] } },
{ "type": "Feature", "properties": { "id": null, "runwayId": "1R - 19L", "crossingRunwayId": null }, "geometry": { "type": "LineString", "coordinates": [ [ -115.157186679018523, 36.09173670820369 ], [ -115.156505045656175, 36.092922011538207 ] ] } },
{ "type": "Feature", "properties": { "id": null, "runwayId": "1R - 19L", "crossingRunwayId": null }, "geometry": { "type": "LineString", "coordinates": [ [ -115.155492669012091, 36.094691572040439 ], [ -115.155015861438443, 36.095520948594611 ] ] } },
{ "type": "Feature", "properties": { "id": null, "runwayId": "1R - 19L", "crossingRunwayId": null }, "geometry": { "type": "LineString", "coordinates": [ [ -115.154471897868476, 36.096474563741928 ], [ -115.153961722159181, 36.097367948355078 ] ] } },
{ "type": "Feature", "properties": { "id": null, "runwayId": "1R - 19L", "crossingRunwayId": null }, "geometry": { "type": "LineString", "coordinates": [ [ -115.153902750799929, 36.097470151386922 ], [ -115.153316814732307, 36.09849092253053 ] ] } },
{ "type": "Feature", "properties": { "id": null, "runwayId": "1R - 19L", "crossingRunwayId": null }, "geometry": { "type": "LineString", "coordinates": [ [ -115.153780610831689, 36.098662380183555 ], [ -115.154198656908605, 36.097949687172935 ] ] } },
{ "type": "Feature", "properties": { "id": null, "runwayId": "1R - 19L", "crossingRunwayId": null }, "geometry": { "type": "LineString", "coordinates": [ [ -115.155471263038322, 36.095726823695735 ], [ -115.155969896310765, 36.094867226943229 ] ] } },
{ "type": "Feature", "properties": { "id": null, "runwayId": "1R - 19L", "crossingRunwayId": null }, "geometry": { "type": "LineString", "coordinates": [ [ -115.156898327959482, 36.093250446332569 ], [ -115.157401997931657, 36.092363987181542 ] ] } },
{ "type": "Feature", "properties": { "id": null, "runwayId": "1R - 19L", "crossingRunwayId": null }, "geometry": { "type": "LineString", "coordinates": [ [ -115.159624861408844, 36.088472297196574 ], [ -115.160128531381019, 36.08759255364518 ] ] } },
{ "type": "Feature", "properties": { "id": null, "runwayId": "1R - 19L", "crossingRunwayId": null }, "geometry": { "type": "LineString", "coordinates": [ [ -115.163237854009225, 36.082152917945713 ], [ -115.163768386379914, 36.081222807397104 ] ] } },
{ "type": "Feature", "properties": { "id": null, "runwayId": "1R - 19L", "crossingRunwayId": null }, "geometry": { "type": "LineString", "coordinates": [ [ -115.165366699091607, 36.078442549150715 ], [ -115.165796497467866, 36.077697117591903 ] ] } },
{ "type": "Feature", "properties": { "id": null, "runwayId": "1R - 19L", "crossingRunwayId": "8L - 26R" }, "geometry": { "type": "LineString", "coordinates": [ [ -115.166426806335352, 36.076587863176613 ], [ -115.166670240263727, 36.076164786958188 ] ] } },
{ "type": "Feature", "properties": { "id": null, "runwayId": "1R - 19L", "crossingRunwayId": null }, "geometry": { "type": "LineString", "coordinates": [ [ -115.16734831908019, 36.074973673056043 ], [ -115.167714319259971, 36.074328975491667 ] ] } },
{ "type": "Feature", "properties": { "id": null, "runwayId": "1L - 19R", "crossingRunwayId": null }, "geometry": { "type": "LineString", "coordinates": [ [ -115.17014368742575, 36.075237260341474 ], [ -115.169815398551506, 36.075786578684074 ] ] } },
{ "type": "Feature", "properties": { "id": null, "runwayId": "1L - 19R", "crossingRunwayId": "8L - 26R" }, "geometry": { "type": "LineString", "coordinates": [ [ -115.169603501380578, 36.076165691990191 ], [ -115.169363838418818, 36.076581219717234 ] ] } },
{ "type": "Feature", "properties": { "id": null, "runwayId": "1L - 19R", "crossingRunwayId": null }, "geometry": { "type": "LineString", "coordinates": [ [ -115.168680106431609, 36.077770720301501 ], [ -115.168184830958978, 36.078637032653639 ] ] } },
{ "type": "Feature", "properties": { "id": null, "runwayId": "1L - 19R", "crossingRunwayId": null }, "geometry": { "type": "LineString", "coordinates": [ [ -115.167550206794047, 36.079743427692506 ], [ -115.16654118794979, 36.081476052396781 ] ] } },
{ "type": "Feature", "properties": { "id": null, "runwayId": "1L - 19R", "crossingRunwayId": null }, "geometry": { "type": "LineString", "coordinates": [ [ -115.16654118794979, 36.081476052396781 ], [ -115.16602408677835, 36.082406162945404 ] ] } },
{ "type": "Feature", "properties": { "id": null, "runwayId": "1L - 19R", "crossingRunwayId": null }, "geometry": { "type": "LineString", "coordinates": [ [ -115.165199746923903, 36.083851695765546 ], [ -115.163895661420923, 36.086120728990188 ] ] } },
{ "type": "Feature", "properties": { "id": null, "runwayId": "1L - 19R", "crossingRunwayId": null }, "geometry": { "type": "LineString", "coordinates": [ [ -115.16251266762238, 36.088533727881881 ], [ -115.16203921784853, 36.089374856735411 ] ] } },
{ "type": "Feature", "properties": { "id": null, "runwayId": "1L - 19R", "crossingRunwayId": null }, "geometry": { "type": "LineString", "coordinates": [ [ -115.159823069970983, 36.093239684321887 ], [ -115.15854878494136, 36.095475978998323 ] ] } },
{ "type": "Feature", "properties": { "id": null, "runwayId": "1L - 19R", "crossingRunwayId": null }, "geometry": { "type": "LineString", "coordinates": [ [ -115.156634839047143, 36.098827063213186 ], [ -115.156203361770991, 36.099577531471724 ] ] } },
{ "type": "Feature", "properties": { "id": null, "runwayId": "1L - 19R", "crossingRunwayId": null }, "geometry": { "type": "LineString", "coordinates": [ [ -115.156654985846032, 36.099745421462444 ], [ -115.157464215601323, 36.098345218939805 ] ] } },
{ "type": "Feature", "properties": { "id": null, "runwayId": "1L - 19R", "crossingRunwayId": null }, "geometry": { "type": "LineString", "coordinates": [ [ -115.159765987374186, 36.094327611461786 ], [ -115.160252868347285, 36.093476409208819 ] ] } },
{ "type": "Feature", "properties": { "id": null, "runwayId": "1L - 19R", "crossingRunwayId": null }, "geometry": { "type": "LineString", "coordinates": [ [ -115.162500915323093, 36.08953938892634 ], [ -115.162987796296193, 36.088703296772536 ] ] } },
{ "type": "Feature", "properties": { "id": null, "runwayId": "1L - 19R", "crossingRunwayId": null }, "geometry": { "type": "LineString", "coordinates": [ [ -115.164346026321141, 36.086338566253183 ], [ -115.165648852649142, 36.084062817428936 ] ] } },
{ "type": "Feature", "properties": { "id": null, "runwayId": "1L - 19R", "crossingRunwayId": null }, "geometry": { "type": "LineString", "coordinates": [ [ -115.166487463152805, 36.08257866991093 ], [ -115.166945802827485, 36.081776155755271 ] ] } },
{ "type": "Feature", "properties": { "id": null, "runwayId": "1L - 19R", "crossingRunwayId": null }, "geometry": { "type": "LineString", "coordinates": [ [ -115.168928583617955, 36.078332732045531 ], [ -115.169299620497455, 36.077676282181798 ] ] } },
{ "type": "Feature", "properties": { "id": null, "runwayId": "1L - 19R", "crossingRunwayId": "8L - 26R" }, "geometry": { "type": "LineString", "coordinates": [ [ -115.169932316550842, 36.076580314685316 ], [ -115.17015945334532, 36.076168013594028 ] ] } },
{ "type": "Feature", "properties": { "id": null, "runwayId": "1L - 19R", "crossingRunwayId": null }, "geometry": { "type": "LineString", "coordinates": [ [ -115.170159453345278, 36.076168014413824 ], [ -115.170594303177225, 36.075409245929926 ] ] } }
]
}
