{
"type": "FeatureCollection",
"name": "MCOSAFETYPOLY",
"crs": { "type": "name", "properties": { "name": "urn:ogc:def:crs:OGC:1.3:CRS84" } },
"features": [
{ "type": "Feature", "properties": { "id": "18R - 36L" }, "geometry": { "type": "Polygon", "coordinates": [ [ [ -81.326664105081875, 28.448297904005191 ], [ -81.327286044682381, 28.448295742587241 ], [ -81.326934513603845, 28.41528249818759 ], [ -81.326308886614399, 28.415286822372185 ], [ -81.326664105081875, 28.448297904005191 ] ] ] } },
{ "type": "Feature", "properties": { "id": "18L - 36R" }, "geometry": { "type": "Polygon", "coordinates": [ [ [ -81.321997099818802, 28.448340592000438 ], [ -81.32262026854896, 28.448334107749105 ], [ -81.322267508340758, 28.41532222662687 ], [ -81.321645568740237, 28.415327091332685 ], [ -81.321997099818802, 28.448340592000438 ] ] ] } },
{ "type": "Feature", "properties": { "id": "17R - 35L" }, "geometry": { "type": "Polygon", "coordinates": [ [ [ -81.29564578935387, 28.435621238844458 ], [ -81.296115316878385, 28.435614753813397 ], [ -81.295830158800683, 28.408115730396663 ], [ -81.295361860405833, 28.408116811515981 ], [ -81.29564578935387, 28.435621238844458 ] ] ] } },
{ "type": "Feature", "properties": { "id": "17L - 35R" }, "geometry": { "type": "Polygon", "coordinates": [ [ [ -81.282348143004128, 28.44370235949533 ], [ -81.282817055963761, 28.443698576849549 ], [ -81.282563240692028, 28.418945289520543 ], [ -81.282095556861989, 28.418949613555569 ], [ -81.282348143004128, 28.44370235949533 ] ] ] } },
{ "type": "Feature", "properties": { "runwayId": "17L - 35R", "crossRunwayId": null, "taxiwayId": null }, "geometry": { "type": "LineString", "coordinates": [ [ -81.283196857024123, 28.418866916355327 ], [ -81.283201773542714, 28.419312291363791 ] ] } },
{ "type": "Feature", "properties": { "runwayId": "17L - 35R", "crossRunwayId": null, "taxiwayId": null }, "geometry": { "type": "LineString", "coordinates": [ [ -81.283204231802003, 28.419878195983923 ], [ -81.283212835709506, 28.420414910751617 ] ] } },
{ "type": "Feature", "properties": { "runwayId": "17L - 35R", "crossRunwayId": null, "taxiwayId": null }, "geometry": { "type": "LineString", "coordinates": [ [ -81.283237418302406, 28.422456888293141 ], [ -81.283241105691374, 28.423218430977467 ] ] } },
{ "type": "Feature", "properties": { "runwayId": "17L - 35R", "crossRunwayId": null, "taxiwayId": null }, "geometry": { "type": "LineString", "coordinates": [ [ -81.28325831350638, 28.424926342130554 ], [ -81.283265688284246, 28.425692190809848 ] ] } },
{ "type": "Feature", "properties": { "runwayId": "17L - 35R", "crossRunwayId": null, "taxiwayId": null }, "geometry": { "type": "LineString", "coordinates": [ [ -81.283361560396571, 28.435021371789592 ], [ -81.2833677060448, 28.435780662399697 ] ] } },
{ "type": "Feature", "properties": { "runwayId": "17L - 35R", "crossRunwayId": null, "taxiwayId": null }, "geometry": { "type": "LineString", "coordinates": [ [ -81.283393517767351, 28.438280608494768 ], [ -81.283400892545231, 28.439037173706598 ] ] } },
{ "type": "Feature", "properties": { "runwayId": "17L - 35R", "crossRunwayId": null, "taxiwayId": null }, "geometry": { "type": "LineString", "coordinates": [ [ -81.283434079045662, 28.442221173140219 ], [ -81.283440224693891, 28.442755613074908 ] ] } },
{ "type": "Feature", "properties": { "runwayId": "17L - 35R", "crossRunwayId": null, "taxiwayId": null }, "geometry": { "type": "LineString", "coordinates": [ [ -81.283448828601394, 28.443325715387619 ], [ -81.283451286860696, 28.443761801054123 ] ] } },
{ "type": "Feature", "properties": { "runwayId": "17R -35L", "crossRunwayId": null, "taxiwayId": null }, "geometry": { "type": "LineString", "coordinates": [ [ -81.295009407480023, 28.435382373271558 ], [ -81.295012480304109, 28.43563961309701 ] ] } },
{ "type": "Feature", "properties": { "runwayId": "17R -35L", "crossRunwayId": null, "taxiwayId": null }, "geometry": { "type": "LineString", "coordinates": [ [ -81.296748625928061, 28.435192685520661 ], [ -81.296749855057712, 28.435695276254236 ] ] } },
{ "type": "Feature", "properties": { "runwayId": "17R -35L", "crossRunwayId": null, "taxiwayId": null }, "geometry": { "type": "LineString", "coordinates": [ [ -81.296735105501966, 28.434094543482427 ], [ -81.296738792890906, 28.434714951900627 ] ] } },
{ "type": "Feature", "properties": { "runwayId": "17R -35L", "crossRunwayId": null, "taxiwayId": null }, "geometry": { "type": "LineString", "coordinates": [ [ -81.296679180103084, 28.428635008739402 ], [ -81.296681638362386, 28.429288416716403 ] ] } },
{ "type": "Feature", "properties": { "runwayId": "17R -35L", "crossRunwayId": null, "taxiwayId": null }, "geometry": { "type": "LineString", "coordinates": [ [ -81.296632473176572, 28.424257773863125 ], [ -81.296637389695164, 28.424956068188308 ] ] } },
{ "type": "Feature", "properties": { "runwayId": "17R -35L", "crossRunwayId": null, "taxiwayId": null }, "geometry": { "type": "LineString", "coordinates": [ [ -81.296621411009781, 28.423391385259546 ], [ -81.296625098398707, 28.423901598745292 ] ] } },
{ "type": "Feature", "properties": { "runwayId": "17R -35L", "crossRunwayId": null, "taxiwayId": null }, "geometry": { "type": "LineString", "coordinates": [ [ -81.294888338209944, 28.42344759534036 ], [ -81.29489202559887, 28.423831336440934 ] ] } },
{ "type": "Feature", "properties": { "runwayId": "17R -35L", "crossRunwayId": null, "taxiwayId": null }, "geometry": { "type": "LineString", "coordinates": [ [ -81.294880963432078, 28.422663353919894 ], [ -81.294884650821004, 28.423048178830115 ] ] } },
{ "type": "Feature", "properties": { "runwayId": "17R -35L", "crossRunwayId": null, "taxiwayId": null }, "geometry": { "type": "LineString", "coordinates": [ [ -81.296612192537424, 28.422556337755257 ], [ -81.296618338185652, 28.423081688798224 ] ] } },
{ "type": "Feature", "properties": { "runwayId": "17R -35L", "crossRunwayId": null, "taxiwayId": null }, "geometry": { "type": "LineString", "coordinates": [ [ -81.296602359500241, 28.421504546865691 ], [ -81.296607276018833, 28.422213669106377 ] ] } },
{ "type": "Feature", "properties": { "runwayId": "17R -35L", "crossRunwayId": null, "taxiwayId": null }, "geometry": { "type": "LineString", "coordinates": [ [ -81.29656302735161, 28.417737255322788 ], [ -81.296567943870187, 28.418432349614186 ] ] } },
{ "type": "Feature", "properties": { "runwayId": "17R -35L", "crossRunwayId": null, "taxiwayId": null }, "geometry": { "type": "LineString", "coordinates": [ [ -81.296528611721541, 28.414408739017333 ], [ -81.29653475736977, 28.415081693671461 ] ] } },
{ "type": "Feature", "properties": { "runwayId": "17R -35L", "crossRunwayId": null, "taxiwayId": null }, "geometry": { "type": "LineString", "coordinates": [ [ -81.296472071757861, 28.408989811761096 ], [ -81.29647821740609, 28.409628205528335 ] ] } },
{ "type": "Feature", "properties": { "runwayId": "17R -35L", "crossRunwayId": null, "taxiwayId": null }, "geometry": { "type": "LineString", "coordinates": [ [ -81.296462238720679, 28.408037889777017 ], [ -81.296467155239284, 28.408525473826725 ] ] } },
{ "type": "Feature", "properties": { "runwayId": "18L - 36R", "crossRunwayId": null, "taxiwayId": null }, "geometry": { "type": "LineString", "coordinates": [ [ -81.321089080293291, 28.415258444907657 ], [ -81.321093996811896, 28.415677890085643 ] ] } },
{ "type": "Feature", "properties": { "runwayId": "18L - 36R", "crossRunwayId": null, "taxiwayId": null }, "geometry": { "type": "LineString", "coordinates": [ [ -81.322825225917228, 28.415302767801364 ], [ -81.322826455046894, 28.415576272076446 ] ] } },
{ "type": "Feature", "properties": { "runwayId": "18L - 36R", "crossRunwayId": null, "taxiwayId": null }, "geometry": { "type": "LineString", "coordinates": [ [ -81.321102600719371, 28.41665839076029 ], [ -81.321105058978674, 28.417090802726491 ] ] } },
{ "type": "Feature", "properties": { "runwayId": "18L - 36R", "crossRunwayId": null, "taxiwayId": null }, "geometry": { "type": "LineString", "coordinates": [ [ -81.321200931090999, 28.423532450886619 ], [ -81.320976000365931, 28.423881601017268 ] ] } },
{ "type": "Feature", "properties": { "runwayId": "18L - 36R", "crossRunwayId": null, "taxiwayId": null }, "geometry": { "type": "LineString", "coordinates": [ [ -81.323121446161707, 28.424448832404433 ], [ -81.322890984353265, 28.424803114020353 ] ] } },
{ "type": "Feature", "properties": { "runwayId": "18L - 36R", "crossRunwayId": null, "taxiwayId": null }, "geometry": { "type": "LineString", "coordinates": [ [ -81.321250710841653, 28.426940128551344 ], [ -81.320942506583108, 28.427416275886269 ] ] } },
{ "type": "Feature", "properties": { "runwayId": "18L - 36R", "crossRunwayId": null, "taxiwayId": null }, "geometry": { "type": "LineString", "coordinates": [ [ -81.320963401787083, 28.430162863760152 ], [ -81.321248559864785, 28.430519558254595 ], [ -81.321253476383376, 28.430902192830306 ] ] } },
{ "type": "Feature", "properties": { "runwayId": "18L - 36R", "crossRunwayId": null, "taxiwayId": null }, "geometry": { "type": "LineString", "coordinates": [ [ -81.322986549183184, 28.430376880601084 ], [ -81.322991465701776, 28.430794104107317 ] ] } },
{ "type": "Feature", "properties": { "runwayId": "18L - 36R'", "crossRunwayId": null, "taxiwayId": null }, "geometry": { "type": "LineString", "coordinates": [ [ -81.321300797874684, 28.431318873824342 ], [ -81.320861998591312, 28.431921464059091 ] ] } },
{ "type": "Feature", "properties": { "runwayId": "18L - 36R", "crossRunwayId": null, "taxiwayId": null }, "geometry": { "type": "LineString", "coordinates": [ [ -81.323035099804159, 28.438492987704041 ], [ -81.323278467473941, 28.438846411702599 ] ] } },
{ "type": "Feature", "properties": { "runwayId": "18L - 36R", "crossRunwayId": null, "taxiwayId": null }, "geometry": { "type": "LineString", "coordinates": [ [ -81.321097376918402, 28.439382489887162 ], [ -81.321405888459381, 28.439838046128695 ] ] } },
{ "type": "Feature", "properties": { "runwayId": "18L - 36R", "crossRunwayId": null, "taxiwayId": null }, "geometry": { "type": "LineString", "coordinates": [ [ -81.321426783663355, 28.446879734166277 ], [ -81.32142924192263, 28.447349847822299 ] ] } },
{ "type": "Feature", "properties": { "runwayId": "18L - 36R", "crossRunwayId": null, "taxiwayId": null }, "geometry": { "type": "LineString", "coordinates": [ [ -81.32316354385209, 28.446864604036893 ], [ -81.323169689500332, 28.447333637041353 ] ] } },
{ "type": "Feature", "properties": { "runwayId": "18L - 36R", "crossRunwayId": null, "taxiwayId": null }, "geometry": { "type": "LineString", "coordinates": [ [ -81.32143723126535, 28.447978824204053 ], [ -81.321439689524638, 28.448414080154482 ] ] } },
{ "type": "Feature", "properties": { "runwayId": "18L - 36R", "crossRunwayId": null, "taxiwayId": null }, "geometry": { "type": "LineString", "coordinates": [ [ -81.323173376889301, 28.447960181916628 ], [ -81.323181980796775, 28.448879864177957 ] ] } },
{ "type": "Feature", "properties": { "runwayId": "18R - 36L", "crossRunwayId": null, "taxiwayId": null }, "geometry": { "type": "LineString", "coordinates": [ [ -81.326104851093248, 28.447937486953606 ], [ -81.326107309352565, 28.448371932543022 ] ] } },
{ "type": "Feature", "properties": { "runwayId": "18R - 36L", "crossRunwayId": null, "taxiwayId": null }, "geometry": { "type": "LineString", "coordinates": [ [ -81.327842225846851, 28.44788507237752 ], [ -81.32784837149508, 28.448357883335468 ] ] } },
{ "type": "Feature", "properties": { "runwayId": "18R - 36L", "crossRunwayId": null, "taxiwayId": null }, "geometry": { "type": "LineString", "coordinates": [ [ -81.327832392809697, 28.446823806712953 ], [ -81.327836080198622, 28.447305808528295 ] ] } },
{ "type": "Feature", "properties": { "runwayId": "18R - 36L", "crossRunwayId": null, "taxiwayId": null }, "geometry": { "type": "LineString", "coordinates": [ [ -81.326089486972705, 28.446835694676526 ], [ -81.326094403491297, 28.447304727809193 ] ] } },
{ "type": "Feature", "properties": { "runwayId": "18R - 36L", "crossRunwayId": null, "taxiwayId": null }, "geometry": { "type": "LineString", "coordinates": [ [ -81.32571460243085, 28.436987680065094 ], [ -81.32603048874968, 28.437454054816758 ] ] } },
{ "type": "Feature", "properties": { "runwayId": "18R - 36L", "crossRunwayId": null, "taxiwayId": null }, "geometry": { "type": "LineString", "coordinates": [ [ -81.327726073095334, 28.436482393396339 ], [ -81.327729760484289, 28.436910401083825 ] ] } },
{ "type": "Feature", "properties": { "runwayId": "18R - 36L", "crossRunwayId": null, "taxiwayId": null }, "geometry": { "type": "LineString", "coordinates": [ [ -81.325635323568733, 28.430216638234377 ], [ -81.325641469216961, 28.430915974134564 ] ] } },
{ "type": "Feature", "properties": { "runwayId": "18R - 36L", "crossRunwayId": null, "taxiwayId": null }, "geometry": { "type": "LineString", "coordinates": [ [ -81.327638804890526, 28.428924962404917 ], [ -81.327640034020192, 28.429262204811558 ] ] } },
{ "type": "Feature", "properties": { "runwayId": "18R - 36L", "crossRunwayId": null, "taxiwayId": null }, "geometry": { "type": "LineString", "coordinates": [ [ -81.325906961220355, 28.425789745589601 ], [ -81.325599678809041, 28.426261033896157 ] ] } },
{ "type": "Feature", "properties": { "runwayId": "18R - 36L", "crossRunwayId": null, "taxiwayId": null }, "geometry": { "type": "LineString", "coordinates": [ [ -81.327618524251392, 28.42630535218402 ], [ -81.327623440769955, 28.426730158245821 ] ] } },
{ "type": "Feature", "properties": { "runwayId": "18R - 36L", "crossRunwayId": null, "taxiwayId": null }, "geometry": { "type": "LineString", "coordinates": [ [ -81.327489465638649, 28.415208987022684 ], [ -81.327493153027575, 28.415593839026528 ] ] } },
{ "type": "Feature", "properties": { "runwayId": "18R - 36L", "crossRunwayId": null, "taxiwayId": null }, "geometry": { "type": "LineString", "coordinates": [ [ -81.325753320014712, 28.415290065510558 ], [ -81.325757007403638, 28.415626270311268 ] ] } }
]
}
