{"type":"FeatureCollection","features":[{"type":"Feature","properties":{"id":"7L - 25R"},"geometry":{"coordinates":[[[-87.90537797711475,42.95288666785578],[-87.90526781908173,42.95262162215772],[-87.88825687996255,42.95676818482039],[-87.88836215824259,42.95703475818624],[-87.90537797711475,42.95288666785578]]],"type":"Polygon"}},{"type":"Feature","properties":{"runwayId":"7L - 25R"},"geometry":{"coordinates":[[-87.8883616321911,42.95703433695738],[-87.88870789600804,42.95695066386227]],"type":"LineString"}},{"type":"Feature","properties":{"runwayId":"7L - 25R"},"geometry":{"coordinates":[[-87.88860135493891,42.95668503251517],[-87.88825552122957,42.95676839857586]],"type":"LineString"}},{"type":"Feature","properties":{"runwayId":"7L - 25R"},"geometry":{"coordinates":[[-87.89452508132905,42.95553454499705],[-87.89523584208528,42.95536101633374]],"type":"LineString"}},{"type":"Feature","properties":{"runwayId":"7L - 25R"},"geometry":{"coordinates":[[-87.89475292702106,42.955186836649204],[-87.89546089336382,42.95501588353554]],"type":"LineString"}},{"type":"Feature","properties":{"runwayId":"7L - 25R"},"geometry":{"coordinates":[[-87.90168748463286,42.95378714575713],[-87.902306960828,42.9536353238247]],"type":"LineString"}},{"type":"Feature","properties":{"runwayId":"7L - 25R"},"geometry":{"coordinates":[[-87.90177267490385,42.95347732931131],[-87.90243692683906,42.95331335170707]],"type":"LineString"}},{"type":"Feature","properties":{"runwayId":"7L - 25R"},"geometry":{"coordinates":[[-87.90492144023828,42.95299883247969],[-87.90537873173885,42.952887739765686]],"type":"LineString"}},{"type":"Feature","properties":{"runwayId":"7L - 25R"},"geometry":{"coordinates":[[-87.90488998902508,42.952714040962235],[-87.90526775156859,42.952620694269484]],"type":"LineString"}},{"type":"Feature","properties":{"runwayId":"7L - 25R","crossRunwayId":"13 - 31"},"geometry":{"coordinates":[[-87.8978801517217,42.95471013540234],[-87.89847449220059,42.95456481876235]],"type":"LineString"}},{"type":"Feature","properties":{"runwayId":"7L - 25R","crossRunwayId":"13 - 31"},"geometry":{"coordinates":[[-87.89757789305142,42.95449712106486],[-87.89814480243179,42.95435849616567]],"type":"LineString"}},{"type":"Feature","properties":{"runwayId":"7L - 25R","crossRunwayId":"1L - 19R"},"geometry":{"coordinates":[[-87.89294918811532,42.95591652931353],[-87.89371051762468,42.95573080950811]],"type":"LineString"}},{"type":"Feature","properties":{"runwayId":"7L - 25R","crossRunwayId":"13 - 31"},"geometry":{"coordinates":[[-87.89299996139461,42.95561447312804],[-87.8937604719603,42.95543786435741]],"type":"LineString"}},{"type":"Feature","properties":{"id":"13 - 31"},"geometry":{"coordinates":[[[-87.90324019109161,42.9582951621627],[-87.90362038585552,42.95799979905067],[-87.88831111939392,42.94777547985504],[-87.88792720087616,42.94807796857393],[-87.90324019109161,42.9582951621627]]],"type":"Polygon"}},{"type":"Feature","properties":{"runwayId":"13 - 31"},"geometry":{"coordinates":[[-87.90248943354844,42.957245002082686],[-87.9036209160746,42.9580018745701]],"type":"LineString"}},{"type":"Feature","properties":{"runwayId":"13 - 31"},"geometry":{"coordinates":[[-87.90147210299584,42.957110869255274],[-87.90211121115685,42.957539673507114]],"type":"LineString"}},{"type":"Feature","properties":{"runwayId":"13 - 31"},"geometry":{"coordinates":[[-87.90235901608874,42.95715354090339],[-87.9016052434979,42.95665044242966]],"type":"LineString"}},{"type":"Feature","properties":{"runwayId":"13 - 31"},"geometry":{"coordinates":[[-87.89787869786336,42.95416322586462],[-87.89707313105508,42.953626334590155]],"type":"LineString"}},{"type":"Feature","properties":{"runwayId":"13 - 31"},"geometry":{"coordinates":[[-87.89641600373297,42.953747422104954],[-87.8970119032471,42.95413746412123]],"type":"LineString"}},{"type":"Feature","properties":{"runwayId":"13 - 31"},"geometry":{"coordinates":[[-87.8950764182812,42.95285100302826],[-87.89620934356942,42.95360757458582]],"type":"LineString"}},{"type":"Feature","properties":{"runwayId":"13 - 31"},"geometry":{"coordinates":[[-87.89570785362689,42.95271338348098],[-87.89637925949246,42.95316188246676]],"type":"LineString"}},{"type":"Feature","properties":{"runwayId":"13 - 31"},"geometry":{"coordinates":[[-87.89488643465727,42.95216474839236],[-87.89562132909164,42.95265714457878]],"type":"LineString"}},{"type":"Feature","properties":{"runwayId":"13 - 31"},"geometry":{"coordinates":[[-87.8917191736033,42.95004764105343],[-87.89092668627245,42.94952213838579]],"type":"LineString"}},{"type":"Feature","properties":{"runwayId":"13 - 31"},"geometry":{"coordinates":[[-87.89041564336344,42.94918235299707],[-87.88988590392941,42.948827473210315]],"type":"LineString"}},{"type":"Feature","properties":{"runwayId":"13 - 31"},"geometry":{"coordinates":[[-87.88994096981898,42.94942384505396],[-87.89032728075213,42.949681541658435]],"type":"LineString"}},{"type":"Feature","properties":{"runwayId":"13 - 31"},"geometry":{"coordinates":[[-87.88831014611812,42.94777623159183],[-87.88868315878943,42.948022563464775]],"type":"LineString"}},{"type":"Feature","properties":{"runwayId":"13 - 31","crossRunwayId":"7L - 25R"},"geometry":{"coordinates":[[-87.89788137412341,42.954710330587176],[-87.89756216335311,42.95449949896181]],"type":"LineString"}},{"type":"Feature","properties":{"runwayId":"13 - 31","crossRunwayId":"7L - 25R"},"geometry":{"coordinates":[[-87.89847505820477,42.95456544085144],[-87.89815884975121,42.95435349856987]],"type":"LineString"}},{"type":"Feature","properties":{"runwayId":"13 - 31","crossRunwayId":"1L - 19R"},"geometry":{"coordinates":[[-87.89362110121112,42.95188176665101],[-87.89430285583856,42.95233299945599]],"type":"LineString"}},{"type":"Feature","properties":{"runwayId":"13 - 31","crossRunwayId":"1L - 19R"},"geometry":{"coordinates":[[-87.89438728991662,42.951830312179055],[-87.89370538155575,42.95137867801881]],"type":"LineString"}},{"type":"Feature","properties":{"runwayId":"13 - 31","crossRunwayId":"1R - 19L"},"geometry":{"coordinates":[[-87.89083862447343,42.95002156860144],[-87.89032725531627,42.94968074546907]],"type":"LineString"}},{"type":"Feature","properties":{"runwayId":"13 - 31","crossRunwayId":"1R - 19L"},"geometry":{"coordinates":[[-87.89092602475657,42.94952406496469],[-87.89041745767585,42.949183527999736]],"type":"LineString"}},{"type":"Feature","properties":{"id":"1R - 19L"},"geometry":{"coordinates":[[[-87.89265972013698,42.93941473462198],[-87.89209640399237,42.93936359832006],[-87.89014841425231,42.950748810816265],[-87.89070365498503,42.95079872846844],[-87.89265972013698,42.93941473462198]]],"type":"Polygon"}},{"type":"Feature","properties":{"runwayId":"1R - 19L"},"geometry":{"coordinates":[[-87.8907484795879,42.95054568824693],[-87.89083679884415,42.95002240976717]],"type":"LineString"}},{"type":"Feature","properties":{"runwayId":"1R - 19L"},"geometry":{"coordinates":[[-87.89029206343577,42.9498932361094],[-87.89032772565784,42.94968219996821]],"type":"LineString"}},{"type":"Feature","properties":{"runwayId":"1R - 19L"},"geometry":{"coordinates":[[-87.89103267033339,42.948923140387876],[-87.89092653372066,42.949521470622386]],"type":"LineString"}},{"type":"Feature","properties":{"runwayId":"1R - 19L"},"geometry":{"coordinates":[[-87.89041722548694,42.9491809537229],[-87.89050775798798,42.948658186255216]],"type":"LineString"}},{"type":"Feature","properties":{"runwayId":"1R - 19L"},"geometry":{"coordinates":[[-87.89163332858956,42.942084222137225],[-87.89174274869154,42.94143283792039]],"type":"LineString"}},{"type":"Feature","properties":{"runwayId":"1R - 19L"},"geometry":{"coordinates":[[-87.89253693319344,42.9401224235192],[-87.89264983066701,42.9394763321134]],"type":"LineString"}},{"type":"Feature","properties":{"runwayId":"1R - 19L","crossRunwayId":"13 - 31"},"geometry":{"coordinates":[[-87.89033015841504,42.94968374330921],[-87.89041705853947,42.94918237041904]],"type":"LineString"}},{"type":"Feature","properties":{"runwayId":"1R - 19L","crossRunwayId":"13 - 31"},"geometry":{"coordinates":[[-87.89083642096739,42.95002179506136],[-87.89092534797132,42.949518266810145]],"type":"LineString"}},{"type":"Feature","properties":{"runwayId":"1R - 19L","crossRunwayId":"7R - 25L"},"geometry":{"coordinates":[[-87.89099252193597,42.945828843446094],[-87.89106592344037,42.94537269841524]],"type":"LineString"}},{"type":"Feature","properties":{"runwayId":"1R - 19L","crossRunwayId":"7R - 25L"},"geometry":{"coordinates":[[-87.89158540690077,42.945685376340805],[-87.89166033760308,42.945228110865486]],"type":"LineString"}},{"type":"Feature","properties":{"id":"1L - 19R"},"geometry":{"coordinates":[[[-87.8980291327193,42.93053672234706],[-87.89728457269987,42.93046616651776],[-87.89263137383954,42.957681494240234],[-87.89337792926493,42.95774894107953],[-87.8980291327193,42.93053672234706]]],"type":"Polygon"}},{"type":"Feature","properties":{"runwayId":"1L - 19R"},"geometry":{"coordinates":[[-87.89338585579273,42.957715984843304],[-87.89347618807516,42.95719388080127]],"type":"LineString"}},{"type":"Feature","properties":{"runwayId":"1L - 19R"},"geometry":{"coordinates":[[-87.89268593861661,42.95736997971247],[-87.89264289301023,42.95761139114393]],"type":"LineString"}},{"type":"Feature","properties":{"runwayId":"1L - 19R"},"geometry":{"coordinates":[[-87.89387394401464,42.95485629672646],[-87.89400532227505,42.954092154739044]],"type":"LineString"}},{"type":"Feature","properties":{"runwayId":"1L - 19R"},"geometry":{"coordinates":[[-87.89392018841998,42.950135887693335],[-87.8940465914283,42.94940805704272]],"type":"LineString"}},{"type":"Feature","properties":{"runwayId":"1L - 19R"},"geometry":{"coordinates":[[-87.89470388588009,42.95001561182775],[-87.8948113284375,42.94937644619898]],"type":"LineString"}},{"type":"Feature","properties":{"runwayId":"1L - 19R"},"geometry":{"coordinates":[[-87.89499191174076,42.94832422295653],[-87.89531704386808,42.94641652400912]],"type":"LineString"}},{"type":"Feature","properties":{"runwayId":"1L - 19R"},"geometry":{"coordinates":[[-87.89616211158854,42.941466632104635],[-87.89642975629754,42.93993311894033]],"type":"LineString"}},{"type":"Feature","properties":{"runwayId":"1L - 19R"},"geometry":{"coordinates":[[-87.89558421544317,42.94041797649149],[-87.89570221617585,42.93972551914911]],"type":"LineString"}},{"type":"Feature","properties":{"runwayId":"1L - 19R"},"geometry":{"coordinates":[[-87.89711151240549,42.93590989884336],[-87.8972699387369,42.93499895221302]],"type":"LineString"}},{"type":"Feature","properties":{"runwayId":"1L - 19R"},"geometry":{"coordinates":[[-87.89778448105218,42.93198680214556],[-87.89792584608603,42.93114093342618]],"type":"LineString"}},{"type":"Feature","properties":{"runwayId":"1L - 19R"},"geometry":{"coordinates":[[-87.89794855767346,42.93101684503273],[-87.89802873502846,42.93054336340285]],"type":"LineString"}},{"type":"Feature","properties":{"runwayId":"1L - 19R","crossRunwayId":"7L - 25R"},"geometry":{"coordinates":[[-87.89293369907398,42.95592103405903],[-87.89298460944244,42.95561813149473]],"type":"LineString"}},{"type":"Feature","properties":{"runwayId":"1L - 19R","crossRunwayId":"7L - 25R"},"geometry":{"coordinates":[[-87.89372367715522,42.95572949157457],[-87.89377598105133,42.955424723099725]],"type":"LineString"}},{"type":"Feature","properties":{"runwayId":"1L - 19R","crossRunwayId":"13 - 31"},"geometry":{"coordinates":[[-87.89438794172692,42.95182907058461],[-87.89430308009862,42.9523341694416]],"type":"LineString"}},{"type":"Feature","properties":{"runwayId":"1L - 19R","crossRunwayId":"13 - 31"},"geometry":{"coordinates":[[-87.89362283020468,42.95188051919038],[-87.89370844068603,42.951381291451185]],"type":"LineString"}},{"type":"Feature","properties":{"runwayId":"1L - 19R","crossRunwayId":"7R - 25L"},"geometry":{"coordinates":[[-87.89560170880993,42.944703919495794],[-87.89567907849118,42.944248168903016]],"type":"LineString"}},{"type":"Feature","properties":{"runwayId":"1L - 19R","crossRunwayId":"7R - 25L"},"geometry":{"coordinates":[[-87.89482288896792,42.94489470297117],[-87.89490047294626,42.94444317369857]],"type":"LineString"}},{"type":"Feature","properties":{"id":"7R - 25L"},"geometry":{"coordinates":[[[-87.91785713086075,42.939279866570615],[-87.91767923482765,42.93888592813093],[-87.88825924151561,42.94605627467425],[-87.88843649276632,42.946450656661625],[-87.91785713086075,42.939279866570615]]],"type":"Polygon"}},{"type":"Feature","properties":{"runwayId":"7R - 25L"},"geometry":{"coordinates":[[-87.91714655717134,42.93945295837426],[-87.91785585949806,42.93927917895786]],"type":"LineString"}},{"type":"Feature","properties":{"runwayId":"7R - 25L"},"geometry":{"coordinates":[[-87.9100678806847,42.94118539138637],[-87.91153632648543,42.940821420969314]],"type":"LineString"}},{"type":"Feature","properties":{"runwayId":"7R - 25L"},"geometry":{"coordinates":[[-87.90647899670174,42.942054287629304],[-87.9078018367712,42.941735517701204]],"type":"LineString"}},{"type":"Feature","properties":{"runwayId":"7R - 25L"},"geometry":{"coordinates":[[-87.90668467235596,42.941565187348544],[-87.90757646390612,42.94134674864554]],"type":"LineString"}},{"type":"Feature","properties":{"runwayId":"7R - 25L"},"geometry":{"coordinates":[[-87.9039878192105,42.94265937973731],[-87.90564684566944,42.94225319287193]],"type":"LineString"}},{"type":"Feature","properties":{"runwayId":"7R - 25L"},"geometry":{"coordinates":[[-87.9025572317999,42.94300480569464],[-87.90112551280252,42.943353994410614]],"type":"LineString"}},{"type":"Feature","properties":{"runwayId":"7R - 25L"},"geometry":{"coordinates":[[-87.89873482249561,42.943503080684025],[-87.90016499743342,42.94315353880282]],"type":"LineString"}},{"type":"Feature","properties":{"runwayId":"7R - 25L"},"geometry":{"coordinates":[[-87.89642487665408,42.94450624916388],[-87.89998880343548,42.943640397957466]],"type":"LineString"}},{"type":"Feature","properties":{"runwayId":"7R - 25L"},"geometry":{"coordinates":[[-87.89650604456172,42.94404367102072],[-87.89798458978998,42.94368665907302]],"type":"LineString"}},{"type":"Feature","properties":{"runwayId":"7R - 25L"},"geometry":{"coordinates":[[-87.88843417325076,42.94644946196914],[-87.88903178145337,42.946305462135]],"type":"LineString"}},{"type":"Feature","properties":{"runwayId":"7R - 25L"},"geometry":{"coordinates":[[-87.88825861700316,42.94605652964404],[-87.8888591134459,42.945910482791874]],"type":"LineString"}},{"type":"Feature","properties":{"runwayId":"7R - 25L","crossRunwayId":"1L - 19R"},"geometry":{"coordinates":[[-87.89482217803807,42.94489519588072],[-87.89560248923068,42.94470713725991]],"type":"LineString"}},{"type":"Feature","properties":{"runwayId":"7R - 25L","crossRunwayId":"1L - 19R"},"geometry":{"coordinates":[[-87.89568158435492,42.944250857264706],[-87.89489795147918,42.94444277827273]],"type":"LineString"}},{"type":"Feature","properties":{"runwayId":"7R - 25L","crossRunwayId":"1R - 19L"},"geometry":{"coordinates":[[-87.89098983421265,42.94582842602409],[-87.89158377620457,42.945685451544136]],"type":"LineString"}},{"type":"Feature","properties":{"runwayId":"7R - 25L","crossRunwayId":"1R - 19L"},"geometry":{"coordinates":[[-87.89106791302996,42.945372428349],[-87.89166387024659,42.94522902521001]],"type":"LineString"}}]}