{"type":"FeatureCollection","name":"ORD","features":[
{"type":"Feature","properties":{"id":"4L - 22R"},"geometry":{"type":"Polygon","coordinates":[[[-87.91415816888085,41.981782750462024],[-87.91373184976297,41.9815179963064],[-87.89618504209255,41.99740346968111],[-87.89661331009783,41.997667433596554],[-87.91415816888085,41.981782750462024]]]}},
{"type":"Feature","properties":{"id":"4R - 22L"},"geometry":{"type":"Polygon","coordinates":[[[-87.89965162554826,41.953464118566956],[-87.89923602531107,41.95318946344614],[-87.87956346871347,41.969781146370025],[-87.8799800433944,41.97005500549007],[-87.89965162554826,41.953464118566956]]]}},
{"type":"Feature","properties":{"id":"9L - 27R"},"geometry":{"type":"Polygon","coordinates":[[[-87.9267065676022,42.00303772094047],[-87.92670656760215,42.002620627477874],[-87.89910350096817,42.00262135160086],[-87.89910252652446,42.003036996822274],[-87.9267065676022,42.00303772094047]]]}},
{"type":"Feature","properties":{"id":"9C - 27C"},"geometry":{"type":"Polygon","coordinates":[[[-87.93159827496623,41.988576885393954],[-87.93159535163518,41.98803077384039],[-87.89023313998503,41.98803656815201],[-87.89022924221022,41.988589198199904],[-87.93159827496623,41.988576885393954]]]}},
{"type":"Feature","properties":{"id":"9R - 27L"},"geometry":{"type":"Polygon","coordinates":[[[-87.93159340274782,41.98409848749068],[-87.93159340274782,41.98369141063622],[-87.89017857113791,41.983690686297884],[-87.89017857113791,41.98410428216022],[-87.93159340274782,41.98409848749068]]]}},
{"type":"Feature","properties":{"id":"10L - 28R"},"geometry":{"type":"Polygon","coordinates":[[[-87.93155880999647,41.96920082196296],[-87.9315583227746,41.96878568028574],[-87.88375649994592,41.968859580049255],[-87.88375649994592,41.96927182323544],[-87.93155880999647,41.96920082196296]]]}},
{"type":"Feature","properties":{"id":"10C - 28C"},"geometry":{"type":"Polygon","coordinates":[[[-87.9315500400031,41.96597307850848],[-87.93155052722494,41.9654242371755],[-87.89183098403868,41.96548419333993],[-87.89183488181345,41.96603774366113],[-87.9315500400031,41.96597307850848]]]}},
{"type":"Feature","properties":{"id":"10R - 28L"},"geometry":{"type":"Polygon","coordinates":[[[-87.92788345197829,41.957413694992965],[-87.92788345197829,41.957000288114045],[-87.90030913143333,41.9570376071624],[-87.90031205476441,41.95744992684401],[-87.92788345197829,41.957413694992965]]]}},
{"type":"Feature","properties":{"runwayId":"9L - 27R"},"geometry":{"type":"LineString","coordinates":[[-87.924546469535,42.002613024186296],[-87.92021604174099,42.002613024186296]]}},
{"type":"Feature","properties":{"runwayId":"9L - 27R"},"geometry":{"type":"LineString","coordinates":[[-87.92670778565726,42.002615920678444],[-87.9257957063559,42.002618093047474]]}},
{"type":"Feature","properties":{"runwayId":"9L - 27R"},"geometry":{"type":"LineString","coordinates":[[-87.90561984958823,42.00261519655541],[-87.90130403844965,42.00261664480146]]}},
{"type":"Feature","properties":{"runwayId":"9L - 27R"},"geometry":{"type":"LineString","coordinates":[[-87.89996807613967,42.00261519655541],[-87.89910179569213,42.00261447243238]]}},
{"type":"Feature","properties":{"runwayId":"9C - 27C"},"geometry":{"type":"LineString","coordinates":[[-87.93159462080288,41.988581593231835],[-87.9309436924126,41.988581593231835]]}},
{"type":"Feature","properties":{"runwayId":"9C - 27C"},"geometry":{"type":"LineString","coordinates":[[-87.93036292396856,41.988581593231835],[-87.92959798566564,41.988581593231835]]}},
{"type":"Feature","properties":{"runwayId":"9C - 27C"},"geometry":{"type":"LineString","coordinates":[[-87.9242862930677,41.988583041797234],[-87.92357592361182,41.98858231751452]]}},
{"type":"Feature","properties":{"runwayId":"9C - 27C"},"geometry":{"type":"LineString","coordinates":[[-87.90096785537385,41.9885884739173],[-87.90023653537848,41.9885884739173]]}},
{"type":"Feature","properties":{"runwayId":"9C - 27C"},"geometry":{"type":"LineString","coordinates":[[-87.89543545127829,41.98858956034125],[-87.89474457069637,41.98859100890649]]}},
{"type":"Feature","properties":{"runwayId":"9C - 27C"},"geometry":{"type":"LineString","coordinates":[[-87.89093157250599,41.9885917331891],[-87.89022704971232,41.98859390603686]]}},
{"type":"Feature","properties":{"runwayId":"9C - 27C"},"geometry":{"type":"LineString","coordinates":[[-87.89094424027408,41.98803186027386],[-87.89023387081821,41.988030411695895]]}},
{"type":"Feature","properties":{"runwayId":"9C - 27C"},"geometry":{"type":"LineString","coordinates":[[-87.89543642572193,41.988031860273836],[-87.89474749402744,41.98803113598487]]}},
{"type":"Feature","properties":{"runwayId":"9C - 27C"},"geometry":{"type":"LineString","coordinates":[[-87.9010024481251,41.988029687406886],[-87.90023361204733,41.98802896311789]]}},
{"type":"Feature","properties":{"runwayId":"9C - 27C"},"geometry":{"type":"LineString","coordinates":[[-87.90493822622142,41.98802823882888],[-87.90654703276687,41.988023893094635]]}},
{"type":"Feature","properties":{"runwayId":"9C - 27C"},"geometry":{"type":"LineString","coordinates":[[-87.91522250501036,41.98802823882887],[-87.91046405282194,41.98802860097338]]}},
{"type":"Feature","properties":{"runwayId":"9C - 27C"},"geometry":{"type":"LineString","coordinates":[[-87.91890370969053,41.98802715239535],[-87.91645298379,41.98802715239535]]}},
{"type":"Feature","properties":{"runwayId":"9C - 27C"},"geometry":{"type":"LineString","coordinates":[[-87.92428946000952,41.98802280666102],[-87.9235498572427,41.98802425523916]]}},
{"type":"Feature","properties":{"runwayId":"9C - 27C"},"geometry":{"type":"LineString","coordinates":[[-87.93036901424155,41.988025703817264],[-87.92960894815708,41.988025703817264]]}},
{"type":"Feature","properties":{"runwayId":"9C - 27C"},"geometry":{"type":"LineString","coordinates":[[-87.93159486441365,41.98802280666102],[-87.93096927155953,41.98802280666102]]}},
{"type":"Feature","properties":{"crossRunwayId":"9C - 27C","runwayId":"4L - 22R"},"geometry":{"type":"LineString","coordinates":[[-87.90653509583115,41.9880313170571],[-87.90591632408288,41.98858467143328]]}},
{"type":"Feature","properties":{"crossRunwayId":"9C - 27C","runwayId":"4L - 22R"},"geometry":{"type":"LineString","coordinates":[[-87.90726885193571,41.98803131705711],[-87.90665690129335,41.98858539571598]]}},
{"type":"Feature","properties":{"runwayId":"9R - 27L"},"geometry":{"type":"LineString","coordinates":[[-87.93159583885739,41.98410066049184],[-87.93082407944853,41.98409921182442]]}},
{"type":"Feature","properties":{"runwayId":"9R - 27L"},"geometry":{"type":"LineString","coordinates":[[-87.93034075537433,41.98410500649388],[-87.92950370823772,41.98410355782657]]}},
{"type":"Feature","properties":{"runwayId":"9R - 27L"},"geometry":{"type":"LineString","coordinates":[[-87.92663981820917,41.98410138482552],[-87.92588267545581,41.98410066049184]]}},
{"type":"Feature","properties":{"runwayId":"9R - 27L"},"geometry":{"type":"LineString","coordinates":[[-87.92424512282129,41.98410138482554],[-87.9234319495553,41.98410102265868]]}},
{"type":"Feature","properties":{"runwayId":"9R - 27L"},"geometry":{"type":"LineString","coordinates":[[-87.9189587657595,41.98410102265868],[-87.91752535907969,41.98410174699238]]}},
{"type":"Feature","properties":{"runwayId":"9R - 27L"},"geometry":{"type":"LineString","coordinates":[[-87.90075079804,41.98410609299438],[-87.90012617962954,41.984107541661636]]}},
{"type":"Feature","properties":{"runwayId":"9R - 27L"},"geometry":{"type":"LineString","coordinates":[[-87.89536991993948,41.98410681732801],[-87.89477356039632,41.98410826599524]]}},
{"type":"Feature","properties":{"runwayId":"9R - 27L"},"geometry":{"type":"LineString","coordinates":[[-87.89098492329836,41.984105368660735],[-87.89016833947942,41.98410681732801]]}},
{"type":"Feature","properties":{"runwayId":"9R - 27L"},"geometry":{"type":"LineString","coordinates":[[-87.89105508324462,41.9836867024368],[-87.890176135029,41.9836823564062]]}},
{"type":"Feature","properties":{"runwayId":"9R - 27L"},"geometry":{"type":"LineString","coordinates":[[-87.89567784414807,41.98368525375995],[-87.89474042931057,41.98368525375995]]}},
{"type":"Feature","properties":{"runwayId":"9R - 27L"},"geometry":{"type":"LineString","coordinates":[[-87.90135495313275,41.98368525375995],[-87.90003750525304,41.98368525375995]]}},
{"type":"Feature","properties":{"runwayId":"9R - 27L"},"geometry":{"type":"LineString","coordinates":[[-87.91479253172857,41.9836881511136],[-87.91261367561975,41.9836881511136]]}},
{"type":"Feature","properties":{"runwayId":"9R - 27L"},"geometry":{"type":"LineString","coordinates":[[-87.91885206417456,41.9836867024368],[-87.91763400955202,41.9836867024368]]}},
{"type":"Feature","properties":{"runwayId":"9R - 27L"},"geometry":{"type":"LineString","coordinates":[[-87.92428751112216,41.98368380508309],[-87.9234222051183,41.98368815111359]]}},
{"type":"Feature","properties":{"runwayId":"9R - 27L"},"geometry":{"type":"LineString","coordinates":[[-87.92667100040751,41.983683805083075],[-87.92584077437678,41.98368670243678]]}},
{"type":"Feature","properties":{"runwayId":"9R - 27L"},"geometry":{"type":"LineString","coordinates":[[-87.93034855092387,41.98368525375995],[-87.9295456093167,41.98368815111359]]}},
{"type":"Feature","properties":{"runwayId":"9R - 27L"},"geometry":{"type":"LineString","coordinates":[[-87.93159388996995,41.98368815111359],[-87.93083772166028,41.98368525375995]]}},
{"type":"Feature","properties":{"crossRunwayId":"9R - 27L","runwayId":"4L - 22R"},"geometry":{"type":"LineString","coordinates":[[-87.91206701270482,41.98369050521331],[-87.91160610083567,41.98409975507471]]}},
{"type":"Feature","properties":{"crossRunwayId":"9R - 27L","runwayId":"4L - 22R"},"geometry":{"type":"LineString","coordinates":[[-87.91133374382213,41.983691953889995],[-87.91087380639665,41.98410192807578]]}},
{"type":"Feature","properties":{"runwayId":"9R - 27L"},"geometry":{"coordinates":[[-87.90904393137872,41.98368356422236],[-87.90638824435128,41.98368159409671]],"type":"LineString"}},
{"type":"Feature","properties":{"runwayId":"9R - 27L"},"geometry":{"coordinates":[[-87.90913358818652,41.98410978995338],[-87.90803812698827,41.9841082270176]],"type":"LineString"}},
{"type":"Feature","properties":{"runwayId":"10L - 28R"},"geometry":{"type":"LineString","coordinates":[[-87.9315588099968,41.968778072952254],[-87.93078120392579,41.96878386901593]]}},
{"type":"Feature","properties":{"runwayId":"10L - 28R"},"geometry":{"type":"LineString","coordinates":[[-87.92722253554055,41.96878894057124],[-87.92485853512912,41.96879546114171]]}},
{"type":"Feature","properties":{"runwayId":"10L - 28R"},"geometry":{"type":"LineString","coordinates":[[-87.92148598549025,41.96879908368059],[-87.92024844199373,41.96880343072694]]}},
{"type":"Feature","properties":{"runwayId":"10L - 28R"},"geometry":{"type":"LineString","coordinates":[[-87.91229893030521,41.96881574735673],[-87.91065601823031,41.96881936989444]]}},
{"type":"Feature","properties":{"runwayId":"10L - 28R"},"geometry":{"type":"LineString","coordinates":[[-87.90617162833199,41.96882661496924],[-87.90510656137005,41.96882661496925]]}},
{"type":"Feature","properties":{"runwayId":"10L - 28R"},"geometry":{"type":"LineString","coordinates":[[-87.90173596061857,41.96883168652113],[-87.90096809898455,41.96883458455059]]}},
{"type":"Feature","properties":{"runwayId":"10L - 28R"},"geometry":{"type":"LineString","coordinates":[[-87.89491777806344,41.968841105116404],[-87.89414212087982,41.9688432786382]]}},
{"type":"Feature","properties":{"runwayId":"10L - 28R"},"geometry":{"type":"LineString","coordinates":[[-87.89125192087148,41.96884835018875],[-87.89048405923744,41.96884835018875]]}},
{"type":"Feature","properties":{"runwayId":"10L - 28R"},"geometry":{"type":"LineString","coordinates":[[-87.8856381507271,41.96885631976736],[-87.88466955369127,41.96885414624602]]}},
{"type":"Feature","properties":{"runwayId":"10L - 28R"},"geometry":{"type":"LineString","coordinates":[[-87.88561378963465,41.96927870600762],[-87.8837545510588,41.96928160401676]]}},
{"type":"Feature","properties":{"runwayId":"10L - 28R"},"geometry":{"type":"LineString","coordinates":[[-87.89127725640759,41.969268562974655],[-87.89070428351319,41.969269287477054]]}},
{"type":"Feature","properties":{"runwayId":"10L - 28R"},"geometry":{"type":"LineString","coordinates":[[-87.89494652415257,41.9692620424526],[-87.89419912583617,41.969264215960024]]}},
{"type":"Feature","properties":{"runwayId":"10L - 28R"},"geometry":{"type":"LineString","coordinates":[[-87.8961061121532,41.96926131795011],[-87.89543861822007,41.96926349145755]]}},
{"type":"Feature","properties":{"runwayId":"10L - 28R"},"geometry":{"type":"LineString","coordinates":[[-87.89928279860881,41.96925407292473],[-87.89721990130006,41.96925697093498]]}},
{"type":"Feature","properties":{"runwayId":"10L - 28R"},"geometry":{"type":"LineString","coordinates":[[-87.9070315748955,41.96924465439051],[-87.90339884878927,41.96925045041173]]}},
{"type":"Feature","properties":{"runwayId":"10L - 28R"},"geometry":{"type":"LineString","coordinates":[[-87.91338933280328,41.96923342459789],[-87.91203534328488,41.96923523585491]]}},
{"type":"Feature","properties":{"runwayId":"10L - 28R"},"geometry":{"type":"LineString","coordinates":[[-87.92144846940782,41.96922002129445],[-87.91912247230063,41.96922509281501]]}},
{"type":"Feature","properties":{"runwayId":"10L - 28R"},"geometry":{"type":"LineString","coordinates":[[-87.92721815054387,41.969209878252094],[-87.92483758458957,41.969214225270434]]}},
{"type":"Feature","properties":{"runwayId":"10L - 28R"},"geometry":{"type":"LineString","coordinates":[[-87.9315631949933,41.96920480673032],[-87.9307807167038,41.96920480673032]]}},
{"type":"Feature","properties":{"runwayId":"10C - 28C"},"geometry":{"type":"LineString","coordinates":[[-87.93154760389415,41.96597941823223],[-87.93071835230712,41.96597941823223]]}},
{"type":"Feature","properties":{"runwayId":"10C - 28C"},"geometry":{"type":"LineString","coordinates":[[-87.92691704744111,41.96598666363001],[-87.9260829236356,41.96598666363001]]}},
{"type":"Feature","properties":{"runwayId":"10C - 28C"},"geometry":{"type":"LineString","coordinates":[[-87.92566391284545,41.965985939090274],[-87.9247986068416,41.965989561788895]]}},
{"type":"Feature","properties":{"runwayId":"10C - 28C"},"geometry":{"type":"LineString","coordinates":[[-87.9215273993473,41.96599535810628],[-87.92025477587768,41.96599753172516]]}},
{"type":"Feature","properties":{"runwayId":"10C - 28C"},"geometry":{"type":"LineString","coordinates":[[-87.9179619098562,41.96600042988356],[-87.90452140792925,41.96602107925827]]}},
{"type":"Feature","properties":{"runwayId":"10C - 28C"},"geometry":{"type":"LineString","coordinates":[[-87.90190794993121,41.96602578876385],[-87.90074738748686,41.966027962381695]]}},
{"type":"Feature","properties":{"runwayId":"10C - 28C"},"geometry":{"type":"LineString","coordinates":[[-87.8974674099993,41.966030860538694],[-87.89661866953834,41.966033758695595]]}},
{"type":"Feature","properties":{"runwayId":"10C - 28C"},"geometry":{"type":"LineString","coordinates":[[-87.89265560701843,41.9660388304698],[-87.89183122764989,41.96604245316542]]}},
{"type":"Feature","properties":{"runwayId":"10C - 28C"},"geometry":{"type":"LineString","coordinates":[[-87.89267314700503,41.965479846067026],[-87.89183171487178,41.965479846067026]]}},
{"type":"Feature","properties":{"runwayId":"10C - 28C"},"geometry":{"type":"LineString","coordinates":[[-87.8974825138766,41.96547115152041],[-87.89662402897865,41.96547115152041]]}},
{"type":"Feature","properties":{"runwayId":"10C - 28C"},"geometry":{"type":"LineString","coordinates":[[-87.90190746270937,41.96546390606398],[-87.90078782690033,41.965466079701]]}},
{"type":"Feature","properties":{"runwayId":"10C - 28C"},"geometry":{"type":"LineString","coordinates":[[-87.90516307910448,41.965458834244],[-87.90476453163198,41.965461007881174]]}},
{"type":"Feature","properties":{"runwayId":"10C - 28C"},"geometry":{"type":"LineString","coordinates":[[-87.92147039439094,41.96543419968402],[-87.92028547085413,41.96543564877605]]}},
{"type":"Feature","properties":{"runwayId":"10C - 28C"},"geometry":{"type":"LineString","coordinates":[[-87.92692630465616,41.9654262296773],[-87.92486535623485,41.965429127861675]]}},
{"type":"Feature","properties":{"runwayId":"10C - 28C"},"geometry":{"type":"LineString","coordinates":[[-87.93154809111593,41.965418984215766],[-87.93068765733058,41.96542043330815]]}},
{"type":"Feature","properties":{"runwayId":"10R - 28L"},"geometry":{"type":"LineString","coordinates":[[-87.92788320836763,41.957416593541765],[-87.92707052232346,41.95741731817895]]}},
{"type":"Feature","properties":{"runwayId":"10R - 28L"},"geometry":{"type":"LineString","coordinates":[[-87.92538960694436,41.95741949209048],[-87.91831027347811,41.95743326019505]]}},
{"type":"Feature","properties":{"runwayId":"10R - 28L"},"geometry":{"type":"LineString","coordinates":[[-87.90982774108679,41.95744123120159],[-87.90643277924293,41.95744485438605]]}},
{"type":"Feature","properties":{"runwayId":"10R - 28L"},"geometry":{"type":"LineString","coordinates":[[-87.90612290614692,41.95744775293348],[-87.90278835981228,41.957453550027935]]}},
{"type":"Feature","properties":{"runwayId":"10R - 28L"},"geometry":{"type":"LineString","coordinates":[[-87.90113472885673,41.957452100754374],[-87.90031424726298,41.957457173211694]]}},
{"type":"Feature","properties":{"runwayId":"4R - 22L"},"geometry":{"type":"LineString","coordinates":[[-87.89964090666764,41.95348604019778],[-87.89874149513435,41.95424115424932]]}},
{"type":"Feature","properties":{"runwayId":"4R - 22L"},"geometry":{"type":"LineString","coordinates":[[-87.89578746906373,41.95672601055414],[-87.89443104343613,41.95787601186684]]}},
{"type":"Feature","properties":{"runwayId":"4R - 22L"},"geometry":{"type":"LineString","coordinates":[[-87.89206801746839,41.95986509558199],[-87.89074667181387,41.960984607197126]]}},
{"type":"Feature","properties":{"runwayId":"4R - 22L"},"geometry":{"type":"LineString","coordinates":[[-87.88784575292483,41.963427900161854],[-87.88587835109851,41.96509221304408]]}},
{"type":"Feature","properties":{"runwayId":"4R - 22L"},"geometry":{"type":"LineString","coordinates":[[-87.88089699491418,41.96928576990463],[-87.88002438058257,41.97002874259641]]}},
{"type":"Feature","properties":{"runwayId":"4L - 22R"},"geometry":{"type":"LineString","coordinates":[[-87.91306581749532,41.98277855667992],[-87.9128416954448,41.982985720082674]]}},
{"type":"Feature","properties":{"runwayId":"4L - 22R"},"geometry":{"type":"LineString","coordinates":[[-87.9087558530189,41.98668050377711],[-87.90837874330778,41.987019477310085]]}},
{"type":"Feature","properties":{"runwayId":"4L - 22R"},"geometry":{"type":"LineString","coordinates":[[-87.90527611457324,41.98983187399869],[-87.90502178476805,41.990059293899726]]}},
{"type":"Feature","properties":{"runwayId":"4L - 22R"},"geometry":{"type":"LineString","coordinates":[[-87.90057442373028,41.994086084968345],[-87.90029183505786,41.994342458363434]]}},
{"type":"Feature","properties":{"runwayId":"4L - 22R"},"geometry":{"type":"LineString","coordinates":[[-87.89664936451457,41.99697783008748],[-87.89617481043365,41.99740220236201]]}},
{"type":"Feature","properties":{"runwayId":"4L - 22R"},"geometry":{"type":"LineString","coordinates":[[-87.90057150039917,41.99342848973058],[-87.90029183505784,41.99368052042643]]}},
{"type":"Feature","properties":{"runwayId":"4L - 22R"},"geometry":{"type":"LineString","coordinates":[[-87.90454430735608,41.989830425461676],[-87.90429387532568,41.99005856963379]]}},
{"type":"Feature","properties":{"runwayId":"4L - 22R"},"geometry":{"type":"LineString","coordinates":[[-87.90894879287121,41.98584247812954],[-87.90778287098648,41.98689996761662]]}},
{"type":"Feature","properties":{"runwayId":"4L - 22R"},"geometry":{"type":"LineString","coordinates":[[-87.91241342743953,41.98270322436634],[-87.91210160545613,41.982985720082674]]}},
{"type":"Feature","properties":{"runwayId":"4L - 22R"},"geometry":{"type":"LineString","coordinates":[[-87.91369579534611,41.981544978825504],[-87.91324657680134,41.98195279376119]]}},
{"type":"Feature","properties":{"runwayId":"4L - 22R"},"geometry":{"type":"LineString","coordinates":[[-87.91411480613627,41.9817528706022],[-87.91377375084195,41.98154425446272]]}},
{"type":"Feature","properties":{"crossRunwayId":"4L - 22R","runwayId":"9C - 27C"},"geometry":{"type":"LineString","coordinates":[[-87.90664788768964,41.988587387493325],[-87.905914131585,41.988587387493325]]}},
{"type":"Feature","properties":{"crossRunwayId":"4L - 22R","runwayId":"9C - 27C"},"geometry":{"type":"LineString","coordinates":[[-87.90725813305502,41.988030592768126],[-87.90653801916221,41.98802986847913]]}},
{"type":"Feature","properties":{"crossRunwayId":"4L - 22R","runwayId":"9R - 27L"},"geometry":{"type":"LineString","coordinates":[[-87.91160074139565,41.98410174699238],[-87.91087526806248,41.984102471326054]]}},
{"type":"Feature","properties":{"crossRunwayId":"4L - 22R","runwayId":"9R - 27L"},"geometry":{"type":"LineString","coordinates":[[-87.9120621404867,41.9836881511136],[-87.91133325660056,41.98368525375995]]}},
{"type":"Feature","properties":{"crossRunwayId":"10C - 28C","taxiwayId":"Z"},"geometry":{"type":"LineString","coordinates":[[-87.92719305861827,41.96598050504194],[-87.92719013528715,41.96543202604595]]}},
{"type":"Feature","properties":{"crossRunwayId":"10C - 28C","taxiwayId":"GG"},"geometry":{"type":"LineString","coordinates":[[-87.89620087680241,41.9660355700436],[-87.89619892791504,41.96547694788497]]}},
{"type":"Feature","properties":{"crossRunwayId":"9C - 27C","taxiwayId":"TT"},"geometry":{"type":"LineString","coordinates":[[-87.89910569346628,41.988585033574694],[-87.89910861679739,41.98803167920167]]}},
{"type":"Feature","properties":{"crossRunwayId":"9C - 27C","taxiwayId":"VV"},"geometry":{"type":"LineString","coordinates":[[-87.92602957284284,41.98857706646471],[-87.92602372618065,41.98802805775667]]}},
{"type":"Feature","properties":{"crossRunwayId":"4R - 22L","runwayId":"10C - 28C"},"geometry":{"type":"LineString","coordinates":[[-87.88326221338006,41.96728393882376],[-87.8828451514773,41.96701079231887]]}}
]}