{
"type": "FeatureCollection",
"name": "PDX",
"features": [
{ "type": "Feature", "properties": { "runwayId": "10L - 28R" }, "geometry": { "type": "LineString", "coordinates": [ [ -122.595891238326374, 45.594674938704884 ], [ -122.594887150798314, 45.594282982384968 ] ] } },
{ "type": "Feature", "properties": { "runwayId": "3 - 21" }, "geometry": { "type": "LineString", "coordinates": [ [ -122.604890825133197, 45.591098431062328 ], [ -122.604266784204484, 45.591526986602759 ] ] } },
{ "type": "Feature", "properties": { "runwayId": "3 - 21" }, "geometry": { "type": "LineString", "coordinates": [ [ -122.602890403019799, 45.591911735681265 ], [ -122.604010830432173, 45.591127591824197 ] ] } },
{ "type": "Feature", "properties": { "runwayId": "3 - 21" }, "geometry": { "type": "LineString", "coordinates": [ [ -122.604289049383979, 45.591517929167075 ], [ -122.603592837796853, 45.592007264884991 ] ] } },
{ "type": "Feature", "properties": { "id": "10L - 28R" }, "geometry": { "type": "Polygon", "coordinates": [ [ [ -122.599884661389595, 45.596691699167721 ], [ -122.600172712490505, 45.596334626979584 ], [ -122.566613040258403, 45.583253076208877 ], [ -122.566337853994597, 45.583616230756633 ], [ -122.599884661389595, 45.596691699167721 ] ] ] } },
{ "type": "Feature", "properties": { "id": "10R - 28L" }, "geometry": { "type": "Polygon", "coordinates": [ [ [ -122.621350258459898, 45.595331700937336 ], [ -122.621631948277098, 45.594973884413051 ], [ -122.584061881908795, 45.580336975710139 ], [ -122.583772114701603, 45.580694207110867 ], [ -122.621350258459898, 45.595331700937336 ] ] ] } },
{ "type": "Feature", "properties": { "id": "3 - 21" }, "geometry": { "type": "Polygon", "coordinates": [ [ [ -122.617033937515004, 45.582575694650828 ], [ -122.616616319078005, 45.582281068133383 ], [ -122.600042771628097, 45.593911190523848 ], [ -122.600458047659302, 45.594204952752762 ], [ -122.617033937515004, 45.582575694650828 ] ] ] } },
{ "type": "Feature", "properties": { "runwayId": "3 - 21" }, "geometry": { "type": "LineString", "coordinates": [ [ -122.616626735450836, 45.58227237974058 ], [ -122.616032085121347, 45.582696863178462 ] ] } },
{ "type": "Feature", "properties": { "runwayId": "3 - 21" }, "geometry": { "type": "LineString", "coordinates": [ [ -122.610665774612059, 45.586458737647121 ], [ -122.609404231674802, 45.587358939569036 ] ] } },
{ "type": "Feature", "properties": { "runwayId": "3 - 21" }, "geometry": { "type": "LineString", "coordinates": [ [ -122.608006924283899, 45.588324119399211 ], [ -122.607284366672189, 45.588842688959886 ] ] } },
{ "type": "Feature", "properties": { "runwayId": "10R - 28L" }, "geometry": { "type": "LineString", "coordinates": [ [ -122.604886745790893, 45.588454650731215 ], [ -122.60666282839469, 45.58914595673096 ] ] } },
{ "type": "Feature", "properties": { "runwayId": "10R - 28L" }, "geometry": { "type": "LineString", "coordinates": [ [ -122.598975752563447, 45.586152933201447 ], [ -122.601100853935108, 45.586985836526168 ] ] } },
{ "type": "Feature", "properties": { "runwayId": "10R - 28L" }, "geometry": { "type": "LineString", "coordinates": [ [ -122.591939172021327, 45.583412444614794 ], [ -122.593578979896506, 45.584049841434826 ] ] } },
{ "type": "Feature", "properties": { "runwayId": "10R - 28L" }, "geometry": { "type": "LineString", "coordinates": [ [ -122.584869683937484, 45.580651009430426 ], [ -122.584061067879034, 45.58033862846694 ] ] } },
{ "type": "Feature", "properties": { "runwayId": "3 - 21" }, "geometry": { "type": "LineString", "coordinates": [ [ -122.611856219392465, 45.58621128760182 ], [ -122.610966500339813, 45.586832333318952 ] ] } },
{ "type": "Feature", "properties": { "runwayId": "10R - 28L" }, "geometry": { "type": "LineString", "coordinates": [ [ -122.620775944062714, 45.594647786851105 ], [ -122.621626890990939, 45.594978009296611 ] ] } },
{ "type": "Feature", "properties": { "runwayId": "3 - 21" }, "geometry": { "type": "LineString", "coordinates": [ [ -122.605942712738454, 45.590362368631027 ], [ -122.605409280396685, 45.590736427564146 ] ] } },
{ "type": "Feature", "properties": { "runwayId": "10R - 28L" }, "geometry": { "type": "LineString", "coordinates": [ [ -122.612330460503969, 45.591821423146612 ], [ -122.614371754535952, 45.592610136696472 ] ] } },
{ "type": "Feature", "properties": { "runwayId": "10R - 28L" }, "geometry": { "type": "LineString", "coordinates": [ [ -122.620546745248959, 45.595018780213664 ], [ -122.621344910140138, 45.595342139141565 ] ] } },
{ "type": "Feature", "properties": { "runwayId": "10R - 28L" }, "geometry": { "type": "LineString", "coordinates": [ [ -122.58377653396812, 45.580701209842431 ], [ -122.584126782541261, 45.580833842245575 ], [ -122.584666099212996, 45.581032791840961 ] ] } },
{ "type": "Feature", "properties": { "runwayId": "10R - 28L" }, "geometry": { "type": "LineString", "coordinates": [ [ -122.591706125058437, 45.583783582610558 ], [ -122.59332171688402, 45.584413025805738 ] ] } },
{ "type": "Feature", "properties": { "runwayId": "10R - 28L" }, "geometry": { "type": "LineString", "coordinates": [ [ -122.596370283256917, 45.585605972750564 ], [ -122.598870547113023, 45.586577779130025 ] ] } },
{ "type": "Feature", "properties": { "runwayId": "10R - 28L" }, "geometry": { "type": "LineString", "coordinates": [ [ -122.599408384882167, 45.586783899117414 ], [ -122.603780316140188, 45.588490978563264 ] ] } },
{ "type": "Feature", "properties": { "runwayId": "10R - 28L" }, "geometry": { "type": "LineString", "coordinates": [ [ -122.599415573232733, 45.586795372421676 ], [ -122.603765454630775, 45.588487419979522 ] ] } },
{ "type": "Feature", "properties": { "runwayId": "10R - 28L" }, "geometry": { "type": "LineString", "coordinates": [ [ -122.603848735963069, 45.588520382002464 ], [ -122.606065106159349, 45.589377108826369 ] ] } },
{ "type": "Feature", "properties": { "runwayId": "3 - 21" }, "geometry": { "type": "LineString", "coordinates": [ [ -122.605562417627112, 45.590040189455543 ], [ -122.604795097619899, 45.590587136685031 ] ] } },
{ "type": "Feature", "properties": { "runwayId": "10L - 28R" }, "geometry": { "type": "LineString", "coordinates": [ [ -122.599349766227064, 45.596016268713079 ], [ -122.600185672610351, 45.59633474549743 ] ] } },
{ "type": "Feature", "properties": { "runwayId": "10L - 28R" }, "geometry": { "type": "LineString", "coordinates": [ [ -122.595887647364506, 45.594673340323858 ], [ -122.596950875116676, 45.595082982565074 ] ] } },
{ "type": "Feature", "properties": { "runwayId": "10L - 28R" }, "geometry": { "type": "LineString", "coordinates": [ [ -122.586923008082366, 45.591180412491795 ], [ -122.58884562641498, 45.591922151231053 ], [ -122.590117430249506, 45.592422474005708 ] ] } },
{ "type": "Feature", "properties": { "runwayId": "10L - 28R" }, "geometry": { "type": "LineString", "coordinates": [ [ -122.582595215536699, 45.589487817566301 ], [ -122.584271097465717, 45.590136399436538 ], [ -122.585534968674452, 45.590630526037124 ] ] } },
{ "type": "Feature", "properties": { "runwayId": "10L - 28R" }, "geometry": { "type": "LineString", "coordinates": [ [ -122.581203537412804, 45.588943038983324 ], [ -122.582327981430041, 45.589384452841394 ] ] } },
{ "type": "Feature", "properties": { "runwayId": "10L - 28R" }, "geometry": { "type": "LineString", "coordinates": [ [ -122.575308945565865, 45.586647752125515 ], [ -122.57682135942639, 45.587240628211532 ] ] } },
{ "type": "Feature", "properties": { "runwayId": "10L - 28R" }, "geometry": { "type": "LineString", "coordinates": [ [ -122.568043243090258, 45.583812369554018 ], [ -122.56933967901081, 45.584322851702559 ] ] } },
{ "type": "Feature", "properties": { "runwayId": "10L - 28R" }, "geometry": { "type": "LineString", "coordinates": [ [ -122.566610791881999, 45.583255174390203 ], [ -122.567504618142493, 45.58360623292176 ] ] } },
{ "type": "Feature", "properties": { "runwayId": "3 - 21" }, "geometry": { "type": "LineString", "coordinates": [ [ -122.607919756512032, 45.588963051143651 ], [ -122.608712578926045, 45.588410916817217 ] ] } }
]
}
