{
"type": "FeatureCollection",
"name": "phxsl",
"crs": { "type": "name", "properties": { "name": "urn:ogc:def:crs:OGC:1.3:CRS84" } },
"features": [
{ "type": "Feature", "properties": { "id": "8 - 26" }, "geometry": { "type": "Polygon", "coordinates": [ [ [ -112.029825842719049, 33.441060546920852 ], [ -112.029835823725946, 33.440660769231584 ], [ -111.990800105700288, 33.440610796890901 ], [ -111.990800105700288, 33.441018903497508 ], [ -112.029825842719049, 33.441060546920852 ] ] ] } },
{ "type": "Feature", "properties": { "id": "7L - 25R" }, "geometry": { "type": "Polygon", "coordinates": [ [ [ -112.027510249115892, 33.431257133629288 ], [ -112.027505258612422, 33.430848981110032 ], [ -111.993020879737855, 33.430823992117922 ], [ -111.993030860744767, 33.431248804005207 ], [ -112.027510249115892, 33.431257133629288 ] ] ] } },
{ "type": "Feature", "properties": { "id": "7R - 25L" }, "geometry": { "type": "Polygon", "coordinates": [ [ [ -112.027130970853349, 33.42906641495815 ], [ -112.027125980349879, 33.428654087200265 ], [ -112.001534678632211, 33.428637427451704 ], [ -112.001534678632211, 33.42904559037089 ], [ -112.027130970853349, 33.42906641495815 ] ] ] } },
{ "type": "Feature", "properties": { "runwayId": "8 - 26" }, "geometry": { "type": "LineString", "coordinates": [ [ -112.029815861711924, 33.441078245369596 ], [ -112.029236963311149, 33.441069916688228 ] ] } },
{ "type": "Feature", "properties": { "runwayId": "8 - 26" }, "geometry": { "type": "LineString", "coordinates": [ [ -112.029815861711924, 33.440653481600229 ], [ -112.029266906331856, 33.440649317239263 ] ] } },
{ "type": "Feature", "properties": { "runwayId": "8 - 26" }, "geometry": { "type": "LineString", "coordinates": [ [ -112.028767855986345, 33.441065752347242 ], [ -112.027939432412822, 33.441065752347242 ] ] } },
{ "type": "Feature", "properties": { "runwayId": "8 - 26" }, "geometry": { "type": "LineString", "coordinates": [ [ -112.028787818000197, 33.440645152878083 ], [ -112.027954403923189, 33.440645152878083 ] ] } },
{ "type": "Feature", "properties": { "runwayId": "8 - 26" }, "geometry": { "type": "LineString", "coordinates": [ [ -112.027120989846239, 33.441069916688228 ], [ -112.026272604258864, 33.441065752347242 ] ] } },
{ "type": "Feature", "properties": { "runwayId": "8 - 26" }, "geometry": { "type": "LineString", "coordinates": [ [ -112.027130970853136, 33.440640988516705 ], [ -112.026292566272687, 33.440636824155142 ] ] } },
{ "type": "Feature", "properties": { "runwayId": "8 - 26" }, "geometry": { "type": "LineString", "coordinates": [ [ -112.020558477802837, 33.44106158800605 ], [ -112.020239085581721, 33.44106158800605 ] ] } },
{ "type": "Feature", "properties": { "runwayId": "8 - 26" }, "geometry": { "type": "LineString", "coordinates": [ [ -112.020917794051584, 33.440640988516705 ], [ -112.019515462580713, 33.440640988516705 ] ] } },
{ "type": "Feature", "properties": { "runwayId": "8 - 26" }, "geometry": { "type": "LineString", "coordinates": [ [ -112.017519261198686, 33.440636824155142 ], [ -112.016072015196741, 33.440628495431383 ] ] } },
{ "type": "Feature", "properties": { "runwayId": "8 - 26" }, "geometry": { "type": "LineString", "coordinates": [ [ -112.013756421593598, 33.441053259323084 ], [ -112.013417067358674, 33.441053259323084 ] ] } },
{ "type": "Feature", "properties": { "runwayId": "8 - 26" }, "geometry": { "type": "LineString", "coordinates": [ [ -112.014105756835463, 33.440636824155142 ], [ -112.012688453854238, 33.440632659793351 ] ] } },
{ "type": "Feature", "properties": { "runwayId": "8 - 26" }, "geometry": { "type": "LineString", "coordinates": [ [ -112.011036597210619, 33.441053259323084 ], [ -112.010228135650891, 33.441049094981288 ] ] } },
{ "type": "Feature", "properties": { "runwayId": "8 - 26" }, "geometry": { "type": "LineString", "coordinates": [ [ -112.011415875473205, 33.440628495431397 ], [ -112.009968629471246, 33.440624331069216 ] ] } },
{ "type": "Feature", "properties": { "runwayId": "8 - 26" }, "geometry": { "type": "LineString", "coordinates": [ [ -112.007513301771326, 33.441044930639315 ], [ -112.007203890557108, 33.441053259323084 ] ] } },
{ "type": "Feature", "properties": { "runwayId": "8 - 26" }, "geometry": { "type": "LineString", "coordinates": [ [ -112.008396620882863, 33.44062016670685 ], [ -112.006465296045789, 33.44062016670685 ] ] } },
{ "type": "Feature", "properties": { "runwayId": "8 - 26" }, "geometry": { "type": "LineString", "coordinates": [ [ -112.005611919954987, 33.44062016670685 ], [ -112.004154692946102, 33.44062016670685 ] ] } },
{ "type": "Feature", "properties": { "runwayId": "8 - 26" }, "geometry": { "type": "LineString", "coordinates": [ [ -112.001539669135639, 33.441044930639315 ], [ -112.000840998651952, 33.441049094981288 ] ] } },
{ "type": "Feature", "properties": { "runwayId": "8 - 26" }, "geometry": { "type": "LineString", "coordinates": [ [ -112.002093615019177, 33.44062016670685 ], [ -112.000656350024087, 33.440616002344271 ] ] } },
{ "type": "Feature", "properties": { "runwayId": "8 - 26" }, "geometry": { "type": "LineString", "coordinates": [ [ -111.998445556993531, 33.441036601954742 ], [ -111.998131155275843, 33.441044930639315 ] ] } },
{ "type": "Feature", "properties": { "runwayId": "8 - 26" }, "geometry": { "type": "LineString", "coordinates": [ [ -111.999254018553231, 33.440616002344271 ], [ -111.997836715572006, 33.4406118379815 ] ] } },
{ "type": "Feature", "properties": { "runwayId": "8 - 26" }, "geometry": { "type": "LineString", "coordinates": [ [ -111.994008999421951, 33.441028273269374 ], [ -111.993165604338074, 33.441028273269374 ] ] } },
{ "type": "Feature", "properties": { "runwayId": "8 - 26" }, "geometry": { "type": "LineString", "coordinates": [ [ -111.994008999421951, 33.440607673618523 ], [ -111.993170594841544, 33.440607673618523 ] ] } },
{ "type": "Feature", "properties": { "runwayId": "8 - 26" }, "geometry": { "type": "LineString", "coordinates": [ [ -111.992671544496034, 33.441032437612158 ], [ -111.992037750557245, 33.441024108926378 ] ] } },
{ "type": "Feature", "properties": { "runwayId": "8 - 26" }, "geometry": { "type": "LineString", "coordinates": [ [ -111.992671544496034, 33.440607673618523 ], [ -111.992022779046877, 33.440611837981507 ] ] } },
{ "type": "Feature", "properties": { "runwayId": "8 - 26" }, "geometry": { "type": "LineString", "coordinates": [ [ -111.991289175038972, 33.441032437612158 ], [ -111.990800105700359, 33.441032437612158 ] ] } },
{ "type": "Feature", "properties": { "runwayId": "8 - 26" }, "geometry": { "type": "LineString", "coordinates": [ [ -111.99159858625319, 33.440603509255347 ], [ -111.990800105700359, 33.440607673618523 ] ] } },
{ "type": "Feature", "properties": { "runwayId": "7L - 25R" }, "geometry": { "type": "LineString", "coordinates": [ [ -112.02711974222035, 33.431262339643858 ], [ -112.026530862812649, 33.431264422049622 ] ] } },
{ "type": "Feature", "properties": { "runwayId": "7L - 25R" }, "geometry": { "type": "LineString", "coordinates": [ [ -112.027104770709968, 33.430845857486354 ], [ -112.026535853316076, 33.430845857486354 ] ] } },
{ "type": "Feature", "properties": { "runwayId": "7L - 25R" }, "geometry": { "type": "LineString", "coordinates": [ [ -112.025912040384213, 33.431262339643858 ], [ -112.023905857995288, 33.431270669266624 ] ] } },
{ "type": "Feature", "properties": { "runwayId": "7L - 25R" }, "geometry": { "type": "LineString", "coordinates": [ [ -112.025897068873832, 33.430837527822817 ], [ -112.024040601588538, 33.430837527822817 ] ] } },
{ "type": "Feature", "properties": { "runwayId": "7L - 25R" }, "geometry": { "type": "LineString", "coordinates": [ [ -112.020592163701139, 33.431270669266624 ], [ -112.018660838864037, 33.431270669266624 ] ] } },
{ "type": "Feature", "properties": { "runwayId": "7L - 25R" }, "geometry": { "type": "LineString", "coordinates": [ [ -112.016250425695247, 33.431262339643858 ], [ -112.014388967906527, 33.431262339643858 ] ] } },
{ "type": "Feature", "properties": { "runwayId": "7L - 25R" }, "geometry": { "type": "LineString", "coordinates": [ [ -112.016250425695247, 33.430837527822817 ], [ -112.014373996396145, 33.430829198158477 ] ] } },
{ "type": "Feature", "properties": { "runwayId": "7L - 25R" }, "geometry": { "type": "LineString", "coordinates": [ [ -112.013276085636065, 33.431274834077705 ], [ -112.011454551874976, 33.431266504455351 ] ] } },
{ "type": "Feature", "properties": { "runwayId": "7L - 25R" }, "geometry": { "type": "LineString", "coordinates": [ [ -112.01030673608031, 33.43125817483218 ], [ -112.008460249801956, 33.431262339643858 ] ] } },
{ "type": "Feature", "properties": { "runwayId": "7L - 25R" }, "geometry": { "type": "LineString", "coordinates": [ [ -112.009143948775304, 33.430829198158492 ], [ -112.008734727491955, 33.430829198158492 ] ] } },
{ "type": "Feature", "properties": { "runwayId": "7L - 25R" }, "geometry": { "type": "LineString", "coordinates": [ [ -112.007601883207698, 33.431262339643858 ], [ -112.00568552988095, 33.431258174832173 ] ] } },
{ "type": "Feature", "properties": { "runwayId": "7L - 25R" }, "geometry": { "type": "LineString", "coordinates": [ [ -112.007636816731889, 33.430829198158492 ], [ -112.005710482398229, 33.430829198158492 ] ] } },
{ "type": "Feature", "properties": { "runwayId": "7L - 25R" }, "geometry": { "type": "LineString", "coordinates": [ [ -112.004662476672635, 33.431254010020297 ], [ -112.002686237304459, 33.43125817483218 ] ] } },
{ "type": "Feature", "properties": { "runwayId": "7L - 25R" }, "geometry": { "type": "LineString", "coordinates": [ [ -112.004612571638077, 33.430829198158492 ], [ -112.002706199318254, 33.430825033326023 ] ] } },
{ "type": "Feature", "properties": { "runwayId": "7L - 25R" }, "geometry": { "type": "LineString", "coordinates": [ [ -112.000979485122855, 33.431254010020297 ], [ -111.99911303683065, 33.431254010020297 ] ] } },
{ "type": "Feature", "properties": { "runwayId": "7L - 25R" }, "geometry": { "type": "LineString", "coordinates": [ [ -112.001019409150501, 33.430825033326023 ], [ -111.999098065320311, 33.430820868493363 ] ] } },
{ "type": "Feature", "properties": { "runwayId": "7L - 25R" }, "geometry": { "type": "LineString", "coordinates": [ [ -111.996473060502936, 33.431254010020297 ], [ -111.994591640700378, 33.43125817483218 ] ] } },
{ "type": "Feature", "properties": { "runwayId": "7L - 25R" }, "geometry": { "type": "LineString", "coordinates": [ [ -111.996458088992554, 33.430820868493363 ], [ -111.994576669190039, 33.43081670366049 ] ] } },
{ "type": "Feature", "properties": { "runwayId": "7L - 25R" }, "geometry": { "type": "LineString", "coordinates": [ [ -111.993907941727031, 33.431249845208228 ], [ -111.993324052822828, 33.431262339643858 ] ] } },
{ "type": "Feature", "properties": { "runwayId": "7L - 25R" }, "geometry": { "type": "LineString", "coordinates": [ [ -111.993912932230515, 33.43081670366049 ], [ -111.993334033829726, 33.43081670366049 ] ] } },
{ "type": "Feature", "properties": { "runwayId": "7R - 25L" }, "geometry": { "type": "LineString", "coordinates": [ [ -112.02711475171688, 33.429071621104171 ], [ -112.026590748854076, 33.429075786020782 ] ] } },
{ "type": "Feature", "properties": { "runwayId": "7R - 25L" }, "geometry": { "type": "LineString", "coordinates": [ [ -112.02711475171688, 33.428650963497638 ], [ -112.026570786840267, 33.428646798560642 ] ] } },
{ "type": "Feature", "properties": { "runwayId": "7R - 25L" }, "geometry": { "type": "LineString", "coordinates": [ [ -112.026411090729724, 33.428642633623454 ], [ -112.025592648163084, 33.428638468686046 ] ] } },
{ "type": "Feature", "properties": { "runwayId": "7R - 25L" }, "geometry": { "type": "LineString", "coordinates": [ [ -112.025517790611232, 33.429071621104171 ], [ -112.023107377442471, 33.429075786020782 ] ] } },
{ "type": "Feature", "properties": { "runwayId": "7R - 25L" }, "geometry": { "type": "LineString", "coordinates": [ [ -112.022144210275655, 33.429067456187376 ], [ -112.019663930058499, 33.429075786020782 ] ] } },
{ "type": "Feature", "properties": { "runwayId": "7R - 25L" }, "geometry": { "type": "LineString", "coordinates": [ [ -112.022149200779111, 33.428638468686067 ], [ -112.019544157975574, 33.428630138810689 ] ] } },
{ "type": "Feature", "properties": { "runwayId": "7R - 25L" }, "geometry": { "type": "LineString", "coordinates": [ [ -112.01698902020658, 33.429063291270346 ], [ -112.01617556814341, 33.429059126353167 ] ] } },
{ "type": "Feature", "properties": { "runwayId": "7R - 25L" }, "geometry": { "type": "LineString", "coordinates": [ [ -112.01698902020658, 33.428638468686046 ], [ -112.016185549150322, 33.428638468686046 ] ] } },
{ "type": "Feature", "properties": { "runwayId": "7R - 25L" }, "geometry": { "type": "LineString", "coordinates": [ [ -112.012208117896634, 33.429054961435746 ], [ -112.010366622121722, 33.429063291270346 ] ] } },
{ "type": "Feature", "properties": { "runwayId": "7R - 25L" }, "geometry": { "type": "LineString", "coordinates": [ [ -112.012178174875913, 33.428634303748474 ], [ -112.010301745576825, 33.428634303748474 ] ] } },
{ "type": "Feature", "properties": { "runwayId": "7R - 25L" }, "geometry": { "type": "LineString", "coordinates": [ [ -112.009543189051655, 33.429075786020782 ], [ -112.00753201615926, 33.429067456187362 ] ] } },
{ "type": "Feature", "properties": { "runwayId": "7R - 25L" }, "geometry": { "type": "LineString", "coordinates": [ [ -112.008130876573873, 33.428630138810689 ], [ -112.005964998074361, 33.42861764399612 ] ] } },
{ "type": "Feature", "properties": { "runwayId": "7R - 25L" }, "geometry": { "type": "LineString", "coordinates": [ [ -112.006758488123722, 33.429059126353167 ], [ -112.004652495665724, 33.429059126353167 ] ] } },
{ "type": "Feature", "properties": { "runwayId": "7R - 25L" }, "geometry": { "type": "LineString", "coordinates": [ [ -112.005645605853275, 33.428630138810689 ], [ -112.004897030335002, 33.428621808934501 ] ] } },
{ "type": "Feature", "properties": { "runwayId": "7R - 25L" }, "geometry": { "type": "LineString", "coordinates": [ [ -112.002157243938186, 33.429054961435746 ], [ -112.001558383523573, 33.429050796518148 ] ] } }
]
}
