{
"type": "FeatureCollection",
"name": "PIT_SL",
"crs": { "type": "name", "properties": { "name": "urn:ogc:def:crs:OGC:1.3:CRS84" } },
"features": [
{ "type": "Feature", "properties": { "id": "10L - 28R" }, "geometry": { "type": "Polygon", "coordinates": [ [ [ -80.271175212746016, 40.50254905407828 ], [ -80.271192303728384, 40.50213114192519 ], [ -80.233456314182533, 40.501150303503429 ], [ -80.233436524623997, 40.50157232569795 ], [ -80.271175212746016, 40.50254905407828 ] ] ] } },
{ "type": "Feature", "properties": { "id": "10C - 28C" }, "geometry": { "type": "Polygon", "coordinates": [ [ [ -80.247918883368428, 40.490134380053291 ], [ -80.247942271028492, 40.489725283985209 ], [ -80.209217703081393, 40.488708005861341 ], [ -80.209198813048246, 40.489120528707723 ], [ -80.247918883368428, 40.490134380053291 ] ] ] } },
{ "type": "Feature", "properties": { "id": "10R - 28L" }, "geometry": { "type": "Polygon", "coordinates": [ [ [ -80.251892986531942, 40.487014788510763 ], [ -80.251915474666617, 40.486468160939687 ], [ -80.210603871703995, 40.485382418130342 ], [ -80.210575086891609, 40.485939316762142 ], [ -80.251892986531942, 40.487014788510763 ] ] ] } },
{ "type": "Feature", "properties": { "id": "14 - 32" }, "geometry": { "type": "Polygon", "coordinates": [ [ [ -80.224663453516172, 40.496162443006334 ], [ -80.225066440889918, 40.495875144080131 ], [ -80.204970144199848, 40.479767335573428 ], [ -80.204577051605355, 40.480061545539741 ], [ -80.224663453516172, 40.496162443006334 ] ] ] } },
{ "type": "Feature", "properties": { "runwayId": "10L - 28R", "crossRunwayId": null }, "geometry": { "type": "LineString", "coordinates": [ [ -80.260241481656507, 40.501847288486992 ], [ -80.258075424522559, 40.501789833668994 ] ] } },
{ "type": "Feature", "properties": { "runwayId": "10L - 28R", "crossRunwayId": null }, "geometry": { "type": "LineString", "coordinates": [ [ -80.256841275690419, 40.50175973826849 ], [ -80.254653629947171, 40.501702283375522 ] ] } },
{ "type": "Feature", "properties": { "runwayId": "10L - 28R", "crossRunwayId": null }, "geometry": { "type": "LineString", "coordinates": [ [ -80.25167440186263, 40.50163114867793 ], [ -80.249839370071399, 40.501581901535417 ] ] } },
{ "type": "Feature", "properties": { "runwayId": "10L - 28R", "crossRunwayId": null }, "geometry": { "type": "LineString", "coordinates": [ [ -80.249072974440935, 40.501560013904921 ], [ -80.247173176821789, 40.501510766710169 ] ] } },
{ "type": "Feature", "properties": { "runwayId": "10L - 28R", "crossRunwayId": null }, "geometry": { "type": "LineString", "coordinates": [ [ -80.236529992432693, 40.501234434557972 ], [ -80.235554906912284, 40.501201602939474 ] ] } },
{ "type": "Feature", "properties": { "runwayId": "10L - 28R", "crossRunwayId": null }, "geometry": { "type": "LineString", "coordinates": [ [ -80.236332096847391, 40.501647564384065 ], [ -80.235508131592098, 40.501628412726511 ] ] } },
{ "type": "Feature", "properties": { "runwayId": "10L - 28R", "crossRunwayId": null }, "geometry": { "type": "LineString", "coordinates": [ [ -80.234076087174657, 40.501590109395011 ], [ -80.233432026996951, 40.501573693674814 ] ] } },
{ "type": "Feature", "properties": { "runwayId": "10L - 28R", "crossRunwayId": null }, "geometry": { "type": "LineString", "coordinates": [ [ -80.233993330838985, 40.501171507275082 ], [ -80.233442821301594, 40.501152355481615 ] ] } },
{ "type": "Feature", "properties": { "runwayId": "10C - 28C", "crossRunwayId": null }, "geometry": { "type": "LineString", "coordinates": [ [ -80.247916184792174, 40.490130959527946 ], [ -80.247264928411369, 40.490117277424815 ] ] } },
{ "type": "Feature", "properties": { "runwayId": "10C - 28C", "crossRunwayId": null }, "geometry": { "type": "LineString", "coordinates": [ [ -80.247855017065788, 40.489724599875984 ], [ -80.247110210044653, 40.489702708377067 ] ] } },
{ "type": "Feature", "properties": { "runwayId": "10C - 28C", "crossRunwayId": null }, "geometry": { "type": "LineString", "coordinates": [ [ -80.24038176014345, 40.489939409830207 ], [ -80.239511019568027, 40.489917518401384 ] ] } },
{ "type": "Feature", "properties": { "runwayId": "10C - 28C", "crossRunwayId": null }, "geometry": { "type": "LineString", "coordinates": [ [ -80.240378162041907, 40.489528944351143 ], [ -80.239489430958713, 40.489507052788419 ] ] } },
{ "type": "Feature", "properties": { "runwayId": "10C - 28C", "crossRunwayId": null }, "geometry": { "type": "LineString", "coordinates": [ [ -80.239003687249266, 40.489498843450541 ], [ -80.237985424510214, 40.489466006089039 ] ] } },
{ "type": "Feature", "properties": { "runwayId": "10C - 28C", "crossRunwayId": null }, "geometry": { "type": "LineString", "coordinates": [ [ -80.239075649280295, 40.489903836254719 ], [ -80.238111358064515, 40.489881944814286 ] ] } },
{ "type": "Feature", "properties": { "runwayId": "10C - 28C", "crossRunwayId": null }, "geometry": { "type": "LineString", "coordinates": [ [ -80.228473843059064, 40.489624719854156 ], [ -80.226435518530153, 40.489567254568762 ] ] } },
{ "type": "Feature", "properties": { "runwayId": "10C - 28C", "crossRunwayId": null }, "geometry": { "type": "LineString", "coordinates": [ [ -80.228547604140857, 40.489214252450324 ], [ -80.227187521754402, 40.489186887867461 ] ] } },
{ "type": "Feature", "properties": { "runwayId": "10C - 28C", "crossRunwayId": null }, "geometry": { "type": "LineString", "coordinates": [ [ -80.225046651331311, 40.489128053976536 ], [ -80.224454763626099, 40.489107530514097 ] ] } },
{ "type": "Feature", "properties": { "runwayId": "10C - 28C", "crossRunwayId": null }, "geometry": { "type": "LineString", "coordinates": [ [ -80.224381002544305, 40.489519366793317 ], [ -80.223535448679741, 40.489497475227473 ] ] } },
{ "type": "Feature", "properties": { "runwayId": "10C - 28C", "crossRunwayId": null }, "geometry": { "type": "LineString", "coordinates": [ [ -80.222590947022468, 40.489467374312746 ], [ -80.221860532407518, 40.489449587402255 ] ] } },
{ "type": "Feature", "properties": { "runwayId": "10C - 28C", "crossRunwayId": null }, "geometry": { "type": "LineString", "coordinates": [ [ -80.223213418590845, 40.489071956497639 ], [ -80.221784972274932, 40.489033645997296 ] ] } },
{ "type": "Feature", "properties": { "runwayId": "10C - 28C", "crossRunwayId": null }, "geometry": { "type": "LineString", "coordinates": [ [ -80.219458799621933, 40.489386649065729 ], [ -80.218674413483697, 40.489370230359519 ] ] } },
{ "type": "Feature", "properties": { "runwayId": "10C - 28C", "crossRunwayId": null }, "geometry": { "type": "LineString", "coordinates": [ [ -80.218893897678356, 40.48896523433514 ], [ -80.218127502047906, 40.488937869650741 ] ] } },
{ "type": "Feature", "properties": { "runwayId": "10C - 28C", "crossRunwayId": "14 -32" }, "geometry": { "type": "LineString", "coordinates": [ [ -80.216904147520424, 40.489320974216831 ], [ -80.216098172772888, 40.489303187267531 ] ] } },
{ "type": "Feature", "properties": { "runwayId": "10C - 28C", "crossRunwayId": "14 -32" }, "geometry": { "type": "LineString", "coordinates": [ [ -80.216359035135383, 40.488895454367871 ], [ -80.215567452794062, 40.488874930834285 ] ] } },
{ "type": "Feature", "properties": { "runwayId": "10C - 28C", "crossRunwayId": null }, "geometry": { "type": "LineString", "coordinates": [ [ -80.215031335662928, 40.48927171803799 ], [ -80.214354892571237, 40.489255299303672 ] ] } },
{ "type": "Feature", "properties": { "runwayId": "10C - 28C", "crossRunwayId": null }, "geometry": { "type": "LineString", "coordinates": [ [ -80.214117417868835, 40.488839356694527 ], [ -80.213419386167871, 40.48882020138069 ] ] } },
{ "type": "Feature", "properties": { "runwayId": "10C - 28C", "crossRunwayId": null }, "geometry": { "type": "LineString", "coordinates": [ [ -80.209688154859023, 40.489132158668291 ], [ -80.209191616844961, 40.489118476361519 ] ] } },
{ "type": "Feature", "properties": { "runwayId": "10R - 28L", "crossRunwayId": null }, "geometry": { "type": "LineString", "coordinates": [ [ -80.251893886057147, 40.487012736100176 ], [ -80.251183261000762, 40.486996316813212 ] ] } },
{ "type": "Feature", "properties": { "runwayId": "10R - 28L", "crossRunwayId": null }, "geometry": { "type": "LineString", "coordinates": [ [ -80.248252607287114, 40.486916956869571 ], [ -80.246993271744117, 40.48688685479744 ] ] } },
{ "type": "Feature", "properties": { "runwayId": "10R - 28L", "crossRunwayId": null }, "geometry": { "type": "LineString", "coordinates": [ [ -80.237861290006606, 40.48664877429669 ], [ -80.235795979716102, 40.486594043027708 ] ] } },
{ "type": "Feature", "properties": { "runwayId": "10R - 28L", "crossRunwayId": null }, "geometry": { "type": "LineString", "coordinates": [ [ -80.232536099710543, 40.486506472904495 ], [ -80.229596450743017, 40.486435322095254 ] ] } },
{ "type": "Feature", "properties": { "runwayId": "10R - 28L", "crossRunwayId": null }, "geometry": { "type": "LineString", "coordinates": [ [ -80.22553779219308, 40.486334068890528 ], [ -80.223537247730476, 40.48627933736492 ] ] } },
{ "type": "Feature", "properties": { "runwayId": "10R - 28L", "crossRunwayId": null }, "geometry": { "type": "LineString", "coordinates": [ [ -80.215232829349787, 40.486057674229762 ], [ -80.214631946390739, 40.486046727883142 ] ] } },
{ "type": "Feature", "properties": { "runwayId": "10R - 28L", "crossRunwayId": null }, "geometry": { "type": "LineString", "coordinates": [ [ -80.215459509747561, 40.485515827928594 ], [ -80.21364606656563, 40.485463832346454 ] ] } },
{ "type": "Feature", "properties": { "runwayId": "10R - 28L", "crossRunwayId": "14 - 32" }, "geometry": { "type": "LineString", "coordinates": [ [ -80.212746541177779, 40.485997469301203 ], [ -80.211944164531815, 40.485972839996684 ] ] } },
{ "type": "Feature", "properties": { "runwayId": "10R - 28L", "crossRunwayId": "14 - 32" }, "geometry": { "type": "LineString", "coordinates": [ [ -80.212030518969058, 40.485425519786453 ], [ -80.21121374991688, 40.485403626885216 ] ] } },
{ "type": "Feature", "properties": { "runwayId": "14 - 32", "crossRunwayId": null }, "geometry": { "type": "LineString", "coordinates": [ [ -80.225062842788276, 40.495870355754242 ], [ -80.224713826937787, 40.495591264170891 ] ] } },
{ "type": "Feature", "properties": { "runwayId": "14 - 32", "crossRunwayId": null }, "geometry": { "type": "LineString", "coordinates": [ [ -80.224670649719172, 40.496160390875467 ], [ -80.224339624376427, 40.495903189981846 ] ] } },
{ "type": "Feature", "properties": { "runwayId": "14 - 32", "crossRunwayId": null }, "geometry": { "type": "LineString", "coordinates": [ [ -80.223004728700872, 40.494819651987036 ], [ -80.222465013468153, 40.494406480113071 ] ] } },
{ "type": "Feature", "properties": { "runwayId": "14 - 32", "crossRunwayId": null }, "geometry": { "type": "LineString", "coordinates": [ [ -80.220910633597953, 40.492523916456136 ], [ -80.220338535451276, 40.492091576065761 ] ] } },
{ "type": "Feature", "properties": { "runwayId": "14 - 32", "crossRunwayId": null }, "geometry": { "type": "LineString", "coordinates": [ [ -80.220342133552833, 40.492699040884865 ], [ -80.219953538585258, 40.492389836506469 ] ] } },
{ "type": "Feature", "properties": { "runwayId": "14 - 32", "crossRunwayId": null }, "geometry": { "type": "LineString", "coordinates": [ [ -80.220205405693875, 40.491990331394597 ], [ -80.219313076509124, 40.4912597234283 ] ] } },
{ "type": "Feature", "properties": { "runwayId": "14 - 32", "crossRunwayId": null }, "geometry": { "type": "LineString", "coordinates": [ [ -80.219295086001367, 40.491872668476738 ], [ -80.218902892932277, 40.49153883302855 ] ] } },
{ "type": "Feature", "properties": { "runwayId": "14 - 32", "crossRunwayId": null }, "geometry": { "type": "LineString", "coordinates": [ [ -80.218280421363886, 40.490452488148541 ], [ -80.217809070060639, 40.490042025807696 ] ] } },
{ "type": "Feature", "properties": { "runwayId": "14 - 32", "crossRunwayId": null }, "geometry": { "type": "LineString", "coordinates": [ [ -80.217424073194636, 40.490359450237989 ], [ -80.216999497211575, 40.490020134412333 ] ] } },
{ "type": "Feature", "properties": { "runwayId": "14 - 32", "crossRunwayId": "10C - 28C" }, "geometry": { "type": "LineString", "coordinates": [ [ -80.216887956063474, 40.489323710670142 ], [ -80.21634824083074, 40.488896822603209 ] ] } },
{ "type": "Feature", "properties": { "runwayId": "14 - 32", "crossRunwayId": "10C - 28C" }, "geometry": { "type": "LineString", "coordinates": [ [ -80.216107168026824, 40.489304555494563 ], [ -80.215563854692547, 40.488870826126806 ] ] } },
{ "type": "Feature", "properties": { "runwayId": "14 - 32", "crossRunwayId": null }, "geometry": { "type": "LineString", "coordinates": [ [ -80.214693114117082, 40.487561411629827 ], [ -80.214308117251065, 40.487260393191384 ] ] } },
{ "type": "Feature", "properties": { "runwayId": "14 - 32", "crossRunwayId": null }, "geometry": { "type": "LineString", "coordinates": [ [ -80.213890737471118, 40.487528573320326 ], [ -80.213520133011343, 40.487241237426872 ] ] } },
{ "type": "Feature", "properties": { "runwayId": "14 - 32", "crossRunwayId": "10R - 28L" }, "geometry": { "type": "LineString", "coordinates": [ [ -80.212757335482422, 40.486004310773083 ], [ -80.212005332258173, 40.485415941643041 ] ] } },
{ "type": "Feature", "properties": { "runwayId": "14 - 32", "crossRunwayId": "10R - 28L" }, "geometry": { "type": "LineString", "coordinates": [ [ -80.211951360734886, 40.485971471701724 ], [ -80.211217348018408, 40.485385838897692 ] ] } },
{ "type": "Feature", "properties": { "id": "F" }, "geometry": { "type": "Polygon", "coordinates": [ [ [ -80.251237232524034, 40.488474036552851 ], [ -80.251237232524034, 40.488235961682406 ], [ -80.21073340335974, 40.487174192208059 ], [ -80.210719010953525, 40.487442372681443 ], [ -80.251237232524034, 40.488474036552851 ] ] ] } }
]
}
