{
"type": "FeatureCollection",
"name": "SDF ASDEX Safety Logic",
"crs": { "type": "name", "properties": { "name": "urn:ogc:def:crs:OGC:1.3:CRS84" } },
"features": [
{ "type": "Feature", "properties": { "id": "17R - 35L" }, "geometry": { "type": "Polygon", "coordinates": [ [ [ -85.747786025677996, 38.184963929671973 ], [ -85.748382190198157, 38.184816162397745 ], [ -85.739516153744574, 38.158009140683824 ], [ -85.738945466340667, 38.158146717111556 ], [ -85.747786025677996, 38.184963929671973 ] ] ] } },
{ "type": "Feature", "properties": { "id": "17L - 35R" }, "geometry": { "type": "Polygon", "coordinates": [ [ [ -85.730787693718725, 38.186502747493186 ], [ -85.731348190276123, 38.186411029874705 ], [ -85.724255361113265, 38.165611512171587 ], [ -85.723684673709357, 38.165774565715566 ], [ -85.730787693718725, 38.186502747493186 ] ] ] } },
{ "type": "Feature", "properties": { "id": "11 - 29" }, "geometry": { "type": "Polygon", "coordinates": [ [ [ -85.747836979910446, 38.180602247370651 ], [ -85.747989842607922, 38.180204804357217 ], [ -85.723898681485835, 38.172836822338915 ], [ -85.723766200481364, 38.173295410431344 ], [ -85.747836979910446, 38.180602247370651 ] ] ] } },
{ "type": "Feature", "properties": { "id": "A" }, "geometry": { "type": "Polygon", "coordinates": [ [ [ -85.749654834342905, 38.184400783093217 ], [ -85.750117575004666, 38.184266167627982 ], [ -85.741418050563468, 38.157696440176025 ], [ -85.741047858034051, 38.157763747908646 ], [ -85.749654834342905, 38.184400783093217 ] ] ] } },
{ "type": "Feature", "properties": { "id": "B" }, "geometry": { "type": "Polygon", "coordinates": [ [ [ -85.746499784376283, 38.185157995085198 ], [ -85.74690363077201, 38.185040206553111 ], [ -85.738035836999259, 38.158419998301703 ], [ -85.737665644469843, 38.158504132967472 ], [ -85.746499784376283, 38.185157995085198 ] ] ] } },
{ "type": "Feature", "properties": { "id": "D" }, "geometry": { "type": "Polygon", "coordinates": [ [ [ -85.732550256790717, 38.187042611598592 ], [ -85.733004583985903, 38.186840688400729 ], [ -85.725348329400333, 38.16409067477499 ], [ -85.724894002205147, 38.164326251839164 ], [ -85.732550256790717, 38.187042611598592 ] ] ] } },
{ "type": "Feature", "properties": { "id": "E" }, "geometry": { "type": "Polygon", "coordinates": [ [ [ -85.727855542440452, 38.183121936173436 ], [ -85.728360350435111, 38.183004147641356 ], [ -85.724052655547396, 38.169795005114572 ], [ -85.723547847552751, 38.169929620579808 ], [ -85.727855542440452, 38.183121936173436 ] ] ] } },
{ "type": "Feature", "properties": { "zIndex": null }, "geometry": { "type": "Polygon", "coordinates": [ [ [ -85.746920457705215, 38.181405588991602 ], [ -85.747046659703869, 38.180951261796416 ], [ -85.723371164754624, 38.1739849114702 ], [ -85.723438472487246, 38.174489719464852 ], [ -85.746920457705215, 38.181405588991602 ] ] ] } },
{ "type": "Feature", "properties": { "runwayId": "17R - 35L" }, "geometry": { "type": "LineString", "coordinates": [ [ -85.748519016354876, 38.18712253953106 ], [ -85.748047862226542, 38.185624942480253 ] ] } },
{ "type": "Feature", "properties": { "runwayId": "17R - 35L" }, "geometry": { "type": "LineString", "coordinates": [ [ -85.747871179428401, 38.185044413286398 ], [ -85.747408438766641, 38.183588883568483 ] ] } },
{ "type": "Feature", "properties": { "runwayId": "17R - 35L" }, "geometry": { "type": "LineString", "coordinates": [ [ -85.748493775955154, 38.184749941956184 ], [ -85.748308679690439, 38.184152585829182 ] ] } },
{ "type": "Feature", "properties": { "runwayId": "17R - 35L" }, "geometry": { "type": "LineString", "coordinates": [ [ -85.746701707574132, 38.181338281258981 ], [ -85.746457717043384, 38.180589482733581 ] ] } },
{ "type": "Feature", "properties": { "runwayId": "17R - 35L" }, "geometry": { "type": "LineString", "coordinates": [ [ -85.747160241502598, 38.180888160797082 ], [ -85.746794255706476, 38.179777583208846 ] ] } },
{ "type": "Feature", "properties": { "runwayId": "17R - 35L" }, "geometry": { "type": "LineString", "coordinates": [ [ -85.746297861178405, 38.180164602671411 ], [ -85.746112764913704, 38.179571453277696 ] ] } },
{ "type": "Feature", "properties": { "runwayId": "17R - 35L" }, "geometry": { "type": "LineString", "coordinates": [ [ -85.746541851709154, 38.179003544283702 ], [ -85.746348341977878, 38.178393567956832 ] ] } },
{ "type": "Feature", "properties": { "runwayId": "17R - 35L" }, "geometry": { "type": "LineString", "coordinates": [ [ -85.745843533983219, 38.178746933553093 ], [ -85.745708918517977, 38.178338880424079 ] ] } },
{ "type": "Feature", "properties": { "runwayId": "17R - 35L" }, "geometry": { "type": "LineString", "coordinates": [ [ -85.745607956919073, 38.176185032980214 ], [ -85.745342932721883, 38.175377340188767 ] ] } },
{ "type": "Feature", "properties": { "runwayId": "17R - 35L" }, "geometry": { "type": "LineString", "coordinates": [ [ -85.745082115257972, 38.176412196577807 ], [ -85.744573100530033, 38.174906186060426 ] ] } },
{ "type": "Feature", "properties": { "runwayId": "17R - 35L" }, "geometry": { "type": "LineString", "coordinates": [ [ -85.744728749661704, 38.173538997741574 ], [ -85.744497379330824, 38.172769165549724 ] ] } },
{ "type": "Feature", "properties": { "runwayId": "17R - 35L" }, "geometry": { "type": "LineString", "coordinates": [ [ -85.744207114733896, 38.173791401738903 ], [ -85.743702306739237, 38.172264357555072 ] ] } },
{ "type": "Feature", "properties": { "runwayId": "17R - 35L" }, "geometry": { "type": "LineString", "coordinates": [ [ -85.743336320943143, 38.169264956720163 ], [ -85.743100743878969, 38.168558225527647 ] ] } },
{ "type": "Feature", "properties": { "runwayId": "17R - 35L" }, "geometry": { "type": "LineString", "coordinates": [ [ -85.742970335147021, 38.170047409111874 ], [ -85.74247394061895, 38.168532985127918 ] ] } },
{ "type": "Feature", "properties": { "runwayId": "17R - 35L" }, "geometry": { "type": "LineString", "coordinates": [ [ -85.742457113685759, 38.166623128214809 ], [ -85.742229950088173, 38.165937430688736 ] ] } },
{ "type": "Feature", "properties": { "runwayId": "17R - 35L" }, "geometry": { "type": "LineString", "coordinates": [ [ -85.742128988489242, 38.167472888339141 ], [ -85.741611560294714, 38.165857502756253 ] ] } },
{ "type": "Feature", "properties": { "runwayId": "17R - 35L" }, "geometry": { "type": "LineString", "coordinates": [ [ -85.74144329096319, 38.163526972514276 ], [ -85.74121612736559, 38.162853895188071 ] ] } },
{ "type": "Feature", "properties": { "runwayId": "17R - 35L" }, "geometry": { "type": "LineString", "coordinates": [ [ -85.74086696850263, 38.163619520646627 ], [ -85.740648218371604, 38.162942236587135 ] ] } },
{ "type": "Feature", "properties": { "runwayId": "17R - 35L" }, "geometry": { "type": "LineString", "coordinates": [ [ -85.739823698647001, 38.158617714766265 ], [ -85.739663842782036, 38.158104493305032 ] ] } },
{ "type": "Feature", "properties": { "runwayId": "17R - 35L" }, "geometry": { "type": "LineString", "coordinates": [ [ -85.73952081385022, 38.159496922023621 ], [ -85.739037039522003, 38.158058219238853 ] ] } },
{ "type": "Feature", "properties": { "runwayId": "17R - 35L" }, "geometry": { "type": "LineString", "coordinates": [ [ -85.738616366193142, 38.156775165585778 ], [ -85.738393409328836, 38.156060020926681 ] ] } },
{ "type": "Feature", "properties": { "runwayId": "17R - 35L" }, "geometry": { "type": "LineString", "coordinates": [ [ -85.738317688129641, 38.155946439127888 ], [ -85.738183072664398, 38.155466871532965 ] ] } },
{ "type": "Feature", "properties": { "runwayId": "17L - 35R" }, "geometry": { "type": "LineString", "coordinates": [ [ -85.731687876466481, 38.187295015595893 ], [ -85.731477539802043, 38.186697659468891 ] ] } },
{ "type": "Feature", "properties": { "runwayId": "17L - 35R" }, "geometry": { "type": "LineString", "coordinates": [ [ -85.731410232069422, 38.18643684200498 ], [ -85.731225135804721, 38.185889966677443 ] ] } },
{ "type": "Feature", "properties": { "runwayId": "17L - 35R" }, "geometry": { "type": "LineString", "coordinates": [ [ -85.730762395142946, 38.186554630537067 ], [ -85.730585712344819, 38.185982514809794 ] ] } },
{ "type": "Feature", "properties": { "runwayId": "17L - 35R" }, "geometry": { "type": "LineString", "coordinates": [ [ -85.73050157767905, 38.183862321232247 ], [ -85.72996311581808, 38.182213281783049 ] ] } },
{ "type": "Feature", "properties": { "runwayId": "17L - 35R" }, "geometry": { "type": "LineString", "coordinates": [ [ -85.72950037515632, 38.18290318604241 ], [ -85.72927321155872, 38.182154387517002 ] ] } },
{ "type": "Feature", "properties": { "runwayId": "17L - 35R" }, "geometry": { "type": "LineString", "coordinates": [ [ -85.729609750221826, 38.18121207926032 ], [ -85.729037634494546, 38.179571453277696 ] ] } },
{ "type": "Feature", "properties": { "runwayId": "17L - 35R" }, "geometry": { "type": "LineString", "coordinates": [ [ -85.727910229973148, 38.178242125558441 ], [ -85.727657825975825, 38.17748491356646 ] ] } },
{ "type": "Feature", "properties": { "runwayId": "17L - 35R" }, "geometry": { "type": "LineString", "coordinates": [ [ -85.727842922240541, 38.175995729982233 ], [ -85.727514797044009, 38.175061835192125 ] ] } },
{ "type": "Feature", "properties": { "runwayId": "17L - 35R" }, "geometry": { "type": "LineString", "coordinates": [ [ -85.726984748649627, 38.175465681587845 ], [ -85.726715517719143, 38.174683229196134 ] ] } },
{ "type": "Feature", "properties": { "runwayId": "17L - 35R" }, "geometry": { "type": "LineString", "coordinates": [ [ -85.727380181578766, 38.174683229196134 ], [ -85.727085710248559, 38.17373250747287 ] ] } },
{ "type": "Feature", "properties": { "runwayId": "17L - 35R" }, "geometry": { "type": "LineString", "coordinates": [ [ -85.726555661854164, 38.174178421201475 ], [ -85.726210709724484, 38.173202459078482 ] ] } },
{ "type": "Feature", "properties": { "runwayId": "17L - 35R" }, "geometry": { "type": "LineString", "coordinates": [ [ -85.726909027450418, 38.173303420677414 ], [ -85.726244363590794, 38.171317842565102 ] ] } },
{ "type": "Feature", "properties": { "runwayId": "17L - 35R" }, "geometry": { "type": "LineString", "coordinates": [ [ -85.726076094259241, 38.172840680015646 ], [ -85.725832103728493, 38.172133948823131 ] ] } },
{ "type": "Feature", "properties": { "runwayId": "17L - 35R" }, "geometry": { "type": "LineString", "coordinates": [ [ -85.725790036395608, 38.17003058217874 ], [ -85.725327295733834, 38.168608706327127 ] ] } },
{ "type": "Feature", "properties": { "runwayId": "17L - 35R" }, "geometry": { "type": "LineString", "coordinates": [ [ -85.725125372535985, 38.170114716844516 ], [ -85.724915035871533, 38.16943322605173 ] ] } },
{ "type": "Feature", "properties": { "runwayId": "17L - 35R" }, "geometry": { "type": "LineString", "coordinates": [ [ -85.724519602942394, 38.166261349151988 ], [ -85.724233545078761, 38.16545365636054 ] ] } },
{ "type": "Feature", "properties": { "runwayId": "17L - 35R" }, "geometry": { "type": "LineString", "coordinates": [ [ -85.724090516146944, 38.16504980996482 ], [ -85.723871766015932, 38.1644187999715 ] ] } },
{ "type": "Feature", "properties": { "runwayId": "11 - 29" }, "geometry": { "type": "LineString", "coordinates": [ [ -85.749234161014002, 38.181077463795091 ], [ -85.748510602888331, 38.180858713664072 ] ] } },
{ "type": "Feature", "properties": { "runwayId": "11 - 29" }, "geometry": { "type": "LineString", "coordinates": [ [ -85.749032237816138, 38.180429626868616 ], [ -85.748350747023352, 38.180244530603908 ] ] } },
{ "type": "Feature", "properties": { "runwayId": "11 - 29" }, "geometry": { "type": "LineString", "coordinates": [ [ -85.747416852233243, 38.180530588467548 ], [ -85.74628944771186, 38.180202463271023 ] ] } },
{ "type": "Feature", "properties": { "runwayId": "11 - 29" }, "geometry": { "type": "LineString", "coordinates": [ [ -85.747635602364269, 38.18003419393947 ], [ -85.74690363077201, 38.179807030341877 ] ] } },
{ "type": "Feature", "properties": { "runwayId": "11 - 29" }, "geometry": { "type": "LineString", "coordinates": [ [ -85.746819496106241, 38.179764963008992 ], [ -85.746087524513996, 38.179563039811129 ] ] } },
{ "type": "Feature", "properties": { "runwayId": "11 - 29" }, "geometry": { "type": "LineString", "coordinates": [ [ -85.745136802790725, 38.179849097674769 ], [ -85.744514206263986, 38.179655587943486 ] ] } },
{ "type": "Feature", "properties": { "runwayId": "11 - 29" }, "geometry": { "type": "LineString", "coordinates": [ [ -85.744051465602212, 38.17951255901167 ], [ -85.743386801742588, 38.179310635813806 ] ] } },
{ "type": "Feature", "properties": { "runwayId": "11 - 29" }, "geometry": { "type": "LineString", "coordinates": [ [ -85.744943293059436, 38.179192847281719 ], [ -85.742907234147665, 38.178603904621291 ] ] } },
{ "type": "Feature", "properties": { "runwayId": "11 - 29" }, "geometry": { "type": "LineString", "coordinates": [ [ -85.742107954822799, 38.17891520288466 ], [ -85.740787040570126, 38.178486116089204 ] ] } },
{ "type": "Feature", "properties": { "runwayId": "11 - 29" }, "geometry": { "type": "LineString", "coordinates": [ [ -85.736714922746586, 38.177266163435455 ], [ -85.735814681822774, 38.17699693250497 ] ] } },
{ "type": "Feature", "properties": { "runwayId": "11 - 29" }, "geometry": { "type": "LineString", "coordinates": [ [ -85.731473333068763, 38.175676018252297 ], [ -85.730211313082123, 38.175288998789725 ] ] } },
{ "type": "Feature", "properties": { "runwayId": "11 - 29" }, "geometry": { "type": "LineString", "coordinates": [ [ -85.729470928023289, 38.175053421725558 ], [ -85.728343523501906, 38.174708469595878 ] ] } },
{ "type": "Feature", "properties": { "runwayId": "11 - 29" }, "geometry": { "type": "LineString", "coordinates": [ [ -85.728890398829449, 38.174338277066461 ], [ -85.72792285017303, 38.174018565336517 ] ] } },
{ "type": "Feature", "properties": { "runwayId": "11 - 29" }, "geometry": { "type": "LineString", "coordinates": [ [ -85.727678859642268, 38.174506546398014 ], [ -85.726500974321411, 38.17415318080176 ] ] } },
{ "type": "Feature", "properties": { "runwayId": "11 - 29" }, "geometry": { "type": "LineString", "coordinates": [ [ -85.727106743915002, 38.173749334406033 ], [ -85.725979339393604, 38.173412795742934 ] ] } },
{ "type": "Feature", "properties": { "runwayId": "11 - 29" }, "geometry": { "type": "LineString", "coordinates": [ [ -85.725390396733175, 38.173816642138654 ], [ -85.724725732873551, 38.173631545873945 ] ] } },
{ "type": "Feature", "properties": { "runwayId": "11 - 29" }, "geometry": { "type": "LineString", "coordinates": [ [ -85.725230540868196, 38.173202459078489 ], [ -85.72454905007541, 38.173000535880632 ] ] } },
{ "type": "Feature", "properties": { "runwayId": "11 - 29" }, "geometry": { "type": "LineString", "coordinates": [ [ -85.724506982742525, 38.172992122414051 ], [ -85.723850732349476, 38.172790199216195 ] ] } },
{ "type": "Feature", "properties": { "runwayId": "11 - 29" }, "geometry": { "type": "LineString", "coordinates": [ [ -85.724389194210445, 38.173480103475555 ], [ -85.723657222618201, 38.17326976681111 ] ] } }
]
}
