{
	"type": "FeatureCollection",
	"name": "SNA ASDE-X Runways",
	"features": [
		{
			"type": "Feature",
			"properties": {
				"id": "2L - 20R"
			},
			"geometry": {
				"type": "Polygon",
				"coordinates": [
					[
						[
							-117.87408444857121,
							33.66791139429176
						],
						[
							-117.87361849394422,
							33.667709139578949
						],
						[
							-117.86485963366404,
							33.68156072612842
						],
						[
							-117.86531084837913,
							33.68175668025141
						],
						[
							-117.87408444857121,
							33.66791139429176
						]
					]
				]
			}
		},
		{
			"type": "Feature",
			"properties": {
				"id": "2R - 20L"
			},
			"geometry": {
				"type": "Polygon",
				"coordinates": [
					[
						[
							-117.86818617166536,
							33.67405637686044
						],
						[
							-117.86795726950398,
							33.67395233042345
						],
						[
							-117.86350928432259,
							33.68096870190193
						],
						[
							-117.86374963159207,
							33.6810633841596
						],
						[
							-117.86818617166536,
							33.67405637686044
						]
					]
				]
			}
		},
		{
			"type": "Feature",
			"properties": {
				"runwayId": "2L - 20R"
			},
			"geometry": {
				"type": "LineString",
				"coordinates": [
					[
						-117.87361843614069,
						33.667706943043068
					],
					[
						-117.87329485172164,
						33.66822821569239
					]
				]
			}
		},
		{
			"type": "Feature",
			"properties": {
				"runwayId": "2L - 20R"
			},
			"geometry": {
				"type": "LineString",
				"coordinates": [
					[
						-117.87258317409261,
						33.66935087674752
					],
					[
						-117.87198386661554,
						33.67029873978851
					]
				]
			}
		},
		{
			"type": "Feature",
			"properties": {
				"runwayId": "2L - 20R"
			},
			"geometry": {
				"type": "LineString",
				"coordinates": [
					[
						-117.87302745237855,
						33.669579778908907
					],
					[
						-117.87256028387647,
						33.67031434675406
					]
				]
			}
		},
		{
			"type": "Feature",
			"properties": {
				"runwayId": "2L - 20R"
			},
			"geometry": {
				"type": "LineString",
				"coordinates": [
					[
						-117.87144906792942,
						33.67206856968174
					],
					[
						-117.87087056973975,
						33.67298729972037
					]
				]
			}
		},
		{
			"type": "Feature",
			"properties": {
				"runwayId": "2L - 20R"
			},
			"geometry": {
				"type": "LineString",
				"coordinates": [
					[
						-117.8703097594444,
						33.673871694434797
					],
					[
						-117.86995808248737,
						33.674427302408329
					]
				]
			}
		},
		{
			"type": "Feature",
			"properties": {
				"runwayId": "2L - 20R"
			},
			"geometry": {
				"type": "LineString",
				"coordinates": [
					[
						-117.86945033587485,
						33.67523054090189
					],
					[
						-117.86895715576351,
						33.67599840360689
					]
				]
			}
		},
		{
			"type": "Feature",
			"properties": {
				"runwayId": "2L - 20R"
			},
			"geometry": {
				"type": "LineString",
				"coordinates": [
					[
						-117.86905495941429,
						33.67491840159092
					],
					[
						-117.86871368710095,
						33.67546984770697
					]
				]
			}
		},
		{
			"type": "Feature",
			"properties": {
				"runwayId": "2L - 20R"
			},
			"geometry": {
				"type": "LineString",
				"coordinates": [
					[
						-117.86774293384385,
						33.67700193149167
					],
					[
						-117.86716443565418,
						33.67792378292341
					]
				]
			}
		},
		{
			"type": "Feature",
			"properties": {
				"runwayId": "2L - 20R"
			},
			"geometry": {
				"type": "LineString",
				"coordinates": [
					[
						-117.86805299222609,
						33.67742852188333
					],
					[
						-117.86760767347576,
						33.67813395672613
					]
				]
			}
		},
		{
			"type": "Feature",
			"properties": {
				"runwayId": "2L - 20R"
			},
			"geometry": {
				"type": "LineString",
				"coordinates": [
					[
						-117.86558709166943,
						33.68040737137438
					],
					[
						-117.86485668568175,
						33.68156020589624
					]
				]
			}
		},
		{
			"type": "Feature",
			"properties": {
				"runwayId": "2L - 20R"
			},
			"geometry": {
				"type": "LineString",
				"coordinates": [
					[
						-117.86531032814703,
						33.681751651340309
					],
					[
						-117.86602824856226,
						33.68062170703458
					]
				]
			}
		},
		{
			"type": "Feature",
			"properties": {
				"runwayId": "2L - 20R"
			},
			"geometry": {
				"type": "LineString",
				"coordinates": [
					[
						-117.87408560464285,
						33.66791347522051
					],
					[
						-117.87374225140077,
						33.66846075947908
					]
				]
			}
		},
		{
			"type": "Feature",
			"properties": {
				"runwayId": "2R - 20L"
			},
			"geometry": {
				"type": "LineString",
				"coordinates": [
					[
						-117.86795310764663,
						33.67394816856599
					],
					[
						-117.86771449448446,
						33.6743352213116
					]
				]
			}
		},
		{
			"type": "Feature",
			"properties": {
				"runwayId": "2R - 20L"
			},
			"geometry": {
				"type": "LineString",
				"coordinates": [
					[
						-117.86818478437967,
						33.67405637686046
					],
					[
						-117.86802663379544,
						33.67431025016672
					]
				]
			}
		},
		{
			"type": "Feature",
			"properties": {
				"runwayId": "2R - 20L"
			},
			"geometry": {
				"type": "LineString",
				"coordinates": [
					[
						-117.86611634121229,
						33.67686077515882
					],
					[
						-117.86583056033202,
						33.677306787552058
					]
				]
			}
		},
		{
			"type": "Feature",
			"properties": {
				"runwayId": "2R - 20L"
			},
			"geometry": {
				"type": "LineString",
				"coordinates": [
					[
						-117.86633969423036,
						33.67697037073912
					],
					[
						-117.86610524292567,
						33.67734632519811
					]
				]
			}
		},
		{
			"type": "Feature",
			"properties": {
				"runwayId": "2R - 20L"
			},
			"geometry": {
				"type": "LineString",
				"coordinates": [
					[
						-117.86414778262444,
						33.679956676891489
					],
					[
						-117.86392026774888,
						33.68032153306387
					]
				]
			}
		},
		{
			"type": "Feature",
			"properties": {
				"runwayId": "2R - 20L"
			},
			"geometry": {
				"type": "LineString",
				"coordinates": [
					[
						-117.86369830201665,
						33.680668354520509
					],
					[
						-117.86351101843006,
						33.680968008259039
					]
				]
			}
		},
		{
			"type": "Feature",
			"properties": {
				"runwayId": "2R - 20L"
			},
			"geometry": {
				"type": "LineString",
				"coordinates": [
					[
						-117.8637482443064,
						33.68106650555272
					],
					[
						-117.86438362121496,
						33.680066272471787
					]
				]
			}
		}
	]
}