{
"type": "FeatureCollection",
"name": "STL 2",
"crs": { "type": "name", "properties": { "name": "urn:ogc:def:crs:OGC:1.3:CRS84" } },
"features": [
{ "type": "Feature", "properties": { "id": "12R - 30L", "runwayId": null, "crossRunwayId": null }, "geometry": { "type": "Polygon", "coordinates": [ [ [ -90.378975659703698, 38.754134874003867 ], [ -90.379344267647937, 38.753679201502351 ], [ -90.346650562554672, 38.737557371597454 ], [ -90.346284302431712, 38.738016122921991 ], [ -90.378975659703698, 38.754134874003867 ] ] ] } },
{ "type": "Feature", "properties": { "id": "12L - 30R", "runwayId": null, "crossRunwayId": null }, "geometry": { "type": "Polygon", "coordinates": [ [ [ -90.366184142300824, 38.751967027846739 ], [ -90.366457370004767, 38.751621658607 ], [ -90.339741804898907, 38.73845037732417 ], [ -90.339463881552419, 38.738790545243546 ], [ -90.366184142300824, 38.751967027846739 ] ] ] } },
{ "type": "Feature", "properties": { "id": "6 - 24", "runwayId": null, "crossRunwayId": null }, "geometry": { "type": "Polygon", "coordinates": [ [ [ -90.381325535348196, 38.746875351560007 ], [ -90.381091927128821, 38.746517597636959 ], [ -90.357408279755532, 38.756042441771655 ], [ -90.357637192332419, 38.75639991910527 ], [ -90.381325535348196, 38.746875351560007 ] ] ] } },
{ "type": "Feature", "properties": { "id": "11 - 29", "runwayId": null, "crossRunwayId": null }, "geometry": { "type": "Polygon", "coordinates": [ [ [ -90.409725955715231, 38.760121055698399 ], [ -90.410000650807447, 38.75978327787417 ], [ -90.383318835632878, 38.746636162475433 ], [ -90.383042966629986, 38.746977664732334 ], [ -90.409725955715231, 38.760121055698399 ] ] ] } },
{ "type": "Feature", "properties": { "id": null, "runwayId": "11 - 29", "crossRunwayId": null }, "geometry": { "type": "LineString", "coordinates": [ [ -90.4097258837119, 38.760121294255356 ], [ -90.409254100278929, 38.75988431310811 ] ] } },
{ "type": "Feature", "properties": { "id": null, "runwayId": "11 - 29", "crossRunwayId": null }, "geometry": { "type": "LineString", "coordinates": [ [ -90.408697222165515, 38.759614379337897 ], [ -90.40779764982841, 38.759170656557203 ] ] } },
{ "type": "Feature", "properties": { "id": null, "runwayId": "11 - 29", "crossRunwayId": null }, "geometry": { "type": "LineString", "coordinates": [ [ -90.405280120810218, 38.757931107090805 ], [ -90.40274001565227, 38.756678896513186 ] ] } },
{ "type": "Feature", "properties": { "id": null, "runwayId": "11 - 29", "crossRunwayId": null }, "geometry": { "type": "LineString", "coordinates": [ [ -90.401423653043111, 38.756032469188625 ], [ -90.398968063690347, 38.754820853600265 ] ] } },
{ "type": "Feature", "properties": { "id": null, "runwayId": "11 - 29", "crossRunwayId": null }, "geometry": { "type": "LineString", "coordinates": [ [ -90.39388553787299, 38.75231900998547 ], [ -90.39134890596732, 38.751069409642497 ] ] } },
{ "type": "Feature", "properties": { "id": null, "runwayId": "11 - 29", "crossRunwayId": null }, "geometry": { "type": "LineString", "coordinates": [ [ -90.39008116888985, 38.750445504174351 ], [ -90.387492438200169, 38.749169686292362 ] ] } },
{ "type": "Feature", "properties": { "id": null, "runwayId": "6 - 24", "crossRunwayId": "12R - 30L" }, "geometry": { "type": "LineString", "coordinates": [ [ -90.372633787981812, 38.750370143437671 ], [ -90.371920710326435, 38.750656843368319 ] ] } },
{ "type": "Feature", "properties": { "id": null, "runwayId": "11 - 29", "crossRunwayId": null }, "geometry": { "type": "LineString", "coordinates": [ [ -90.384550593530093, 38.747720481210067 ], [ -90.383043202046238, 38.74697826011333 ] ] } },
{ "type": "Feature", "properties": { "id": null, "runwayId": "6 - 24", "crossRunwayId": null }, "geometry": { "type": "LineString", "coordinates": [ [ -90.381326257675681, 38.746877806847721 ], [ -90.380705703270664, 38.747125215085418 ] ] } },
{ "type": "Feature", "properties": { "id": null, "runwayId": "6 - 24", "crossRunwayId": null }, "geometry": { "type": "LineString", "coordinates": [ [ -90.380049837467581, 38.747388649739129 ], [ -90.379405549172034, 38.747647342977551 ] ] } },
{ "type": "Feature", "properties": { "id": null, "runwayId": "6 - 24", "crossRunwayId": null }, "geometry": { "type": "LineString", "coordinates": [ [ -90.381091234272276, 38.746518431311131 ], [ -90.380455629107431, 38.746775773273733 ] ] } },
{ "type": "Feature", "properties": { "id": null, "runwayId": "6 - 24", "crossRunwayId": null }, "geometry": { "type": "LineString", "coordinates": [ [ -90.379298457227151, 38.747234020261594 ], [ -90.378375150999531, 38.747607839271417 ] ] } },
{ "type": "Feature", "properties": { "id": null, "runwayId": "6 - 24", "crossRunwayId": null }, "geometry": { "type": "LineString", "coordinates": [ [ -90.376345613924869, 38.748419579608523 ], [ -90.375335476390575, 38.748826349242755 ] ] } },
{ "type": "Feature", "properties": { "id": null, "runwayId": "6 - 24", "crossRunwayId": null }, "geometry": { "type": "LineString", "coordinates": [ [ -90.372130124622515, 38.750121768333038 ], [ -90.37141752913179, 38.750408328249797 ] ] } },
{ "type": "Feature", "properties": { "id": null, "runwayId": "6 - 24", "crossRunwayId": null }, "geometry": { "type": "LineString", "coordinates": [ [ -90.374798280039997, 38.749044857168194 ], [ -90.372423733240097, 38.749996532647131 ] ] } },
{ "type": "Feature", "properties": { "id": null, "runwayId": "6 - 24", "crossRunwayId": null }, "geometry": { "type": "LineString", "coordinates": [ [ -90.375677012863392, 38.749144404462058 ], [ -90.374566729888699, 38.749593155619102 ] ] } },
{ "type": "Feature", "properties": { "id": null, "runwayId": "6 - 24", "crossRunwayId": null }, "geometry": { "type": "LineString", "coordinates": [ [ -90.374419116667355, 38.749651845199672 ], [ -90.373481338555237, 38.75003061756297 ] ] } },
{ "type": "Feature", "properties": { "id": null, "runwayId": "6 - 24", "crossRunwayId": null }, "geometry": { "type": "LineString", "coordinates": [ [ -90.364573586466818, 38.753161674662437 ], [ -90.365484709878871, 38.752794328588067 ] ] } },
{ "type": "Feature", "properties": { "id": null, "runwayId": "6 - 24", "crossRunwayId": null }, "geometry": { "type": "LineString", "coordinates": [ [ -90.365693728097483, 38.75316839166144 ], [ -90.36484303567822, 38.753502913494216 ] ] } },
{ "type": "Feature", "properties": { "id": null, "runwayId": "6 - 24", "crossRunwayId": null }, "geometry": { "type": "LineString", "coordinates": [ [ -90.358281742634489, 38.756141245022135 ], [ -90.357637043887564, 38.756399444966696 ] ] } },
{ "type": "Feature", "properties": { "id": null, "runwayId": "6 - 24", "crossRunwayId": null }, "geometry": { "type": "LineString", "coordinates": [ [ -90.358570374904986, 38.755574824070621 ], [ -90.357408391656577, 38.756042290659671 ] ] } },
{ "type": "Feature", "properties": { "id": null, "runwayId": "12R - 30L", "crossRunwayId": null }, "geometry": { "type": "LineString", "coordinates": [ [ -90.379343609506478, 38.753677835242584 ], [ -90.378596281393698, 38.753311270976816 ] ] } },
{ "type": "Feature", "properties": { "id": null, "runwayId": "12R - 30L", "crossRunwayId": null }, "geometry": { "type": "LineString", "coordinates": [ [ -90.377839112399471, 38.752938836143436 ], [ -90.377087732159069, 38.75256504504776 ] ] } },
{ "type": "Feature", "properties": { "id": null, "runwayId": "12R - 30L", "crossRunwayId": null }, "geometry": { "type": "LineString", "coordinates": [ [ -90.371860487496903, 38.749988406439584 ], [ -90.37069231698446, 38.749415055019597 ] ] } },
{ "type": "Feature", "properties": { "id": null, "runwayId": "12R - 30L", "crossRunwayId": null }, "geometry": { "type": "LineString", "coordinates": [ [ -90.377421164376656, 38.753368603196769 ], [ -90.376659364379435, 38.752991202855597 ] ] } },
{ "type": "Feature", "properties": { "id": null, "runwayId": "12R - 30L", "crossRunwayId": null }, "geometry": { "type": "LineString", "coordinates": [ [ -90.370534862881982, 38.749970122469335 ], [ -90.369955987504113, 38.749687510382735 ] ] } },
{ "type": "Feature", "properties": { "id": null, "runwayId": "12R - 30L", "crossRunwayId": null }, "geometry": { "type": "LineString", "coordinates": [ [ -90.368916757533285, 38.749181503508076 ], [ -90.368141643402367, 38.748801821368858 ] ] } },
{ "type": "Feature", "properties": { "id": null, "runwayId": "12R - 30L", "crossRunwayId": null }, "geometry": { "type": "LineString", "coordinates": [ [ -90.369352537005568, 38.748756275280712 ], [ -90.36855000729534, 38.748361364140749 ] ] } },
{ "type": "Feature", "properties": { "id": null, "runwayId": "12R - 30L", "crossRunwayId": null }, "geometry": { "type": "LineString", "coordinates": [ [ -90.365270463220867, 38.746747347685258 ], [ -90.36431464496529, 38.746283747213994 ] ] } },
{ "type": "Feature", "properties": { "id": null, "runwayId": "12R - 30L", "crossRunwayId": null }, "geometry": { "type": "LineString", "coordinates": [ [ -90.364851702831714, 38.747150466865037 ], [ -90.363891927455242, 38.746675962216841 ] ] } },
{ "type": "Feature", "properties": { "id": null, "runwayId": "12R - 30L", "crossRunwayId": null }, "geometry": { "type": "LineString", "coordinates": [ [ -90.36099731215657, 38.744630777087153 ], [ -90.359931023710601, 38.744108852881652 ] ] } },
{ "type": "Feature", "properties": { "id": null, "runwayId": "12R - 30L", "crossRunwayId": null }, "geometry": { "type": "LineString", "coordinates": [ [ -90.357699146088436, 38.743000108208335 ], [ -90.35667800992195, 38.742497136759546 ] ] } },
{ "type": "Feature", "properties": { "id": null, "runwayId": "12R - 30L", "crossRunwayId": null }, "geometry": { "type": "LineString", "coordinates": [ [ -90.357858579143297, 38.743731082890768 ], [ -90.355964113019994, 38.742798158485634 ] ] } },
{ "type": "Feature", "properties": { "id": null, "runwayId": "12R - 30L", "crossRunwayId": null }, "geometry": { "type": "LineString", "coordinates": [ [ -90.356698004725502, 38.742511903656037 ], [ -90.355450528286298, 38.741896502040753 ] ] } },
{ "type": "Feature", "properties": { "id": null, "runwayId": "12R - 30L", "crossRunwayId": null }, "geometry": { "type": "LineString", "coordinates": [ [ -90.354574110964236, 38.741464859885639 ], [ -90.353561079053051, 38.740966391221832 ] ] } },
{ "type": "Feature", "properties": { "id": null, "runwayId": "12R - 30L", "crossRunwayId": null }, "geometry": { "type": "LineString", "coordinates": [ [ -90.353978071494979, 38.741807999454423 ], [ -90.353096658253321, 38.741390186684029 ] ] } },
{ "type": "Feature", "properties": { "id": null, "runwayId": "12R - 30L", "crossRunwayId": null }, "geometry": { "type": "LineString", "coordinates": [ [ -90.350247017514974, 38.739330540717894 ], [ -90.349379862199015, 38.738904752892431 ] ] } },
{ "type": "Feature", "properties": { "id": null, "runwayId": "12R - 30L", "crossRunwayId": null }, "geometry": { "type": "LineString", "coordinates": [ [ -90.349870748519479, 38.7397840945223 ], [ -90.349017486212546, 38.739363276156126 ] ] } },
{ "type": "Feature", "properties": { "id": null, "runwayId": "12R - 30L", "crossRunwayId": null }, "geometry": { "type": "LineString", "coordinates": [ [ -90.346959005368973, 38.738348696358514 ], [ -90.346284615553785, 38.738016369801976 ] ] } },
{ "type": "Feature", "properties": { "id": null, "runwayId": "12R - 30L", "crossRunwayId": null }, "geometry": { "type": "LineString", "coordinates": [ [ -90.347306909470987, 38.737882038995501 ], [ -90.346649307041787, 38.737558289425344 ] ] } },
{ "type": "Feature", "properties": { "id": null, "runwayId": "12L - 30R", "crossRunwayId": null }, "geometry": { "type": "LineString", "coordinates": [ [ -90.366457368431014, 38.751621569127522 ], [ -90.365840092301838, 38.751317089989648 ] ] } },
{ "type": "Feature", "properties": { "id": null, "runwayId": "12L - 30R", "crossRunwayId": null }, "geometry": { "type": "LineString", "coordinates": [ [ -90.365905781891385, 38.751829787051363 ], [ -90.365034097588136, 38.751400880254224 ] ] } },
{ "type": "Feature", "properties": { "id": null, "runwayId": "12L - 30R", "crossRunwayId": null }, "geometry": { "type": "LineString", "coordinates": [ [ -90.361375418330212, 38.749116102941862 ], [ -90.360552038764965, 38.748712507723468 ] ] } },
{ "type": "Feature", "properties": { "id": null, "runwayId": "12L - 30R", "crossRunwayId": null }, "geometry": { "type": "LineString", "coordinates": [ [ -90.361114325432652, 38.749466658542261 ], [ -90.36021529051682, 38.749023431075251 ] ] } },
{ "type": "Feature", "properties": { "id": null, "runwayId": "12L - 30R", "crossRunwayId": null }, "geometry": { "type": "LineString", "coordinates": [ [ -90.357011675919424, 38.747442063198314 ], [ -90.356165218491924, 38.747026369233097 ] ] } },
{ "type": "Feature", "properties": { "id": null, "runwayId": "12L - 30R", "crossRunwayId": null }, "geometry": { "type": "LineString", "coordinates": [ [ -90.358383162998123, 38.747641751137742 ], [ -90.355823107233263, 38.746378602125361 ] ] } },
{ "type": "Feature", "properties": { "id": null, "runwayId": "12L - 30R", "crossRunwayId": null }, "geometry": { "type": "LineString", "coordinates": [ [ -90.353835695521084, 38.745398491570519 ], [ -90.352701816832337, 38.744841691254948 ] ] } },
{ "type": "Feature", "properties": { "id": null, "runwayId": "12L - 30R", "crossRunwayId": null }, "geometry": { "type": "LineString", "coordinates": [ [ -90.35353233052416, 38.745728249079598 ], [ -90.352431012752277, 38.745185454441327 ] ] } },
{ "type": "Feature", "properties": { "id": null, "runwayId": "12L - 30R", "crossRunwayId": null }, "geometry": { "type": "LineString", "coordinates": [ [ -90.351330297012808, 38.744163868681611 ], [ -90.349563532861239, 38.743293623228823 ] ] } },
{ "type": "Feature", "properties": { "id": null, "runwayId": "12L - 30R", "crossRunwayId": null }, "geometry": { "type": "LineString", "coordinates": [ [ -90.347889883040196, 38.742467193268276 ], [ -90.346931848957979, 38.74199543521091 ] ] } },
{ "type": "Feature", "properties": { "id": null, "runwayId": "12L - 30R", "crossRunwayId": null }, "geometry": { "type": "LineString", "coordinates": [ [ -90.347389192835834, 38.742699314618974 ], [ -90.346593306122429, 38.742307071357317 ] ] } },
{ "type": "Feature", "properties": { "id": null, "runwayId": "12L - 30R", "crossRunwayId": null }, "geometry": { "type": "LineString", "coordinates": [ [ -90.344848014456574, 38.74096832543615 ], [ -90.343863490952771, 38.740482157078588 ] ] } },
{ "type": "Feature", "properties": { "id": null, "runwayId": "12L - 30R", "crossRunwayId": null }, "geometry": { "type": "LineString", "coordinates": [ [ -90.340233035447696, 38.738693511134301 ], [ -90.339741576405544, 38.738450106565011 ] ] } },
{ "type": "Feature", "properties": { "id": null, "runwayId": "12R - 30L", "crossRunwayId": "6 - 24" }, "geometry": { "type": "LineString", "coordinates": [ [ -90.372635288596172, 38.750372313553818 ], [ -90.372128622864722, 38.750122083515585 ] ] } },
{ "type": "Feature", "properties": { "id": null, "runwayId": "12R - 30L", "crossRunwayId": "6 - 24" }, "geometry": { "type": "LineString", "coordinates": [ [ -90.371919228166135, 38.75066026375125 ], [ -90.37141603438792, 38.750408167338229 ] ] } },
{ "type": "Feature", "properties": { "id": null, "runwayId": "12L - 30R", "crossRunwayId": "6 - 24" }, "geometry": { "type": "LineString", "coordinates": [ [ -90.367872144624485, 38.752285699775882 ], [ -90.367352717591515, 38.752039586848106 ] ] } },
{ "type": "Feature", "properties": { "id": null, "runwayId": "12L - 30R", "crossRunwayId": "6 - 24" }, "geometry": { "type": "LineString", "coordinates": [ [ -90.367230590814614, 38.752550584893932 ], [ -90.366700670890495, 38.752301021953429 ] ] } },
{ "type": "Feature", "properties": { "id": null, "runwayId": "6 - 24", "crossRunwayId": null }, "geometry": { "type": "LineString", "coordinates": [ [ -90.372633787981812, 38.750370143437671 ], [ -90.371920710326435, 38.750656843368319 ] ] } },
{ "type": "Feature", "properties": { "id": null, "runwayId": "6 - 24", "crossRunwayId": "12R - 30L" }, "geometry": { "type": "LineString", "coordinates": [ [ -90.372130124622515, 38.750121768333038 ], [ -90.37141752913179, 38.750408328249797 ] ] } }
]
}
